{"type":"FeatureCollection","features":[{"type":"Feature","geometry":{"type":"Point","coordinates":[35.22143,-0.95165]},"properties":{"id":"540056444","n":"Kamaget","t":"bh","c":"Bomet"}},{"type":"Feature","geometry":{"type":"Point","coordinates":[35.260708,-0.872685]},"properties":{"id":"793454974","n":"Kimaya","t":"pdw","c":"Bomet"}},{"type":"Feature","geometry":{"type":"Point","coordinates":[35.325581,-0.874691]},"properties":{"id":"744526448","n":"Kapsigirio","t":"us","c":"Bomet"}},{"type":"Feature","geometry":{"type":"Point","coordinates":[35.321467,-0.875633]},"properties":{"id":"740440229","n":"Cheptuyet spring - Nyambugo","t":"us","c":"Bomet"}},{"type":"Feature","geometry":{"type":"Point","coordinates":[35.321587,-0.875597]},"properties":{"id":"744526462","n":"Cheptuiyet","t":"us","c":"Bomet"}},{"type":"Feature","geometry":{"type":"Point","coordinates":[35.231052,-0.629257]},"properties":{"id":"670826056","n":"Kondamet Spring (Chepkelelyet)","t":"us","c":"Bomet"}},{"type":"Feature","geometry":{"type":"Point","coordinates":[35.140104,-0.681586]},"properties":{"id":"28731517","n":"Kipsonoi river","t":"us","c":"Bomet"}},{"type":"Feature","geometry":{"type":"Point","coordinates":[35.150206,-0.670847]},"properties":{"id":"626077554","n":"Siriat Bible School","t":"bh","c":"Bomet"}},{"type":"Feature","geometry":{"type":"Point","coordinates":[35.226725,-0.622803]},"properties":{"id":"670826063","n":"Sosur Spring Chebilat","t":"us","c":"Bomet"}},{"type":"Feature","geometry":{"type":"Point","coordinates":[35.237202,-0.626243]},"properties":{"id":"670826049","n":"Chepkitach Cattle Trough (Matitu Spring)","t":"us","c":"Bomet"}},{"type":"Feature","geometry":{"type":"Point","coordinates":[35.07675,-0.895759]},"properties":{"id":"260978985","n":"Chemutial community spring","t":"ps","c":"Bomet"}},{"type":"Feature","geometry":{"type":"Point","coordinates":[34.528096,-0.394339]},"properties":{"id":"540056286","n":"Oyaro","t":"bh","c":"Homa Bay"}},{"type":"Feature","geometry":{"type":"Point","coordinates":[34.535189,-0.597576]},"properties":{"id":"665953213","n":"Imbo","t":"bh","c":"Homa Bay"}},{"type":"Feature","geometry":{"type":"Point","coordinates":[34.64976,-0.36843]},"properties":{"id":"3750944","n":"Decommissioned 2016 - Osika Community Well","t":"bh","c":"Homa Bay"}},{"type":"Feature","geometry":{"type":"Point","coordinates":[34.73497,-0.35833]},"properties":{"id":"3750920","n":"Decommissioned 2016 - Kanyangwena Primary School","t":"bh","c":"Homa Bay"}},{"type":"Feature","geometry":{"type":"Point","coordinates":[34.729683,-0.372235]},"properties":{"id":"10485086","n":"Alphonce Adoko Osano","t":"bh","c":"Homa Bay"}},{"type":"Feature","geometry":{"type":"Point","coordinates":[34.73497,-0.35833]},"properties":{"id":"3750937","n":"Decommissioned 2016 - Simbi Dispensary and Community Well","t":"bh","c":"Homa Bay"}},{"type":"Feature","geometry":{"type":"Point","coordinates":[34.711351,-0.545449]},"properties":{"id":"626077523","n":"Nyangiela Church of Christ","t":"bh","c":"Homa Bay"}},{"type":"Feature","geometry":{"type":"Point","coordinates":[34.281016,-0.72322]},"properties":{"id":"832177659","n":"Homa Bay.Ndhiwa.mbani primary school.next to staffroom.water tank tap","t":"bh","c":"Homa Bay"}},{"type":"Feature","geometry":{"type":"Point","coordinates":[34.615357,-0.569499]},"properties":{"id":"742327379","n":"Rariw","t":"bh","c":"Homa Bay"}},{"type":"Feature","geometry":{"type":"Point","coordinates":[34.532817,-0.482319]},"properties":{"id":"716164845","n":"HOMA-BAY.RANGWE.TARPRIMARYSCHOOL.BESIDESJSS.JERRICANS","t":"udw","c":"Homa Bay"}},{"type":"Feature","geometry":{"type":"Point","coordinates":[34.119495,-0.683995]},"properties":{"id":"293583202","n":"Kokongo","t":"ps","c":"Homa Bay"}},{"type":"Feature","geometry":{"type":"Point","coordinates":[34.07694,-0.686801]},"properties":{"id":"809917468","n":"Obanga secondary","t":"ps","c":"Homa Bay"}},{"type":"Feature","geometry":{"type":"Point","coordinates":[34.077314,-0.687169]},"properties":{"id":"809917499","n":"Kokello Main Tap","t":"ps","c":"Homa Bay"}},{"type":"Feature","geometry":{"type":"Point","coordinates":[34.082503,-0.681738]},"properties":{"id":"809917509","n":"Kajwera","t":"ps","c":"Homa Bay"}},{"type":"Feature","geometry":{"type":"Point","coordinates":[34.115084,-0.680598]},"properties":{"id":"293583233","n":"Riachogu","t":"ps","c":"Homa Bay"}},{"type":"Feature","geometry":{"type":"Point","coordinates":[34.073623,-0.682353]},"properties":{"id":"809917530","n":"Anywang","t":"ps","c":"Homa Bay"}},{"type":"Feature","geometry":{"type":"Point","coordinates":[34.125635,-0.675373]},"properties":{"id":"293583271","n":"Kichare Primay","t":"ps","c":"Homa Bay"}},{"type":"Feature","geometry":{"type":"Point","coordinates":[34.126383,-0.677215]},"properties":{"id":"293583257","n":"Kichare","t":"ps","c":"Homa Bay"}},{"type":"Feature","geometry":{"type":"Point","coordinates":[34.084049,-0.678729]},"properties":{"id":"809917516","n":"Konyimba","t":"ps","c":"Homa Bay"}},{"type":"Feature","geometry":{"type":"Point","coordinates":[34.074243,-0.688137]},"properties":{"id":"809917482","n":"Obanga Pipe 1","t":"ps","c":"Homa Bay"}},{"type":"Feature","geometry":{"type":"Point","coordinates":[34.075373,-0.686494]},"properties":{"id":"809917475","n":"Bangalore Primary","t":"ps","c":"Homa Bay"}},{"type":"Feature","geometry":{"type":"Point","coordinates":[34.074738,-0.684079]},"properties":{"id":"809917523","n":"Kanyodari","t":"ps","c":"Homa Bay"}},{"type":"Feature","geometry":{"type":"Point","coordinates":[34.126835,-0.691762]},"properties":{"id":"293583288","n":"Nyangina water point","t":"ps","c":"Homa Bay"}},{"type":"Feature","geometry":{"type":"Point","coordinates":[34.164906,-0.708097]},"properties":{"id":"277835631","n":"Sanjweru water supply system","t":"bh","c":"Homa Bay"}},{"type":"Feature","geometry":{"type":"Point","coordinates":[36.550154,-2.330304]},"properties":{"id":"304381889","n":"Oloirimirimi  water point 2","t":"bh","c":"Kajiado"}},{"type":"Feature","geometry":{"type":"Point","coordinates":[36.530857,-2.351562]},"properties":{"id":"353448586","n":"Kukuo shallow well 1","t":"udw","c":"Kajiado"}},{"type":"Feature","geometry":{"type":"Point","coordinates":[36.132468,-1.446477]},"properties":{"id":"349718088","n":"Olorkunono borehole","t":"bh","c":"Kajiado"}},{"type":"Feature","geometry":{"type":"Point","coordinates":[36.099207,-1.483702]},"properties":{"id":"349717616","n":"Eiti borehole","t":"bh","c":"Kajiado"}},{"type":"Feature","geometry":{"type":"Point","coordinates":[36.177033,-1.457515]},"properties":{"id":"349717843","n":"Lebitira borehole","t":"bh","c":"Kajiado"}},{"type":"Feature","geometry":{"type":"Point","coordinates":[36.1218,-1.44055]},"properties":{"id":"349718129","n":"Olorkunono ole koroine","t":"bh","c":"Kajiado"}},{"type":"Feature","geometry":{"type":"Point","coordinates":[36.178835,-1.438683]},"properties":{"id":"349717805","n":"Olokeri borehole","t":"bh","c":"Kajiado"}},{"type":"Feature","geometry":{"type":"Point","coordinates":[36.167798,-1.424535]},"properties":{"id":"349717764","n":"Inkukuon borehole","t":"bh","c":"Kajiado"}},{"type":"Feature","geometry":{"type":"Point","coordinates":[36.501351,-1.907522]},"properties":{"id":"362029233","n":"Olbili trough","t":"bh","c":"Kajiado"}},{"type":"Feature","geometry":{"type":"Point","coordinates":[36.033783,-2.046686]},"properties":{"id":"538738066","n":"Pakase Primary water point","t":"us","c":"Kajiado"}},{"type":"Feature","geometry":{"type":"Point","coordinates":[36.207366,-1.745983]},"properties":{"id":"554892993","n":"Oldorko borehole","t":"bh","c":"Kajiado","d":140.0}},{"type":"Feature","geometry":{"type":"Point","coordinates":[36.23096,-1.799752]},"properties":{"id":"362029295","n":"","t":"bh","c":"Kajiado"}},{"type":"Feature","geometry":{"type":"Point","coordinates":[36.11424,-1.866076]},"properties":{"id":"554892917","n":"National oil borehole water point","t":"bh","c":"Kajiado","d":70.0}},{"type":"Feature","geometry":{"type":"Point","coordinates":[36.045717,-2.057993]},"properties":{"id":"538738097","n":"Oremit water point","t":"us","c":"Kajiado"}},{"type":"Feature","geometry":{"type":"Point","coordinates":[36.042859,-2.056694]},"properties":{"id":"538738080","n":"Memusi B primary school water point","t":"us","c":"Kajiado"}},{"type":"Feature","geometry":{"type":"Point","coordinates":[36.033926,-2.055581]},"properties":{"id":"538738059","n":"Pakase community water point","t":"us","c":"Kajiado"}},{"type":"Feature","geometry":{"type":"Point","coordinates":[34.800026,-0.591209]},"properties":{"id":"634214000","n":"Mbanda spring","t":"us","c":"Kisii"}},{"type":"Feature","geometry":{"type":"Point","coordinates":[34.75318,-0.6536]},"properties":{"id":"23643","n":"Nyabururu, H20i: NB09","t":"udw","c":"Kisii"}},{"type":"Feature","geometry":{"type":"Point","coordinates":[34.75655,-0.6634]},"properties":{"id":"23667","n":"Nyabururu, H20i: NB11","t":"udw","c":"Kisii"}},{"type":"Feature","geometry":{"type":"Point","coordinates":[34.74482,-0.65473]},"properties":{"id":"23801","n":"Nyamokenye, H20i: NK02","t":"us","c":"Kisii"}},{"type":"Feature","geometry":{"type":"Point","coordinates":[34.74903,-0.66243]},"properties":{"id":"22587","n":"Central, H20i: C15","t":"us","c":"Kisii"}},{"type":"Feature","geometry":{"type":"Point","coordinates":[34.74483,-0.65473]},"properties":{"id":"22491","n":"Central, H20i: C06","t":"us","c":"Kisii"}},{"type":"Feature","geometry":{"type":"Point","coordinates":[34.752,-0.65298]},"properties":{"id":"22477","n":"Central, H20i: C04","t":"us","c":"Kisii"}},{"type":"Feature","geometry":{"type":"Point","coordinates":[34.74478,-0.65472]},"properties":{"id":"23629","n":"Nyabururu, H20i: NB07","t":"us","c":"Kisii"}},{"type":"Feature","geometry":{"type":"Point","coordinates":[34.74948,-0.66237]},"properties":{"id":"23849","n":"Nyamokenye, H20i: NK06","t":"us","c":"Kisii"}},{"type":"Feature","geometry":{"type":"Point","coordinates":[34.752,-0.65298]},"properties":{"id":"23650","n":"Nyabururu, H20i: NB10","t":"udw","c":"Kisii"}},{"type":"Feature","geometry":{"type":"Point","coordinates":[34.75172,-0.65985]},"properties":{"id":"23595","n":"Nyabururu, H20i: NB04","t":"us","c":"Kisii"}},{"type":"Feature","geometry":{"type":"Point","coordinates":[34.75077,-0.66105]},"properties":{"id":"23571","n":"Nyabururu, H20i: NB02","t":"us","c":"Kisii"}},{"type":"Feature","geometry":{"type":"Point","coordinates":[34.76553,-0.65588]},"properties":{"id":"22910","n":"Daraja Mbili, H20i: DJ02","t":"udw","c":"Kisii"}},{"type":"Feature","geometry":{"type":"Point","coordinates":[34.75427,-0.66458]},"properties":{"id":"22570","n":"Central, H20i: C14","t":"us","c":"Kisii"}},{"type":"Feature","geometry":{"type":"Point","coordinates":[34.75352,-0.66013]},"properties":{"id":"23612","n":"Nyabururu, H20i: NB06","t":"us","c":"Kisii"}},{"type":"Feature","geometry":{"type":"Point","coordinates":[34.76553,-0.65588]},"properties":{"id":"23739","n":"Nyankongo, H20i: NG07","t":"ps","c":"Kisii"}},{"type":"Feature","geometry":{"type":"Point","coordinates":[34.75718,-0.667]},"properties":{"id":"23791","n":"Nyamokenye, H20i: NK01","t":"ps","c":"Kisii"}},{"type":"Feature","geometry":{"type":"Point","coordinates":[34.75685,-0.65778]},"properties":{"id":"23605","n":"Nyabururu, H20i: NB05","t":"us","c":"Kisii"}},{"type":"Feature","geometry":{"type":"Point","coordinates":[34.74948,-0.66237]},"properties":{"id":"23564","n":"Nyabururu, H20i: NB01","t":"bh","c":"Kisii"}},{"type":"Feature","geometry":{"type":"Point","coordinates":[34.75883,-0.66557]},"properties":{"id":"23014","n":"Daraja Mbili, H20i: DJ12","t":"us","c":"Kisii"}},{"type":"Feature","geometry":{"type":"Point","coordinates":[34.7487,-0.66335]},"properties":{"id":"22903","n":"Daraja Mbili, H20i: DJ01","t":"us","c":"Kisii"}},{"type":"Feature","geometry":{"type":"Point","coordinates":[34.75763,-0.6553]},"properties":{"id":"23588","n":"Nyabururu, H20i: NB03","t":"us","c":"Kisii"}},{"type":"Feature","geometry":{"type":"Point","coordinates":[34.75462,-0.66415]},"properties":{"id":"23784","n":"Nyankongo, H20i: NG12","t":"udw","c":"Kisii"}},{"type":"Feature","geometry":{"type":"Point","coordinates":[34.74908,-0.66227]},"properties":{"id":"22769","n":"Central, H20i: C35","t":"us","c":"Kisii"}},{"type":"Feature","geometry":{"type":"Point","coordinates":[34.77638,-0.68977]},"properties":{"id":"23193","n":"Gekomu, H20i: GK04","t":"us","c":"Kisii"}},{"type":"Feature","geometry":{"type":"Point","coordinates":[34.77755,-0.67252]},"properties":{"id":"23722","n":"Nyankongo, H20i: NG06","t":"us","c":"Kisii"}},{"type":"Feature","geometry":{"type":"Point","coordinates":[34.77495,-0.69625]},"properties":{"id":"24084","n":"Nyaura, H20i: NR23","t":"us","c":"Kisii"}},{"type":"Feature","geometry":{"type":"Point","coordinates":[34.797115,-0.702127]},"properties":{"id":"53383745","n":"Nyanderema","t":"ps","c":"Kisii"}},{"type":"Feature","geometry":{"type":"Point","coordinates":[34.77967,-0.70265]},"properties":{"id":"23980","n":"Nyaura, H20i: NR13","t":"us","c":"Kisii"}},{"type":"Feature","geometry":{"type":"Point","coordinates":[34.77592,-0.695]},"properties":{"id":"23959","n":"Nyaura, H20i: NR10","t":"us","c":"Kisii"}},{"type":"Feature","geometry":{"type":"Point","coordinates":[34.7796,-0.70947]},"properties":{"id":"23870","n":"Nyaura, H20i: NR02","t":"us","c":"Kisii"}},{"type":"Feature","geometry":{"type":"Point","coordinates":[34.77672,-0.69528]},"properties":{"id":"24015","n":"Nyaura, H20i: NR16","t":"us","c":"Kisii"}},{"type":"Feature","geometry":{"type":"Point","coordinates":[34.77987,-0.6722]},"properties":{"id":"23760","n":"Nyankongo, H20i: NG10","t":"us","c":"Kisii"}},{"type":"Feature","geometry":{"type":"Point","coordinates":[34.78778,-0.69763]},"properties":{"id":"22185","n":"Bobaracho, H20i: B01","t":"us","c":"Kisii"}},{"type":"Feature","geometry":{"type":"Point","coordinates":[34.77763,-0.67697]},"properties":{"id":"23423","n":"Kiamwasi, H20i: KI04","t":"us","c":"Kisii"}},{"type":"Feature","geometry":{"type":"Point","coordinates":[34.77883,-0.68798]},"properties":{"id":"22721","n":"Central, H20i: C31","t":"us","c":"Kisii"}},{"type":"Feature","geometry":{"type":"Point","coordinates":[34.77737,-0.69302]},"properties":{"id":"22518","n":"Central, H20i: C08","t":"us","c":"Kisii"}},{"type":"Feature","geometry":{"type":"Point","coordinates":[34.79925,-0.70172]},"properties":{"id":"23832","n":"Nyamokenye, H20i: NK05","t":"us","c":"Kisii"}},{"type":"Feature","geometry":{"type":"Point","coordinates":[34.77555,-0.69022]},"properties":{"id":"23203","n":"Gekomu, H20i: GK05","t":"us","c":"Kisii"}},{"type":"Feature","geometry":{"type":"Point","coordinates":[34.77438,-0.69665]},"properties":{"id":"24060","n":"Nyaura, H20i: NR21","t":"us","c":"Kisii"}},{"type":"Feature","geometry":{"type":"Point","coordinates":[34.7747,-0.69652]},"properties":{"id":"24053","n":"Nyaura, H20i: NR20","t":"us","c":"Kisii"}},{"type":"Feature","geometry":{"type":"Point","coordinates":[34.77415,-0.69693]},"properties":{"id":"23894","n":"Nyaura, H20i: NR04","t":"us","c":"Kisii"}},{"type":"Feature","geometry":{"type":"Point","coordinates":[34.77983,-0.67233]},"properties":{"id":"23777","n":"Nyankongo, H20i: NG11","t":"us","c":"Kisii"}},{"type":"Feature","geometry":{"type":"Point","coordinates":[34.77728,-0.6863]},"properties":{"id":"23825","n":"Nyamokenye, H20i: NK04","t":"udw","c":"Kisii"}},{"type":"Feature","geometry":{"type":"Point","coordinates":[34.7796,-0.7094]},"properties":{"id":"23863","n":"Nyaura, H20i: NR01","t":"us","c":"Kisii"}},{"type":"Feature","geometry":{"type":"Point","coordinates":[34.77857,-0.71598]},"properties":{"id":"24077","n":"Nyaura, H20i: NR22","t":"us","c":"Kisii"}},{"type":"Feature","geometry":{"type":"Point","coordinates":[34.7687,-0.67782]},"properties":{"id":"22549","n":"Central, H20i: C11","t":"ps","c":"Kisii"}},{"type":"Feature","geometry":{"type":"Point","coordinates":[34.77475,-0.70128]},"properties":{"id":"22288","n":"Bobaracho, H20i: B11","t":"ps","c":"Kisii"}},{"type":"Feature","geometry":{"type":"Point","coordinates":[34.76832,-0.66117]},"properties":{"id":"23681","n":"Nyankongo, H20i: NG02","t":"us","c":"Kisii"}},{"type":"Feature","geometry":{"type":"Point","coordinates":[34.7685,-0.66658]},"properties":{"id":"22941","n":"Daraja Mbili, H20i: DJ05","t":"ps","c":"Kisii"}},{"type":"Feature","geometry":{"type":"Point","coordinates":[34.77548,-0.67208]},"properties":{"id":"23753","n":"Nyankongo, H20i: NG09","t":"us","c":"Kisii"}},{"type":"Feature","geometry":{"type":"Point","coordinates":[34.7659,-0.6709]},"properties":{"id":"22697","n":"Central, H20i: C28","t":"us","c":"Kisii"}},{"type":"Feature","geometry":{"type":"Point","coordinates":[34.77013,-0.66618]},"properties":{"id":"23708","n":"Nyankongo, H20i: NG04","t":"udw","c":"Kisii"}},{"type":"Feature","geometry":{"type":"Point","coordinates":[34.76445,-0.66122]},"properties":{"id":"23409","n":"Kiamwasi, H20i: KI02","t":"pdw","c":"Kisii"}},{"type":"Feature","geometry":{"type":"Point","coordinates":[34.7681,-0.66418]},"properties":{"id":"23399","n":"Kiamwasi, H20i: KI01","t":"udw","c":"Kisii"}},{"type":"Feature","geometry":{"type":"Point","coordinates":[34.77217,-0.68257]},"properties":{"id":"23818","n":"Nyamokenye, H20i: NK03","t":"us","c":"Kisii"}},{"type":"Feature","geometry":{"type":"Point","coordinates":[34.77565,-0.6753]},"properties":{"id":"23533","n":"Kiongongi, H20i: KN04","t":"us","c":"Kisii"}},{"type":"Feature","geometry":{"type":"Point","coordinates":[34.76293,-0.66617]},"properties":{"id":"22563","n":"Central, H20i: C13","t":"us","c":"Kisii"}},{"type":"Feature","geometry":{"type":"Point","coordinates":[34.77658,-0.6799]},"properties":{"id":"22714","n":"Central, H20i: C30","t":"us","c":"Kisii"}},{"type":"Feature","geometry":{"type":"Point","coordinates":[34.77115,-0.65968]},"properties":{"id":"23674","n":"Nyankongo, H20i: NG01","t":"us","c":"Kisii"}},{"type":"Feature","geometry":{"type":"Point","coordinates":[34.77817,-0.71338]},"properties":{"id":"22312","n":"Bobaracho, H20i: B14","t":"ps","c":"Kisii"}},{"type":"Feature","geometry":{"type":"Point","coordinates":[34.76773,-0.67638]},"properties":{"id":"22738","n":"Central, H20i: C32","t":"us","c":"Kisii"}},{"type":"Feature","geometry":{"type":"Point","coordinates":[34.76535,-0.66552]},"properties":{"id":"23007","n":"Daraja Mbili, H20i: DJ11","t":"us","c":"Kisii"}},{"type":"Feature","geometry":{"type":"Point","coordinates":[34.7645,-0.66818]},"properties":{"id":"22934","n":"Daraja Mbili, H20i: DJ04","t":"us","c":"Kisii"}},{"type":"Feature","geometry":{"type":"Point","coordinates":[34.76725,-0.68413]},"properties":{"id":"22295","n":"Bobaracho, H20i: B12","t":"us","c":"Kisii"}},{"type":"Feature","geometry":{"type":"Point","coordinates":[34.77583,-0.67898]},"properties":{"id":"22453","n":"Central, H20i: C02","t":"udw","c":"Kisii"}},{"type":"Feature","geometry":{"type":"Point","coordinates":[34.7695,-0.66522]},"properties":{"id":"23698","n":"Nyankongo, H20i: NG03","t":"us","c":"Kisii"}},{"type":"Feature","geometry":{"type":"Point","coordinates":[34.76467,-0.66828]},"properties":{"id":"22927","n":"Daraja Mbili, H20i: DJ03","t":"us","c":"Kisii"}},{"type":"Feature","geometry":{"type":"Point","coordinates":[34.76768,-0.67818]},"properties":{"id":"22745","n":"Central, H20i: C33","t":"us","c":"Kisii"}},{"type":"Feature","geometry":{"type":"Point","coordinates":[34.76575,-0.67058]},"properties":{"id":"22532","n":"Central, H20i: C10","t":"us","c":"Kisii"}},{"type":"Feature","geometry":{"type":"Point","coordinates":[34.77267,-0.66328]},"properties":{"id":"23416","n":"Kiamwasi, H20i: KI03","t":"pdw","c":"Kisii"}},{"type":"Feature","geometry":{"type":"Point","coordinates":[34.776439,-0.681882]},"properties":{"id":"540056406","n":"Mogesa C of C","t":"bh","c":"Kisii"}},{"type":"Feature","geometry":{"type":"Point","coordinates":[34.77363,-0.69813]},"properties":{"id":"23942","n":"Nyaura, H20i: NR09","t":"us","c":"Kisii"}},{"type":"Feature","geometry":{"type":"Point","coordinates":[34.77357,-0.67788]},"properties":{"id":"23856","n":"Nyamokenye, H20i: NK07","t":"udw","c":"Kisii"}},{"type":"Feature","geometry":{"type":"Point","coordinates":[34.77018,-0.6637]},"properties":{"id":"23715","n":"Nyankongo, H20i: NG05","t":"us","c":"Kisii"}},{"type":"Feature","geometry":{"type":"Point","coordinates":[34.77312,-0.67797]},"properties":{"id":"23526","n":"Kiongongi, H20i: KN03","t":"us","c":"Kisii"}},{"type":"Feature","geometry":{"type":"Point","coordinates":[34.77048,-0.6751]},"properties":{"id":"22501","n":"Central, H20i: C07","t":"us","c":"Kisii"}},{"type":"Feature","geometry":{"type":"Point","coordinates":[34.77357,-0.67798]},"properties":{"id":"23636","n":"Nyabururu, H20i: NB08","t":"udw","c":"Kisii"}},{"type":"Feature","geometry":{"type":"Point","coordinates":[34.77497,-0.6707]},"properties":{"id":"23746","n":"Nyankongo, H20i: NG08","t":"us","c":"Kisii"}},{"type":"Feature","geometry":{"type":"Point","coordinates":[34.7654,-0.66537]},"properties":{"id":"22989","n":"Daraja Mbili, H20i: DJ09","t":"us","c":"Kisii"}},{"type":"Feature","geometry":{"type":"Point","coordinates":[34.77475,-0.7013]},"properties":{"id":"24101","n":"Nyaura, H20i: NR25","t":"us","c":"Kisii"}},{"type":"Feature","geometry":{"type":"Point","coordinates":[34.77342,-0.66702]},"properties":{"id":"23966","n":"Nyaura, H20i: NR11","t":"ps","c":"Kisii"}},{"type":"Feature","geometry":{"type":"Point","coordinates":[34.77705,-0.67842]},"properties":{"id":"22525","n":"Central, H20i: C09","t":"pdw","c":"Kisii"}},{"type":"Feature","geometry":{"type":"Point","coordinates":[34.76767,-0.67813]},"properties":{"id":"22556","n":"Central, H20i: C12","t":"ps","c":"Kisii"}},{"type":"Feature","geometry":{"type":"Point","coordinates":[34.7768,-0.68373]},"properties":{"id":"22460","n":"Central, H20i: C03","t":"us","c":"Kisii"}},{"type":"Feature","geometry":{"type":"Point","coordinates":[34.76515,-0.66525]},"properties":{"id":"22972","n":"Daraja Mbili, H20i: DJ08","t":"ps","c":"Kisii"}},{"type":"Feature","geometry":{"type":"Point","coordinates":[34.76212,-0.67297]},"properties":{"id":"22965","n":"Daraja Mbili, H20i: DJ07","t":"bh","c":"Kisii"}},{"type":"Feature","geometry":{"type":"Point","coordinates":[34.76738,-0.68015]},"properties":{"id":"22226","n":"Bobaracho, H20i: B05","t":"us","c":"Kisii"}},{"type":"Feature","geometry":{"type":"Point","coordinates":[34.77353,-0.67788]},"properties":{"id":"23502","n":"Kiongongi, H20i: KN01","t":"us","c":"Kisii"}},{"type":"Feature","geometry":{"type":"Point","coordinates":[34.77402,-0.69818]},"properties":{"id":"23911","n":"Nyaura, H20i: NR06","t":"us","c":"Kisii"}},{"type":"Feature","geometry":{"type":"Point","coordinates":[34.77348,-0.70022]},"properties":{"id":"23935","n":"Nyaura, H20i: NR08","t":"us","c":"Kisii"}},{"type":"Feature","geometry":{"type":"Point","coordinates":[34.77713,-0.68057]},"properties":{"id":"22707","n":"Central, H20i: C29","t":"us","c":"Kisii"}},{"type":"Feature","geometry":{"type":"Point","coordinates":[34.6469,-0.724175]},"properties":{"id":"540056389","n":"Bokimai","t":"bh","c":"Kisii"}},{"type":"Feature","geometry":{"type":"Point","coordinates":[34.678681,-0.723268]},"properties":{"id":"594737458","n":"Bonyancha","t":"bh","c":"Kisii"}},{"type":"Feature","geometry":{"type":"Point","coordinates":[34.77976,-0.09071]},"properties":{"id":"24527","n":"Manyatta A, H20i: MANA1","t":"udw","c":"Kisumu"}},{"type":"Feature","geometry":{"type":"Point","coordinates":[34.77074,-0.106431]},"properties":{"id":"775139390","n":"Soko koteng","t":"us","c":"Kisumu"}},{"type":"Feature","geometry":{"type":"Point","coordinates":[34.771243,-0.106233]},"properties":{"id":"707590910","n":"Soko Kotengo spring","t":"us","c":"Kisumu"}},{"type":"Feature","geometry":{"type":"Point","coordinates":[34.771218,-0.106294]},"properties":{"id":"775121498","n":"Soko kotengo spring","t":"us","c":"Kisumu"}},{"type":"Feature","geometry":{"type":"Point","coordinates":[34.771232,-0.106244]},"properties":{"id":"707590927","n":"fcuyvchsc","t":"pdw","c":"Kisumu"}},{"type":"Feature","geometry":{"type":"Point","coordinates":[34.771287,-0.106411]},"properties":{"id":"775136342","n":"Wath kokiri","t":"us","c":"Kisumu"}},{"type":"Feature","geometry":{"type":"Point","coordinates":[34.771262,-0.106247]},"properties":{"id":"775158252","n":"Soko kotengo","t":"us","c":"Kisumu"}},{"type":"Feature","geometry":{"type":"Point","coordinates":[34.771233,-0.106247]},"properties":{"id":"775124659","n":"Asengo spring","t":"us","c":"Kisumu"}},{"type":"Feature","geometry":{"type":"Point","coordinates":[34.771221,-0.106246]},"properties":{"id":"775145087","n":"Soko Koteno sp","t":"us","c":"Kisumu"}},{"type":"Feature","geometry":{"type":"Point","coordinates":[34.771144,-0.106243]},"properties":{"id":"775123067","n":"Asembo Spring","t":"us","c":"Kisumu"}},{"type":"Feature","geometry":{"type":"Point","coordinates":[34.771313,-0.106064]},"properties":{"id":"775120473","n":"Soko Kotengo Spring","t":"us","c":"Kisumu"}},{"type":"Feature","geometry":{"type":"Point","coordinates":[34.771222,-0.106237]},"properties":{"id":"661392263","n":"Test","t":"bh","c":"Kisumu"}},{"type":"Feature","geometry":{"type":"Point","coordinates":[34.75497,-0.12107]},"properties":{"id":"24747","n":"Nyalenda, H20i: NYA4","t":"udw","c":"Kisumu"}},{"type":"Feature","geometry":{"type":"Point","coordinates":[34.75481,-0.12018]},"properties":{"id":"24730","n":"Nyalenda, H20i: NYA3","t":"udw","c":"Kisumu"}},{"type":"Feature","geometry":{"type":"Point","coordinates":[34.76722,-0.07679]},"properties":{"id":"24589","n":"North Kamakoa, H20i: NKAM1","t":"udw","c":"Kisumu"}},{"type":"Feature","geometry":{"type":"Point","coordinates":[34.74066,-0.07599]},"properties":{"id":"24369","n":"Bandani, H20i: BAN2","t":"udw","c":"Kisumu"}},{"type":"Feature","geometry":{"type":"Point","coordinates":[34.76501,-0.07818]},"properties":{"id":"24761","n":"Obunga, H20i: OBU2","t":"udw","c":"Kisumu"}},{"type":"Feature","geometry":{"type":"Point","coordinates":[34.764114,-0.054559]},"properties":{"id":"119699126","n":"Asengo community water project","t":"ps","c":"Kisumu"}},{"type":"Feature","geometry":{"type":"Point","coordinates":[34.72863,-0.07368]},"properties":{"id":"24493","n":"Kogony, H20i: KOG1","t":"bh","c":"Kisumu"}},{"type":"Feature","geometry":{"type":"Point","coordinates":[34.776743,-0.063027]},"properties":{"id":"119698723","n":"Asengo water project","t":"ps","c":"Kisumu"}},{"type":"Feature","geometry":{"type":"Point","coordinates":[34.76542,-0.07772]},"properties":{"id":"24778","n":"Obunga, H20i: OBU3","t":"udw","c":"Kisumu"}},{"type":"Feature","geometry":{"type":"Point","coordinates":[34.791857,-0.028612]},"properties":{"id":"144946673","n":"Gogo springs","t":"ps","c":"Kisumu"}},{"type":"Feature","geometry":{"type":"Point","coordinates":[34.786771,-0.010679]},"properties":{"id":"119699023","n":"Kakelo water project","t":"ps","c":"Kisumu"}},{"type":"Feature","geometry":{"type":"Point","coordinates":[34.791259,-0.027979]},"properties":{"id":"123486451","n":"Gita Water point","t":"bh","c":"Kisumu"}},{"type":"Feature","geometry":{"type":"Point","coordinates":[34.791512,-0.029331]},"properties":{"id":"119699085","n":"Kokelo springs","t":"ps","c":"Kisumu"}},{"type":"Feature","geometry":{"type":"Point","coordinates":[34.791259,-0.027979]},"properties":{"id":"119699030","n":"Gita GC water project","t":"bh","c":"Kisumu"}},{"type":"Feature","geometry":{"type":"Point","coordinates":[34.768096,-0.019152]},"properties":{"id":"119699009","n":"Pastor James","t":"bh","c":"Kisumu"}},{"type":"Feature","geometry":{"type":"Point","coordinates":[34.783302,-0.013468]},"properties":{"id":"119699092","n":"Kokelo WATSAN","t":"bh","c":"Kisumu"}},{"type":"Feature","geometry":{"type":"Point","coordinates":[34.802365,-0.117521]},"properties":{"id":"119698936","n":"Nyalunya primary school water project","t":"bh","c":"Kisumu"}},{"type":"Feature","geometry":{"type":"Point","coordinates":[34.789309,-0.119247]},"properties":{"id":"583345817","n":"Testing","t":"bh","c":"Kisumu"}},{"type":"Feature","geometry":{"type":"Point","coordinates":[34.804249,-0.115087]},"properties":{"id":"119698929","n":"Maji Safi water project","t":"bh","c":"Kisumu"}},{"type":"Feature","geometry":{"type":"Point","coordinates":[34.797035,-0.120243]},"properties":{"id":"119698912","n":"Koyawa","t":"bh","c":"Kisumu"}},{"type":"Feature","geometry":{"type":"Point","coordinates":[34.798448,-0.127336]},"properties":{"id":"119699133","n":"Akado polytechnic water project","t":"bh","c":"Kisumu"}},{"type":"Feature","geometry":{"type":"Point","coordinates":[34.80905,-0.06849]},"properties":{"id":"24503","n":"Kolwa Central, H20i: KOLC1","t":"udw","c":"Kisumu"}},{"type":"Feature","geometry":{"type":"Point","coordinates":[34.80868,-0.06862]},"properties":{"id":"24510","n":"Kolwa Central, H20i: KOLC2","t":"udw","c":"Kisumu"}},{"type":"Feature","geometry":{"type":"Point","coordinates":[34.82025,-0.06453]},"properties":{"id":"24383","n":"Chiga, H20i: CHI1","t":"bh","c":"Kisumu"}},{"type":"Feature","geometry":{"type":"Point","coordinates":[34.833958,-0.089949]},"properties":{"id":"119699157","n":"Dr. Aloo Gumbi Water project","t":"bh","c":"Kisumu"}},{"type":"Feature","geometry":{"type":"Point","coordinates":[34.797035,-0.13514]},"properties":{"id":"119698998","n":"Orongo water project","t":"bh","c":"Kisumu"}},{"type":"Feature","geometry":{"type":"Point","coordinates":[34.827058,-0.088997]},"properties":{"id":"119699140","n":"Maisha medical center","t":"bh","c":"Kisumu"}},{"type":"Feature","geometry":{"type":"Point","coordinates":[34.824461,-0.126927]},"properties":{"id":"119698857","n":"Kawese water project","t":"bh","c":"Kisumu"}},{"type":"Feature","geometry":{"type":"Point","coordinates":[34.817477,-0.136622]},"properties":{"id":"119698840","n":"Othoche water project","t":"pdw","c":"Kisumu"}},{"type":"Feature","geometry":{"type":"Point","coordinates":[34.821569,-0.135777]},"properties":{"id":"119698833","n":"Awuoth kinda gro project","t":"bh","c":"Kisumu"}},{"type":"Feature","geometry":{"type":"Point","coordinates":[34.7846,-0.07632]},"properties":{"id":"24565","n":"Migosi, H20i: MIG1","t":"udw","c":"Kisumu"}},{"type":"Feature","geometry":{"type":"Point","coordinates":[34.78416,-0.09242]},"properties":{"id":"24558","n":"Manyatta B, H20i: MANB1","t":"udw","c":"Kisumu"}},{"type":"Feature","geometry":{"type":"Point","coordinates":[34.702334,-0.120785]},"properties":{"id":"9549630","n":"Echenje spring","t":"ps","c":"Kisumu"}},{"type":"Feature","geometry":{"type":"Point","coordinates":[34.74178,-0.07222]},"properties":{"id":"24352","n":"Bandani, H20i: BAN1","t":"us","c":"Kisumu"}},{"type":"Feature","geometry":{"type":"Point","coordinates":[34.726115,-0.00381]},"properties":{"id":"523236500","n":"Eramba PD 1","t":"pdw","c":"Kisumu"}},{"type":"Feature","geometry":{"type":"Point","coordinates":[34.728481,-0.006525]},"properties":{"id":"523255118","n":"Zululu US1","t":"us","c":"Kisumu"}},{"type":"Feature","geometry":{"type":"Point","coordinates":[34.7351,-0.013549]},"properties":{"id":"523312873","n":"Boyani A PD 7","t":"pdw","c":"Kisumu"}},{"type":"Feature","geometry":{"type":"Point","coordinates":[34.70402,-0.03217]},"properties":{"id":"24675","n":"North Kisumu, H20i: NKIS9","t":"udw","c":"Kisumu"}},{"type":"Feature","geometry":{"type":"Point","coordinates":[34.734413,-0.014319]},"properties":{"id":"523280224","n":"Boyani A PD 8","t":"pdw","c":"Kisumu"}},{"type":"Feature","geometry":{"type":"Point","coordinates":[34.729644,-0.005947]},"properties":{"id":"523302993","n":"Zululu PS 1","t":"ps","c":"Kisumu"}},{"type":"Feature","geometry":{"type":"Point","coordinates":[34.594582,-0.019492]},"properties":{"id":"9549513","n":"Amukhuma spring","t":"ps","c":"Kisumu"}},{"type":"Feature","geometry":{"type":"Point","coordinates":[34.589647,-0.016908]},"properties":{"id":"9549520","n":"Esitende","t":"ps","c":"Kisumu"}},{"type":"Feature","geometry":{"type":"Point","coordinates":[34.587143,-0.026408]},"properties":{"id":"9549496","n":"Alex Omuka spring","t":"us","c":"Kisumu"}},{"type":"Feature","geometry":{"type":"Point","coordinates":[34.598355,-0.00606]},"properties":{"id":"626077592","n":"Maseno Church of Christ","t":"bh","c":"Kisumu"}},{"type":"Feature","geometry":{"type":"Point","coordinates":[34.613218,-0.00034]},"properties":{"id":"46921415","n":"Wafrancis Water Spring No 54","t":"ps","c":"Kisumu"}},{"type":"Feature","geometry":{"type":"Point","coordinates":[34.59306,-0.024932]},"properties":{"id":"9549506","n":"Ekasala","t":"us","c":"Kisumu"}},{"type":"Feature","geometry":{"type":"Point","coordinates":[34.67854,-0.09011]},"properties":{"id":"24802","n":"South West Kisumu, H20i: SWKIS1","t":"udw","c":"Kisumu"}},{"type":"Feature","geometry":{"type":"Point","coordinates":[34.6821,-0.04045]},"properties":{"id":"24606","n":"North Kisumu, H20i: NKIS2","t":"us","c":"Kisumu"}},{"type":"Feature","geometry":{"type":"Point","coordinates":[34.68376,-0.05116]},"properties":{"id":"24637","n":"North Kisumu, H20i: NKIS5","t":"us","c":"Kisumu"}},{"type":"Feature","geometry":{"type":"Point","coordinates":[34.68203,-0.03968]},"properties":{"id":"24596","n":"North Kisumu, H20i: NKIS1","t":"bh","c":"Kisumu"}},{"type":"Feature","geometry":{"type":"Point","coordinates":[34.68312,-0.02998]},"properties":{"id":"24668","n":"North Kisumu, H20i: NKIS8","t":"udw","c":"Kisumu"}},{"type":"Feature","geometry":{"type":"Point","coordinates":[34.68233,-0.03533]},"properties":{"id":"24644","n":"North Kisumu, H20i: NKIS6","t":"udw","c":"Kisumu"}},{"type":"Feature","geometry":{"type":"Point","coordinates":[34.68507,-0.04467]},"properties":{"id":"24620","n":"North Kisumu, H20i: NKIS4","t":"udw","c":"Kisumu"}},{"type":"Feature","geometry":{"type":"Point","coordinates":[34.821827,-0.027764]},"properties":{"id":"119699102","n":"Ogwedhi water project","t":"ps","c":"Kisumu"}},{"type":"Feature","geometry":{"type":"Point","coordinates":[34.821419,-0.035778]},"properties":{"id":"119699119","n":"Sugar research water project","t":"bh","c":"Kisumu"}},{"type":"Feature","geometry":{"type":"Point","coordinates":[34.883715,-0.07856]},"properties":{"id":"119698785","n":"Obino school water project","t":"pdw","c":"Kisumu"}},{"type":"Feature","geometry":{"type":"Point","coordinates":[34.888348,-0.316976]},"properties":{"id":"293623186","n":"Ragen kiosk 1","t":"bh","c":"Kisumu","d":120.0}},{"type":"Feature","geometry":{"type":"Point","coordinates":[34.88772,-0.318131]},"properties":{"id":"293623155","n":"Ragen AIC primary school water point","t":"bh","c":"Kisumu","d":120.0}},{"type":"Feature","geometry":{"type":"Point","coordinates":[34.970326,-0.276917]},"properties":{"id":"293623014","n":"Kwa Lucas Obala","t":"bh","c":"Kisumu"}},{"type":"Feature","geometry":{"type":"Point","coordinates":[34.953114,-0.28486]},"properties":{"id":"293622989","n":"Urudi kiosk","t":"bh","c":"Kisumu"}},{"type":"Feature","geometry":{"type":"Point","coordinates":[34.969484,-0.278489]},"properties":{"id":"293623038","n":"Moses water point","t":"bh","c":"Kisumu"}},{"type":"Feature","geometry":{"type":"Point","coordinates":[34.964676,-0.272808]},"properties":{"id":"293622934","n":"Kowire kiosk","t":"bh","c":"Kisumu"}},{"type":"Feature","geometry":{"type":"Point","coordinates":[34.969457,-0.278493]},"properties":{"id":"293623021","n":"Fathers house Tap","t":"bh","c":"Kisumu"}},{"type":"Feature","geometry":{"type":"Point","coordinates":[34.950826,-0.267618]},"properties":{"id":"293622800","n":"St Aloyce Kiosk","t":"bh","c":"Kisumu"}},{"type":"Feature","geometry":{"type":"Point","coordinates":[34.971479,-0.279787]},"properties":{"id":"293622848","n":"Katito Catholic kiosk","t":"bh","c":"Kisumu"}},{"type":"Feature","geometry":{"type":"Point","coordinates":[34.970237,-0.276949]},"properties":{"id":"293623007","n":"Seje House holds","t":"bh","c":"Kisumu"}},{"type":"Feature","geometry":{"type":"Point","coordinates":[34.964809,-0.273502]},"properties":{"id":"293622965","n":"Kowire primary school water point","t":"bh","c":"Kisumu"}},{"type":"Feature","geometry":{"type":"Point","coordinates":[34.973166,-0.26934]},"properties":{"id":"293622996","n":"Katito market kiosk","t":"bh","c":"Kisumu"}},{"type":"Feature","geometry":{"type":"Point","coordinates":[34.954645,-0.285134]},"properties":{"id":"321764063","n":"Urudi primary school waterpoint","t":"bh","c":"Kisumu"}},{"type":"Feature","geometry":{"type":"Point","coordinates":[34.9502,-0.268082]},"properties":{"id":"293622862","n":"St Aloyce primary school water tap","t":"bh","c":"Kisumu"}},{"type":"Feature","geometry":{"type":"Point","coordinates":[34.957353,-0.275604]},"properties":{"id":"293622817","n":"Nyamarumbe water kiosk","t":"bh","c":"Kisumu"}},{"type":"Feature","geometry":{"type":"Point","coordinates":[34.958667,-0.269583]},"properties":{"id":"626077475","n":"Alara Orphans Day SchoolÂ","t":"bh","c":"Kisumu"}},{"type":"Feature","geometry":{"type":"Point","coordinates":[34.958172,-0.275148]},"properties":{"id":"293622927","n":"Nyamarumbe primary school water point","t":"bh","c":"Kisumu"}},{"type":"Feature","geometry":{"type":"Point","coordinates":[34.831634,-0.34463]},"properties":{"id":"540031050","n":"Apondo Kasaye Village - Apondo Primary School","t":"bh","c":"Kisumu"}},{"type":"Feature","geometry":{"type":"Point","coordinates":[34.93956,-0.165105]},"properties":{"id":"583345783","n":"Ja UK spring","t":"ps","c":"Kisumu"}},{"type":"Feature","geometry":{"type":"Point","coordinates":[34.939571,-0.164984]},"properties":{"id":"583345738","n":"","t":"pdw","c":"Kisumu"}},{"type":"Feature","geometry":{"type":"Point","coordinates":[34.904256,-0.219919]},"properties":{"id":"707591526","n":"Training","t":"pdw","c":"Kisumu"}},{"type":"Feature","geometry":{"type":"Point","coordinates":[34.939615,-0.165121]},"properties":{"id":"583345776","n":"Jabritish spring","t":"ps","c":"Kisumu"}},{"type":"Feature","geometry":{"type":"Point","coordinates":[35.07275,-0.192336]},"properties":{"id":"765280505","n":"P A N","t":"bh","c":"Kisumu"}},{"type":"Feature","geometry":{"type":"Point","coordinates":[34.821553,-0.140648]},"properties":{"id":"119698826","n":"Komoro water point","t":"pdw","c":"Kisumu"}},{"type":"Feature","geometry":{"type":"Point","coordinates":[34.822227,-0.152162]},"properties":{"id":"119698981","n":"Alendu wapendanao water project","t":"bh","c":"Kisumu"}},{"type":"Feature","geometry":{"type":"Point","coordinates":[34.563898,-0.013777]},"properties":{"id":"472096","n":"Naholi","t":"us","c":"Kisumu"}},{"type":"Feature","geometry":{"type":"Point","coordinates":[34.486409,-0.789538]},"properties":{"id":"544172410","n":"Kabuoch Church of Christ","t":"bh","c":"Migori"}},{"type":"Feature","geometry":{"type":"Point","coordinates":[34.593082,-0.741417]},"properties":{"id":"540056437","n":"Nyarach","t":"bh","c":"Migori"}},{"type":"Feature","geometry":{"type":"Point","coordinates":[34.573099,-0.713376]},"properties":{"id":"626077561","n":"Winyo Christian Academy","t":"bh","c":"Migori"}},{"type":"Feature","geometry":{"type":"Point","coordinates":[34.562986,-0.706811]},"properties":{"id":"626077633","n":"Ebenezer Children's Center","t":"bh","c":"Migori"}},{"type":"Feature","geometry":{"type":"Point","coordinates":[34.570499,-0.71239]},"properties":{"id":"626077516","n":"Miguena Children's Home","t":"bh","c":"Migori"}},{"type":"Feature","geometry":{"type":"Point","coordinates":[34.589528,-0.93025]},"properties":{"id":"540056451","n":"Nanaglasscock","t":"bh","c":"Migori"}},{"type":"Feature","geometry":{"type":"Point","coordinates":[34.584746,-1.093435]},"properties":{"id":"626077602","n":"Rabuor Church of Christ","t":"bh","c":"Migori"}},{"type":"Feature","geometry":{"type":"Point","coordinates":[34.497163,-1.09431]},"properties":{"id":"626077626","n":"Winyarago Orphanage","t":"bh","c":"Migori"}},{"type":"Feature","geometry":{"type":"Point","coordinates":[34.479502,-1.088463]},"properties":{"id":"540056365","n":"MIgori","t":"bh","c":"Migori"}},{"type":"Feature","geometry":{"type":"Point","coordinates":[36.184011,-0.600761]},"properties":{"id":"278072200","n":"Olesirwa Water Point","t":"ps","c":"Nakuru"}},{"type":"Feature","geometry":{"type":"Point","coordinates":[36.129572,-0.520487]},"properties":{"id":"540287459","n":"Kapkures Water Kiosk","t":"bh","c":"Nakuru"}},{"type":"Feature","geometry":{"type":"Point","coordinates":[36.163504,-0.579607]},"properties":{"id":"540287387","n":"Kolifar Primary School","t":"ps","c":"Nakuru"}},{"type":"Feature","geometry":{"type":"Point","coordinates":[36.154613,-0.499227]},"properties":{"id":"540287837","n":"Kwa Monica water Point","t":"bh","c":"Nakuru","d":160.0}},{"type":"Feature","geometry":{"type":"Point","coordinates":[36.155125,-0.489]},"properties":{"id":"324560413","n":"Elementataita Health Center Water Point","t":"bh","c":"Nakuru","d":100.0}},{"type":"Feature","geometry":{"type":"Point","coordinates":[36.131363,-0.599529]},"properties":{"id":"278072217","n":"Kiambogo Tank Water Point","t":"ps","c":"Nakuru"}},{"type":"Feature","geometry":{"type":"Point","coordinates":[36.285483,-0.489952]},"properties":{"id":"612411588","n":"Kikitemo - KWO","t":"bh","c":"Nakuru"}},{"type":"Feature","geometry":{"type":"Point","coordinates":[36.176427,-0.605526]},"properties":{"id":"540287662","n":"Olesirwa Water Point","t":"ps","c":"Nakuru"}},{"type":"Feature","geometry":{"type":"Point","coordinates":[36.141665,-0.500874]},"properties":{"id":"540287813","n":"Kampi Swara","t":"bh","c":"Nakuru","d":160.0}},{"type":"Feature","geometry":{"type":"Point","coordinates":[36.134346,-0.514004]},"properties":{"id":"540287772","n":"Kigen Water Point","t":"bh","c":"Nakuru","d":120.0}},{"type":"Feature","geometry":{"type":"Point","coordinates":[36.135782,-0.526643]},"properties":{"id":"540287473","n":"Stima Line Water Point","t":"bh","c":"Nakuru"}},{"type":"Feature","geometry":{"type":"Point","coordinates":[36.128936,-0.524178]},"properties":{"id":"540287435","n":"Kwa Janet Water Point","t":"bh","c":"Nakuru"}},{"type":"Feature","geometry":{"type":"Point","coordinates":[36.131019,-0.507866]},"properties":{"id":"540287796","n":"Dan's Water Point","t":"bh","c":"Nakuru","d":120.0}},{"type":"Feature","geometry":{"type":"Point","coordinates":[36.163486,-0.604436]},"properties":{"id":"540287404","n":"Morop Water Kiosk","t":"ps","c":"Nakuru"}},{"type":"Feature","geometry":{"type":"Point","coordinates":[36.146048,-0.610901]},"properties":{"id":"278072224","n":"Assembly/Morop/Muthaiti Tank Water Point","t":"ps","c":"Nakuru"}},{"type":"Feature","geometry":{"type":"Point","coordinates":[36.159955,-0.537326]},"properties":{"id":"540287370","n":"Sachangwan","t":"bh","c":"Nakuru"}},{"type":"Feature","geometry":{"type":"Point","coordinates":[36.127635,-0.511703]},"properties":{"id":"540287789","n":"Judy water point","t":"bh","c":"Nakuru","d":120.0}},{"type":"Feature","geometry":{"type":"Point","coordinates":[36.134287,-0.507474]},"properties":{"id":"540287806","n":"Mama Manu Water Point","t":"bh","c":"Nakuru","d":120.0}},{"type":"Feature","geometry":{"type":"Point","coordinates":[36.112919,-0.522539]},"properties":{"id":"540287624","n":"Arap Sang Water Point","t":"bh","c":"Nakuru","d":120.0}},{"type":"Feature","geometry":{"type":"Point","coordinates":[35.512588,-0.372099]},"properties":{"id":"626077578","n":"Kiptoro Secondary School","t":"bh","c":"Nakuru"}},{"type":"Feature","geometry":{"type":"Point","coordinates":[35.943519,-0.381028]},"properties":{"id":"356394374","n":"Elim garden","t":"bh","c":"Nakuru"}},{"type":"Feature","geometry":{"type":"Point","coordinates":[35.874288,-0.211021]},"properties":{"id":"304382615","n":"A two tap water Kiosk at Belbur Borehole","t":"bh","c":"Nakuru","d":80.0}},{"type":"Feature","geometry":{"type":"Point","coordinates":[35.907915,-0.185433]},"properties":{"id":"244085009","n":"Umoja water kiosk","t":"bh","c":"Nakuru","d":120.0}},{"type":"Feature","geometry":{"type":"Point","coordinates":[35.022053,-0.997509]},"properties":{"id":"626077585","n":"Kitale Church of Christ","t":"bh","c":"Narok"}},{"type":"Feature","geometry":{"type":"Point","coordinates":[34.92526,-0.90862]},"properties":{"id":"540056303","n":"Geteri","t":"bh","c":"Narok"}},{"type":"Feature","geometry":{"type":"Point","coordinates":[34.936518,-0.908146]},"properties":{"id":"626077640","n":"Kisii","t":"bh","c":"Narok"}},{"type":"Feature","geometry":{"type":"Point","coordinates":[34.84834,-1.35159]},"properties":{"id":"540056293","n":"Keringani","t":"bh","c":"Narok"}},{"type":"Feature","geometry":{"type":"Point","coordinates":[35.808775,-1.752599]},"properties":{"id":"538723758","n":"Emorogi dug bore hole","t":"bh","c":"Narok"}},{"type":"Feature","geometry":{"type":"Point","coordinates":[35.996692,-1.893003]},"properties":{"id":"736670304","n":"Enkare Kiti Pakase","t":"us","c":"Narok"}},{"type":"Feature","geometry":{"type":"Point","coordinates":[35.892669,-1.960808]},"properties":{"id":"551089305","n":"Oloolalo river source water point","t":"us","c":"Narok"}},{"type":"Feature","geometry":{"type":"Point","coordinates":[35.890178,-1.954517]},"properties":{"id":"551089257","n":"Enchoro oolairaga Water point","t":"ps","c":"Narok"}},{"type":"Feature","geometry":{"type":"Point","coordinates":[35.890384,-1.972222]},"properties":{"id":"551089288","n":"Osilanka lekipapei water point","t":"ps","c":"Narok"}},{"type":"Feature","geometry":{"type":"Point","coordinates":[35.8299,-1.686062]},"properties":{"id":"538723662","n":"Olemegili water point","t":"ps","c":"Narok"}},{"type":"Feature","geometry":{"type":"Point","coordinates":[35.843584,-1.698076]},"properties":{"id":"538723631","n":"Lekuruki water point","t":"us","c":"Narok"}},{"type":"Feature","geometry":{"type":"Point","coordinates":[35.7921,-1.695016]},"properties":{"id":"538723545","n":"Olchorro losoit water point","t":"us","c":"Narok"}},{"type":"Feature","geometry":{"type":"Point","coordinates":[35.841459,-1.958223]},"properties":{"id":"551089068","n":"Olchoro water point","t":"us","c":"Narok"}},{"type":"Feature","geometry":{"type":"Point","coordinates":[35.889837,-1.962535]},"properties":{"id":"551089271","n":"Enchoro olekewua water spring point","t":"ps","c":"Narok"}},{"type":"Feature","geometry":{"type":"Point","coordinates":[35.841459,-1.958223]},"properties":{"id":"551089178","n":"Nagotisho water point","t":"us","c":"Narok"}},{"type":"Feature","geometry":{"type":"Point","coordinates":[35.808991,-1.694487]},"properties":{"id":"538723648","n":"Emagutian","t":"pdw","c":"Narok","d":10.0}},{"type":"Feature","geometry":{"type":"Point","coordinates":[35.788883,-1.708404]},"properties":{"id":"538723521","n":"Ilkitui water point","t":"us","c":"Narok"}},{"type":"Feature","geometry":{"type":"Point","coordinates":[35.898255,-1.585778]},"properties":{"id":"538719661","n":"Olchorro Oirowua Water Point","t":"ps","c":"Narok"}},{"type":"Feature","geometry":{"type":"Point","coordinates":[35.890255,-1.556269]},"properties":{"id":"538719771","n":"Olchorro LoleNguya Water Point","t":"us","c":"Narok"}},{"type":"Feature","geometry":{"type":"Point","coordinates":[35.866339,-1.573846]},"properties":{"id":"538719537","n":"Enchoro Ole Kipas Water Point","t":"us","c":"Narok"}},{"type":"Feature","geometry":{"type":"Point","coordinates":[35.833119,-1.611097]},"properties":{"id":"538725815","n":"Olchorro lole oyie","t":"us","c":"Narok"}},{"type":"Feature","geometry":{"type":"Point","coordinates":[35.817374,-1.540938]},"properties":{"id":"538725877","n":"Mutenkwarr Water Point","t":"us","c":"Narok"}},{"type":"Feature","geometry":{"type":"Point","coordinates":[35.802657,-1.50376]},"properties":{"id":"538725035","n":"Motorok2 Water Point","t":"udw","c":"Narok","d":4.0}},{"type":"Feature","geometry":{"type":"Point","coordinates":[35.816757,-1.516562]},"properties":{"id":"538724962","n":"Noolong'oi2 Water Point","t":"bh","c":"Narok","d":100.0}},{"type":"Feature","geometry":{"type":"Point","coordinates":[35.820548,-1.494417]},"properties":{"id":"538724986","n":"Olchorro lole Kudate Water Point","t":"us","c":"Narok"}},{"type":"Feature","geometry":{"type":"Point","coordinates":[35.830086,-1.530234]},"properties":{"id":"538725097","n":"Olokeri2 Water Point","t":"us","c":"Narok"}},{"type":"Feature","geometry":{"type":"Point","coordinates":[35.830027,-1.611709]},"properties":{"id":"538725798","n":"Olchorro lole Kashira Water point","t":"us","c":"Narok"}},{"type":"Feature","geometry":{"type":"Point","coordinates":[35.867523,-1.604187]},"properties":{"id":"538719441","n":"Olchorro Ngusur Water Point","t":"ps","c":"Narok"}},{"type":"Feature","geometry":{"type":"Point","coordinates":[35.89602,-1.491693]},"properties":{"id":"348046937","n":"Oloigeruno","t":"bh","c":"Narok"}},{"type":"Feature","geometry":{"type":"Point","coordinates":[35.834322,-1.519302]},"properties":{"id":"538725073","n":"Enyonyorr Water Point","t":"us","c":"Narok"}},{"type":"Feature","geometry":{"type":"Point","coordinates":[35.890761,-1.662885]},"properties":{"id":"538719898","n":"Osupuko Borehole Water Point","t":"bh","c":"Narok","d":30.0}},{"type":"Feature","geometry":{"type":"Point","coordinates":[35.892656,-1.555488]},"properties":{"id":"538719805","n":"Olchorro LeSoitaraNguya Water Point","t":"us","c":"Narok"}},{"type":"Feature","geometry":{"type":"Point","coordinates":[35.851119,-1.595948]},"properties":{"id":"538719513","n":"Oloorkiparashi Water Point","t":"us","c":"Narok"}},{"type":"Feature","geometry":{"type":"Point","coordinates":[35.829788,-1.535606]},"properties":{"id":"538725114","n":"Kerikere Water Point","t":"us","c":"Narok"}},{"type":"Feature","geometry":{"type":"Point","coordinates":[35.882342,-1.535743]},"properties":{"id":"538725750","n":"Sarngatuny Water Point","t":"us","c":"Narok"}},{"type":"Feature","geometry":{"type":"Point","coordinates":[35.805307,-1.496764]},"properties":{"id":"538725004","n":"Motorok1 Water Point","t":"udw","c":"Narok","d":3.0}},{"type":"Feature","geometry":{"type":"Point","coordinates":[35.861686,-1.696969]},"properties":{"id":"538723617","n":"Oltarakwai water point","t":"bh","c":"Narok"}},{"type":"Feature","geometry":{"type":"Point","coordinates":[35.834681,-1.61243]},"properties":{"id":"538725839","n":"Naika Water Point","t":"us","c":"Narok"}},{"type":"Feature","geometry":{"type":"Point","coordinates":[35.328189,-1.059963]},"properties":{"id":"568153549","n":"Noormorijio spring","t":"us","c":"Narok"}},{"type":"Feature","geometry":{"type":"Point","coordinates":[35.12937,-1.31177]},"properties":{"id":"4823160","n":"","t":"us","c":"Narok"}},{"type":"Feature","geometry":{"type":"Point","coordinates":[35.35593,-1.27665]},"properties":{"id":"4822578","n":"","t":"us","c":"Narok"}},{"type":"Feature","geometry":{"type":"Point","coordinates":[35.3563,-1.057389]},"properties":{"id":"648482293","n":"Olodoare spring","t":"us","c":"Narok"}},{"type":"Feature","geometry":{"type":"Point","coordinates":[35.32559,-1.26651]},"properties":{"id":"4822592","n":"","t":"us","c":"Narok"}},{"type":"Feature","geometry":{"type":"Point","coordinates":[35.334155,-1.006945]},"properties":{"id":"648482396","n":"Enarau Conservancy office water access point","t":"us","c":"Narok"}},{"type":"Feature","geometry":{"type":"Point","coordinates":[35.33236,-1.16709]},"properties":{"id":"4821120","n":"","t":"us","c":"Narok"}},{"type":"Feature","geometry":{"type":"Point","coordinates":[35.385456,-1.097366]},"properties":{"id":"648482107","n":"Esimiti spring","t":"ps","c":"Narok"}},{"type":"Feature","geometry":{"type":"Point","coordinates":[35.359967,-1.04435]},"properties":{"id":"648482248","n":"Laila protected spring","t":"ps","c":"Narok"}},{"type":"Feature","geometry":{"type":"Point","coordinates":[35.29665,-1.25612]},"properties":{"id":"4821364","n":"","t":"us","c":"Narok"}},{"type":"Feature","geometry":{"type":"Point","coordinates":[35.304215,-1.154024]},"properties":{"id":"648482303","n":"Konyi spring","t":"us","c":"Narok"}},{"type":"Feature","geometry":{"type":"Point","coordinates":[35.33591,-1.18432]},"properties":{"id":"4821106","n":"","t":"us","c":"Narok"}},{"type":"Feature","geometry":{"type":"Point","coordinates":[35.386861,-1.039136]},"properties":{"id":"648482255","n":"Meibuko spring","t":"us","c":"Narok"}},{"type":"Feature","geometry":{"type":"Point","coordinates":[35.367599,-1.019679]},"properties":{"id":"648482372","n":"Tobiko protected spring","t":"ps","c":"Narok"}},{"type":"Feature","geometry":{"type":"Point","coordinates":[35.264909,-1.285886]},"properties":{"id":"3972197","n":"Motorogi project","t":"bh","c":"Narok"}},{"type":"Feature","geometry":{"type":"Point","coordinates":[35.13882,-1.32502]},"properties":{"id":"4823218","n":"","t":"us","c":"Narok"}},{"type":"Feature","geometry":{"type":"Point","coordinates":[35.38364,-1.25902]},"properties":{"id":"4822585","n":"","t":"us","c":"Narok"}},{"type":"Feature","geometry":{"type":"Point","coordinates":[35.379806,-1.0438]},"properties":{"id":"648482279","n":"Enchorro oolumpwa spring","t":"us","c":"Narok"}},{"type":"Feature","geometry":{"type":"Point","coordinates":[35.28888,-1.19262]},"properties":{"id":"4821412","n":"","t":"us","c":"Narok"}},{"type":"Feature","geometry":{"type":"Point","coordinates":[35.29857,-1.26643]},"properties":{"id":"4821261","n":"","t":"us","c":"Narok"}},{"type":"Feature","geometry":{"type":"Point","coordinates":[35.17613,-1.19473]},"properties":{"id":"4821742","n":"","t":"us","c":"Narok"}},{"type":"Feature","geometry":{"type":"Point","coordinates":[35.321751,-1.050075]},"properties":{"id":"568153501","n":"Ororet spring","t":"us","c":"Narok"}},{"type":"Feature","geometry":{"type":"Point","coordinates":[35.26131,-1.2079]},"properties":{"id":"4821405","n":"","t":"us","c":"Narok"}},{"type":"Feature","geometry":{"type":"Point","coordinates":[35.36857,-1.2662]},"properties":{"id":"4822554","n":"","t":"us","c":"Narok"}},{"type":"Feature","geometry":{"type":"Point","coordinates":[35.35749,-1.24829]},"properties":{"id":"4822530","n":"","t":"us","c":"Narok"}},{"type":"Feature","geometry":{"type":"Point","coordinates":[35.330317,-1.051658]},"properties":{"id":"648482224","n":"Enchorro Ekima spring","t":"us","c":"Narok"}},{"type":"Feature","geometry":{"type":"Point","coordinates":[35.32803,-1.22084]},"properties":{"id":"4821247","n":"","t":"us","c":"Narok"}},{"type":"Feature","geometry":{"type":"Point","coordinates":[35.335272,-1.218736]},"properties":{"id":"3972221","n":"Koiyiaki spring","t":"ps","c":"Narok"}},{"type":"Feature","geometry":{"type":"Point","coordinates":[35.446817,-1.062662]},"properties":{"id":"648482035","n":"Nkinye spring","t":"us","c":"Narok"}},{"type":"Feature","geometry":{"type":"Point","coordinates":[35.22393,-1.17499]},"properties":{"id":"4821728","n":"","t":"us","c":"Narok"}},{"type":"Feature","geometry":{"type":"Point","coordinates":[35.385165,-1.040796]},"properties":{"id":"648482262","n":"Noonkinye spring","t":"us","c":"Narok"}},{"type":"Feature","geometry":{"type":"Point","coordinates":[35.355034,-1.010985]},"properties":{"id":"648482358","n":"Pemba spring","t":"us","c":"Narok"}},{"type":"Feature","geometry":{"type":"Point","coordinates":[35.330559,-1.121747]},"properties":{"id":"648482190","n":"Kileyia spiring","t":"us","c":"Narok"}},{"type":"Feature","geometry":{"type":"Point","coordinates":[35.29857,-1.22478]},"properties":{"id":"4821254","n":"","t":"us","c":"Narok"}},{"type":"Feature","geometry":{"type":"Point","coordinates":[35.438783,-1.03622]},"properties":{"id":"648481979","n":"Keneti spring","t":"us","c":"Narok"}},{"type":"Feature","geometry":{"type":"Point","coordinates":[35.342126,-1.003768]},"properties":{"id":"648482389","n":"Kipukeri spring","t":"ps","c":"Narok"}},{"type":"Feature","geometry":{"type":"Point","coordinates":[35.32961,-1.27428]},"properties":{"id":"4821209","n":"","t":"us","c":"Narok"}},{"type":"Feature","geometry":{"type":"Point","coordinates":[35.35569,-1.28192]},"properties":{"id":"4822396","n":"","t":"us","c":"Narok"}},{"type":"Feature","geometry":{"type":"Point","coordinates":[35.379677,-1.042686]},"properties":{"id":"648482286","n":"Enchorro namayiana spring","t":"us","c":"Narok"}},{"type":"Feature","geometry":{"type":"Point","coordinates":[35.35215,-1.29818]},"properties":{"id":"4822365","n":"","t":"us","c":"Narok"}},{"type":"Feature","geometry":{"type":"Point","coordinates":[35.325541,-1.055178]},"properties":{"id":"568153518","n":"Ole Kinyang spring","t":"us","c":"Narok"}},{"type":"Feature","geometry":{"type":"Point","coordinates":[35.333985,-1.111208]},"properties":{"id":"648482152","n":"Ole Gilisho spring","t":"us","c":"Narok"}},{"type":"Feature","geometry":{"type":"Point","coordinates":[35.12466,-1.31039]},"properties":{"id":"4823177","n":"","t":"us","c":"Narok"}},{"type":"Feature","geometry":{"type":"Point","coordinates":[35.380182,-1.106759]},"properties":{"id":"648482121","n":"Voice of gospel borehole","t":"bh","c":"Narok"}},{"type":"Feature","geometry":{"type":"Point","coordinates":[35.410213,-1.085898]},"properties":{"id":"648482059","n":"Njapit spring","t":"us","c":"Narok"}},{"type":"Feature","geometry":{"type":"Point","coordinates":[35.34594,-1.24489]},"properties":{"id":"4822516","n":"","t":"us","c":"Narok"}},{"type":"Feature","geometry":{"type":"Point","coordinates":[35.34038,-1.109897]},"properties":{"id":"648482169","n":"Oloorgum seasonal spring","t":"us","c":"Narok"}},{"type":"Feature","geometry":{"type":"Point","coordinates":[35.397394,-1.096778]},"properties":{"id":"648482073","n":"Mosompe spring","t":"us","c":"Narok"}},{"type":"Feature","geometry":{"type":"Point","coordinates":[35.329782,-1.046104]},"properties":{"id":"648482231","n":"Emaro primary school borehole","t":"bh","c":"Narok"}},{"type":"Feature","geometry":{"type":"Point","coordinates":[35.343747,-1.060501]},"properties":{"id":"568153477","n":"Lesusu lopir spring","t":"us","c":"Narok"}},{"type":"Feature","geometry":{"type":"Point","coordinates":[35.391697,-1.106356]},"properties":{"id":"648482114","n":"Lemek community borehole","t":"bh","c":"Narok"}},{"type":"Feature","geometry":{"type":"Point","coordinates":[35.35256,-1.308889]},"properties":{"id":"4822389","n":"","t":"us","c":"Narok"}},{"type":"Feature","geometry":{"type":"Point","coordinates":[35.3084,-1.26019]},"properties":{"id":"4821278","n":"","t":"bh","c":"Narok"}},{"type":"Feature","geometry":{"type":"Point","coordinates":[35.12957,-1.304]},"properties":{"id":"4823153","n":"","t":"us","c":"Narok"}},{"type":"Feature","geometry":{"type":"Point","coordinates":[35.14762,-1.29941]},"properties":{"id":"4823225","n":"","t":"us","c":"Narok"}},{"type":"Feature","geometry":{"type":"Point","coordinates":[35.16466,-1.26845]},"properties":{"id":"4821948","n":"","t":"us","c":"Narok"}},{"type":"Feature","geometry":{"type":"Point","coordinates":[35.26755,-1.26985]},"properties":{"id":"4821302","n":"","t":"us","c":"Narok"}},{"type":"Feature","geometry":{"type":"Point","coordinates":[35.17653,-1.19489]},"properties":{"id":"4821759","n":"","t":"us","c":"Narok"}},{"type":"Feature","geometry":{"type":"Point","coordinates":[35.34791,-1.24999]},"properties":{"id":"4822509","n":"","t":"bh","c":"Narok"}},{"type":"Feature","geometry":{"type":"Point","coordinates":[35.304078,-1.12029]},"properties":{"id":"648482183","n":"Nkeresureni-Ngosuani Spring","t":"ps","c":"Narok"}},{"type":"Feature","geometry":{"type":"Point","coordinates":[35.457249,-1.071506]},"properties":{"id":"648482011","n":"Olmusereji borehole","t":"bh","c":"Narok"}},{"type":"Feature","geometry":{"type":"Point","coordinates":[35.457728,-1.071097]},"properties":{"id":"648481993","n":"Olmusereji spring","t":"us","c":"Narok"}},{"type":"Feature","geometry":{"type":"Point","coordinates":[35.334682,-1.056641]},"properties":{"id":"568153491","n":"Nalangi tomon spring","t":"us","c":"Narok"}},{"type":"Feature","geometry":{"type":"Point","coordinates":[35.289273,-1.102727]},"properties":{"id":"648482413","n":"Olchorro losoit protected spring","t":"ps","c":"Narok"}},{"type":"Feature","geometry":{"type":"Point","coordinates":[35.447803,-1.015844]},"properties":{"id":"648482217","n":"Leperes spring","t":"us","c":"Narok"}},{"type":"Feature","geometry":{"type":"Point","coordinates":[35.304482,-1.154362]},"properties":{"id":"648482310","n":"Konyi protected spring","t":"ps","c":"Narok"}},{"type":"Feature","geometry":{"type":"Point","coordinates":[35.365708,-1.019532]},"properties":{"id":"648482365","n":"Entim spring","t":"us","c":"Narok"}},{"type":"Feature","geometry":{"type":"Point","coordinates":[35.379634,-1.093888]},"properties":{"id":"648482097","n":"Keya spring","t":"us","c":"Narok"}},{"type":"Feature","geometry":{"type":"Point","coordinates":[35.446824,-1.016842]},"properties":{"id":"648482200","n":"Entapipi spring","t":"us","c":"Narok"}},{"type":"Feature","geometry":{"type":"Point","coordinates":[35.3334,-1.17951]},"properties":{"id":"4821144","n":"","t":"us","c":"Narok"}},{"type":"Feature","geometry":{"type":"Point","coordinates":[35.458669,-1.073192]},"properties":{"id":"648482028","n":"Ole parate borehole","t":"bh","c":"Narok"}},{"type":"Feature","geometry":{"type":"Point","coordinates":[35.36355,-1.29921]},"properties":{"id":"4822547","n":"","t":"us","c":"Narok"}},{"type":"Feature","geometry":{"type":"Point","coordinates":[35.372533,-1.045778]},"properties":{"id":"568153611","n":"Ilchoroi spring","t":"us","c":"Narok"}},{"type":"Feature","geometry":{"type":"Point","coordinates":[35.34,-1.19502]},"properties":{"id":"4821216","n":"","t":"us","c":"Narok"}},{"type":"Feature","geometry":{"type":"Point","coordinates":[35.316255,-1.068079]},"properties":{"id":"568153525","n":"Oloorinkan","t":"us","c":"Narok"}},{"type":"Feature","geometry":{"type":"Point","coordinates":[35.369273,-1.111457]},"properties":{"id":"648482080","n":"Sekenke spring","t":"us","c":"Narok"}},{"type":"Feature","geometry":{"type":"Point","coordinates":[35.45613,-1.41287]},"properties":{"id":"4822918","n":"","t":"us","c":"Narok"}},{"type":"Feature","geometry":{"type":"Point","coordinates":[35.41919,-1.34446]},"properties":{"id":"4822750","n":"","t":"us","c":"Narok"}},{"type":"Feature","geometry":{"type":"Point","coordinates":[35.23595,-1.38294]},"properties":{"id":"4823081","n":"","t":"us","c":"Narok"}},{"type":"Feature","geometry":{"type":"Point","coordinates":[35.30235,-1.3056]},"properties":{"id":"4821670","n":"","t":"us","c":"Narok"}},{"type":"Feature","geometry":{"type":"Point","coordinates":[35.40965,-1.2908]},"properties":{"id":"4822633","n":"","t":"us","c":"Narok"}},{"type":"Feature","geometry":{"type":"Point","coordinates":[35.36801,-1.31032]},"properties":{"id":"4822451","n":"","t":"us","c":"Narok"}},{"type":"Feature","geometry":{"type":"Point","coordinates":[35.25043,-1.3669]},"properties":{"id":"4823067","n":"","t":"us","c":"Narok"}},{"type":"Feature","geometry":{"type":"Point","coordinates":[35.42582,-1.34099]},"properties":{"id":"4822712","n":"","t":"bh","c":"Narok"}},{"type":"Feature","geometry":{"type":"Point","coordinates":[35.36606,-1.33688]},"properties":{"id":"4821151","n":"","t":"bh","c":"Narok"}},{"type":"Feature","geometry":{"type":"Point","coordinates":[35.48449,-1.33838]},"properties":{"id":"4822767","n":"","t":"us","c":"Narok"}},{"type":"Feature","geometry":{"type":"Point","coordinates":[35.49986,-1.36048]},"properties":{"id":"4822815","n":"","t":"us","c":"Narok"}},{"type":"Feature","geometry":{"type":"Point","coordinates":[35.49118,-1.31578]},"properties":{"id":"4822781","n":"","t":"us","c":"Narok"}},{"type":"Feature","geometry":{"type":"Point","coordinates":[35.43026,-1.29219]},"properties":{"id":"4822671","n":"","t":"bh","c":"Narok"}},{"type":"Feature","geometry":{"type":"Point","coordinates":[35.34332,-1.3368]},"properties":{"id":"4821175","n":"","t":"bh","c":"Narok"}},{"type":"Feature","geometry":{"type":"Point","coordinates":[35.26102,-1.42253]},"properties":{"id":"4823232","n":"","t":"us","c":"Narok"}},{"type":"Feature","geometry":{"type":"Point","coordinates":[35.343312,-1.336853]},"properties":{"id":"3971718","n":"Olesere community borehole","t":"bh","c":"Narok"}},{"type":"Feature","geometry":{"type":"Point","coordinates":[35.2043,-1.40479]},"properties":{"id":"4822994","n":"","t":"bh","c":"Narok"}},{"type":"Feature","geometry":{"type":"Point","coordinates":[35.21389,-1.39784]},"properties":{"id":"4823036","n":"","t":"us","c":"Narok"}},{"type":"Feature","geometry":{"type":"Point","coordinates":[35.37966,-1.30967]},"properties":{"id":"4822420","n":"","t":"us","c":"Narok"}},{"type":"Feature","geometry":{"type":"Point","coordinates":[35.21389,-1.39784]},"properties":{"id":"4822987","n":"","t":"us","c":"Narok"}},{"type":"Feature","geometry":{"type":"Point","coordinates":[35.47117,-1.40313]},"properties":{"id":"4822853","n":"","t":"bh","c":"Narok"}},{"type":"Feature","geometry":{"type":"Point","coordinates":[35.49623,-1.35976]},"properties":{"id":"4822808","n":"","t":"us","c":"Narok"}},{"type":"Feature","geometry":{"type":"Point","coordinates":[35.42605,-1.34101]},"properties":{"id":"4822729","n":"","t":"us","c":"Narok"}},{"type":"Feature","geometry":{"type":"Point","coordinates":[35.23402,-1.37673]},"properties":{"id":"4821096","n":"","t":"us","c":"Narok"}},{"type":"Feature","geometry":{"type":"Point","coordinates":[35.14058,-1.32655]},"properties":{"id":"4823201","n":"","t":"us","c":"Narok"}},{"type":"Feature","geometry":{"type":"Point","coordinates":[35.36606,-1.33684]},"properties":{"id":"4822444","n":"","t":"pdw","c":"Narok"}},{"type":"Feature","geometry":{"type":"Point","coordinates":[35.48937,-1.36787]},"properties":{"id":"4822839","n":"","t":"us","c":"Narok"}},{"type":"Feature","geometry":{"type":"Point","coordinates":[35.2545,-1.43118]},"properties":{"id":"4823249","n":"","t":"us","c":"Narok"}},{"type":"Feature","geometry":{"type":"Point","coordinates":[35.01262,-0.761588]},"properties":{"id":"209734283","n":"Riokenye","t":"us","c":"Nyamira"}},{"type":"Feature","geometry":{"type":"Point","coordinates":[34.9133,-0.6656]},"properties":{"id":"22958","n":"Daraja Mbili, H20i: DJ06","t":"us","c":"Nyamira"}},{"type":"Feature","geometry":{"type":"Point","coordinates":[34.972744,-0.749431]},"properties":{"id":"7823455","n":"Keroka","t":"pdw","c":"Nyamira"}},{"type":"Feature","geometry":{"type":"Point","coordinates":[34.961661,-0.467548]},"properties":{"id":"665953732","n":"Nyamatuta Church of Christ, Nyamira","t":"bh","c":"Nyamira"}},{"type":"Feature","geometry":{"type":"Point","coordinates":[34.925438,-0.596664]},"properties":{"id":"209726800","n":"Riongera","t":"us","c":"Nyamira"}},{"type":"Feature","geometry":{"type":"Point","coordinates":[34.922601,-0.588736]},"properties":{"id":"209726817","n":"Nyabirorwe","t":"us","c":"Nyamira"}},{"type":"Feature","geometry":{"type":"Point","coordinates":[34.73648,-0.003528]},"properties":{"id":"523203135","n":"Zululu PWS 3","t":"pdw","c":"Vihiga"}},{"type":"Feature","geometry":{"type":"Point","coordinates":[34.73558,-0.000296]},"properties":{"id":"523279020","n":"Buzololo PS 1","t":"ps","c":"Vihiga"}},{"type":"Feature","geometry":{"type":"Point","coordinates":[34.578128,-0.024748]},"properties":{"id":"9549379","n":"Khayobio","t":"ps","c":"Vihiga"}},{"type":"Feature","geometry":{"type":"Point","coordinates":[34.582775,-0.027327]},"properties":{"id":"9549489","n":"Amulongo spring","t":"ps","c":"Vihiga"}},{"type":"Feature","geometry":{"type":"Point","coordinates":[34.55,-0.0]},"properties":{"id":"3615742","n":"Ebusuvi, Arthur Okwemba Spring - 4437","t":"ps","c":"Vihiga"}},{"type":"Feature","geometry":{"type":"Point","coordinates":[34.585228,-0.015598]},"properties":{"id":"9822092","n":"Elwambire well","t":"pdw","c":"Vihiga"}},{"type":"Feature","geometry":{"type":"Point","coordinates":[34.579873,-0.019817]},"properties":{"id":"9549434","n":"Esitoi well","t":"pdw","c":"Vihiga"}},{"type":"Feature","geometry":{"type":"Point","coordinates":[34.583287,-0.001343]},"properties":{"id":"472694","n":"Ebuchi springs","t":"us","c":"Vihiga"}},{"type":"Feature","geometry":{"type":"Point","coordinates":[34.580357,-0.025965]},"properties":{"id":"9549472","n":"Omukomari","t":"ps","c":"Vihiga"}},{"type":"Feature","geometry":{"type":"Point","coordinates":[34.55827,-0.010705]},"properties":{"id":"471820","n":"Everline Onyango's well","t":"pdw","c":"Vihiga"}},{"type":"Feature","geometry":{"type":"Point","coordinates":[34.579045,-0.016193]},"properties":{"id":"473451","n":"Sunrise springs","t":"us","c":"Vihiga"}},{"type":"Feature","geometry":{"type":"Point","coordinates":[34.552168,-0.006318]},"properties":{"id":"471844","n":"Alila spring","t":"us","c":"Vihiga"}},{"type":"Feature","geometry":{"type":"Point","coordinates":[34.580972,-0.022182]},"properties":{"id":"9549441","n":"Ongomo","t":"ps","c":"Vihiga"}},{"type":"Feature","geometry":{"type":"Point","coordinates":[34.552905,-0.010328]},"properties":{"id":"471837","n":"Asieko","t":"us","c":"Vihiga"}},{"type":"Feature","geometry":{"type":"Point","coordinates":[34.556323,-0.004298]},"properties":{"id":"471954","n":"Mwikina 1","t":"udw","c":"Vihiga"}},{"type":"Feature","geometry":{"type":"Point","coordinates":[34.582343,-0.009183]},"properties":{"id":"472728","n":"Ayuyo springs","t":"us","c":"Vihiga"}},{"type":"Feature","geometry":{"type":"Point","coordinates":[34.562693,-0.004063]},"properties":{"id":"472168","n":"Ongayo","t":"us","c":"Vihiga"}},{"type":"Feature","geometry":{"type":"Point","coordinates":[34.556313,-0.004652]},"properties":{"id":"471899","n":"Oginga Ondilo spring","t":"us","c":"Vihiga"}},{"type":"Feature","geometry":{"type":"Point","coordinates":[34.575638,-0.023103]},"properties":{"id":"9549410","n":"Kahoko","t":"us","c":"Vihiga"}},{"type":"Feature","geometry":{"type":"Point","coordinates":[34.560532,-0.008912]},"properties":{"id":"472089","n":"Owich water spring","t":"us","c":"Vihiga"}},{"type":"Feature","geometry":{"type":"Point","coordinates":[34.579232,-0.01429]},"properties":{"id":"473437","n":"Angola","t":"us","c":"Vihiga"}},{"type":"Feature","geometry":{"type":"Point","coordinates":[34.560967,-0.009507]},"properties":{"id":"472041","n":"Mnanguba 3","t":"us","c":"Vihiga"}},{"type":"Feature","geometry":{"type":"Point","coordinates":[34.57768,-0.015932]},"properties":{"id":"4001579","n":"David's home","t":"pdw","c":"Vihiga"}},{"type":"Feature","geometry":{"type":"Point","coordinates":[34.57693,-0.024287]},"properties":{"id":"9549393","n":"Esilome","t":"ps","c":"Vihiga"}}]}