{"type":"FeatureCollection","features":[{"type":"Feature","geometry":{"type":"Point","coordinates":[40.018581,-3.34934]},"properties":{"id":"623075731","n":"Timboni Timbo Taka","t":"bh","c":"Kilifi"}},{"type":"Feature","geometry":{"type":"Point","coordinates":[40.022125,-3.292303]},"properties":{"id":"556689690","n":"Mkenge kwa Omar Hamisi","t":"bh","c":"Kilifi"}},{"type":"Feature","geometry":{"type":"Point","coordinates":[40.007721,-3.341005]},"properties":{"id":"556689906","n":"TIMBONI (Kwa Lewa Jefa)","t":"bh","c":"Kilifi"}},{"type":"Feature","geometry":{"type":"Point","coordinates":[40.007897,-3.335362]},"properties":{"id":"556689920","n":"Dabaso ( Kwa Kitsao Gona)","t":"bh","c":"Kilifi"}},{"type":"Feature","geometry":{"type":"Point","coordinates":[40.015642,-3.346568]},"properties":{"id":"623076952","n":"Timboni (Kwa Bora Salama)","t":"bh","c":"Kilifi"}},{"type":"Feature","geometry":{"type":"Point","coordinates":[40.012355,-3.342475]},"properties":{"id":"627171734","n":"Timboni (kwa mzee kalume ya Baya)","t":"bh","c":"Kilifi"}},{"type":"Feature","geometry":{"type":"Point","coordinates":[40.010825,-3.341209]},"properties":{"id":"556689889","n":"Timboni (Kwa Kenga Kithi)","t":"bh","c":"Kilifi"}},{"type":"Feature","geometry":{"type":"Point","coordinates":[40.017484,-3.348584]},"properties":{"id":"627171741","n":"Timbo Taka (Kwa Mwambire Athman Shekue)","t":"bh","c":"Kilifi"}},{"type":"Feature","geometry":{"type":"Point","coordinates":[39.998181,-3.339249]},"properties":{"id":"556689803","n":"Dabaso Kwa Tosho","t":"bh","c":"Kilifi"}},{"type":"Feature","geometry":{"type":"Point","coordinates":[39.995601,-3.351054]},"properties":{"id":"623076866","n":"Dabaso Kwa hamadi fundi","t":"bh","c":"Kilifi"}},{"type":"Feature","geometry":{"type":"Point","coordinates":[40.006215,-3.338306]},"properties":{"id":"556689913","n":"Dabaso (Kwa Kigwarya)","t":"bh","c":"Kilifi"}},{"type":"Feature","geometry":{"type":"Point","coordinates":[40.00849,-3.325512]},"properties":{"id":"627171789","n":"Chafisi (Kwa Kazungu Nzovu)","t":"bh","c":"Kilifi"}},{"type":"Feature","geometry":{"type":"Point","coordinates":[40.00393,-3.350167]},"properties":{"id":"623075700","n":"Dabaso Kwa Mramba Ndaa","t":"bh","c":"Kilifi"}},{"type":"Feature","geometry":{"type":"Point","coordinates":[40.014564,-3.346664]},"properties":{"id":"623076945","n":"Timboni (Kwa Sub-Chief Nyumbani)","t":"bh","c":"Kilifi"}},{"type":"Feature","geometry":{"type":"Point","coordinates":[40.014302,-3.348184]},"properties":{"id":"556689755","n":"Timboni","t":"bh","c":"Kilifi"}},{"type":"Feature","geometry":{"type":"Point","coordinates":[39.996277,-3.344981]},"properties":{"id":"623076873","n":"Dabaso ( Kwa kidazi)","t":"bh","c":"Kilifi"}},{"type":"Feature","geometry":{"type":"Point","coordinates":[40.017606,-3.350017]},"properties":{"id":"623076969","n":"Timboni (Behind Watamu Post Office)","t":"bh","c":"Kilifi"}},{"type":"Feature","geometry":{"type":"Point","coordinates":[39.998618,-3.356425]},"properties":{"id":"556690083","n":"Dabaso kwa Kimwaga wa Tsuma","t":"bh","c":"Kilifi"}},{"type":"Feature","geometry":{"type":"Point","coordinates":[40.006955,-3.322423]},"properties":{"id":"627171772","n":"Chafisi (Kwa Kalama Rimba)","t":"bh","c":"Kilifi"}},{"type":"Feature","geometry":{"type":"Point","coordinates":[40.012014,-3.350422]},"properties":{"id":"556689762","n":"Timboni Tumaini","t":"bh","c":"Kilifi"}},{"type":"Feature","geometry":{"type":"Point","coordinates":[40.010456,-3.349696]},"properties":{"id":"556690090","n":"Timboni Roja planet Kwa Kazungu Ngowa","t":"bh","c":"Kilifi"}},{"type":"Feature","geometry":{"type":"Point","coordinates":[40.008635,-3.343926]},"properties":{"id":"556689652","n":"Kwa Timothy Baya","t":"bh","c":"Kilifi"}},{"type":"Feature","geometry":{"type":"Point","coordinates":[39.991756,-3.328749]},"properties":{"id":"627171796","n":"Sita kwa Mzungu Bimomo","t":"bh","c":"Kilifi"}},{"type":"Feature","geometry":{"type":"Point","coordinates":[40.000388,-3.331996]},"properties":{"id":"627171765","n":"Chafisi (Kwa Harris Chengo Kombe)","t":"bh","c":"Kilifi"}},{"type":"Feature","geometry":{"type":"Point","coordinates":[40.040313,-3.273169]},"properties":{"id":"622978163","n":"MKENGE B (KADHENGI HINZANO)","t":"bh","c":"Kilifi"}},{"type":"Feature","geometry":{"type":"Point","coordinates":[40.03821,-3.268112]},"properties":{"id":"627172443","n":"Mkenge kwa Karisa wa Moki","t":"bh","c":"Kilifi"}},{"type":"Feature","geometry":{"type":"Point","coordinates":[40.000507,-3.350722]},"properties":{"id":"556690076","n":"Dabaso kwa Joseph Randu","t":"bh","c":"Kilifi"}},{"type":"Feature","geometry":{"type":"Point","coordinates":[40.002539,-3.343677]},"properties":{"id":"556689872","n":"Dabaso","t":"bh","c":"Kilifi"}},{"type":"Feature","geometry":{"type":"Point","coordinates":[40.00827,-3.339462]},"properties":{"id":"622978101","n":"TIMBONI (Kwa Kahindi John)","t":"bh","c":"Kilifi"}},{"type":"Feature","geometry":{"type":"Point","coordinates":[40.038502,-3.263298]},"properties":{"id":"627172625","n":"Mkenge Kwa Kasimu","t":"bh","c":"Kilifi"}},{"type":"Feature","geometry":{"type":"Point","coordinates":[40.014717,-3.347725]},"properties":{"id":"556689748","n":"Timboni kwa Charo Mturi","t":"bh","c":"Kilifi"}},{"type":"Feature","geometry":{"type":"Point","coordinates":[39.959393,-3.391779]},"properties":{"id":"623075872","n":"Kwa chipande Wa Timothy ( matsangoni)","t":"bh","c":"Kilifi"}},{"type":"Feature","geometry":{"type":"Point","coordinates":[39.951026,-3.397423]},"properties":{"id":"556690100","n":"Wireless","t":"bh","c":"Kilifi"}},{"type":"Feature","geometry":{"type":"Point","coordinates":[39.922252,-3.376155]},"properties":{"id":"623075858","n":"Baraka A Kwa Tsofa ( matsangoni)","t":"bh","c":"Kilifi"}},{"type":"Feature","geometry":{"type":"Point","coordinates":[39.913515,-3.407487]},"properties":{"id":"623075456","n":"Sidzeni (Kwa Katana Menza)","t":"bh","c":"Kilifi"}},{"type":"Feature","geometry":{"type":"Point","coordinates":[39.930738,-3.395132]},"properties":{"id":"623075865","n":"Madeteni Kwa Tsui Wa chai ( matsangoni)","t":"pdw","c":"Kilifi"}},{"type":"Feature","geometry":{"type":"Point","coordinates":[39.866579,-3.591418]},"properties":{"id":"556689614","n":"Susan","t":"pdw","c":"Kilifi"}},{"type":"Feature","geometry":{"type":"Point","coordinates":[39.866697,-3.591367]},"properties":{"id":"556689645","n":"Kwa Kefwa","t":"bh","c":"Kilifi"}},{"type":"Feature","geometry":{"type":"Point","coordinates":[39.866587,-3.591385]},"properties":{"id":"556689597","n":"Fy","t":"pdw","c":"Kilifi"}},{"type":"Feature","geometry":{"type":"Point","coordinates":[39.866566,-3.591392]},"properties":{"id":"556689580","n":"Ghj","t":"pdw","c":"Kilifi"}},{"type":"Feature","geometry":{"type":"Point","coordinates":[39.866575,-3.591429]},"properties":{"id":"556689621","n":"Kwa Jefwa","t":"bh","c":"Kilifi"}},{"type":"Feature","geometry":{"type":"Point","coordinates":[40.013192,-3.321713]},"properties":{"id":"556689937","n":"MUYAZA (Kwa Adam)","t":"bh","c":"Kilifi"}},{"type":"Feature","geometry":{"type":"Point","coordinates":[40.012864,-3.306116]},"properties":{"id":"556689793","n":"Gede","t":"bh","c":"Kilifi"}},{"type":"Feature","geometry":{"type":"Point","coordinates":[40.029442,-3.332292]},"properties":{"id":"623076842","n":"Watamu jaribu Kwa ziro mwatela","t":"bh","c":"Kilifi"}},{"type":"Feature","geometry":{"type":"Point","coordinates":[40.017029,-3.343069]},"properties":{"id":"627172474","n":"Timboni kwa Kibwana","t":"bh","c":"Kilifi"}},{"type":"Feature","geometry":{"type":"Point","coordinates":[40.02256,-3.337322]},"properties":{"id":"556689779","n":"Timboni kwa lenga","t":"bh","c":"Kilifi"}},{"type":"Feature","geometry":{"type":"Point","coordinates":[40.023485,-3.312391]},"properties":{"id":"623077142","n":"Jimba (Kwa Randu Mavi)","t":"bh","c":"Kilifi"}},{"type":"Feature","geometry":{"type":"Point","coordinates":[40.014418,-3.33738]},"properties":{"id":"556690179","n":"Kwa Khadija(kwa kipofu)","t":"bh","c":"Kilifi"}},{"type":"Feature","geometry":{"type":"Point","coordinates":[40.074851,-3.283018]},"properties":{"id":"623075432","n":"Mbarakachembe (Kwa Karabu Wa Gohu)","t":"bh","c":"Kilifi"}},{"type":"Feature","geometry":{"type":"Point","coordinates":[40.03394,-3.298317]},"properties":{"id":"627172371","n":"Gede Kizingo kwa Ronald Kitsango","t":"bh","c":"Kilifi"}},{"type":"Feature","geometry":{"type":"Point","coordinates":[40.056173,-3.286052]},"properties":{"id":"623075717","n":"Mbarakachembe (Kwa Kazungu Mangale)","t":"bh","c":"Kilifi"}},{"type":"Feature","geometry":{"type":"Point","coordinates":[40.020827,-3.308826]},"properties":{"id":"627172481","n":"Gede Ruins Kwa Mwatseka","t":"bh","c":"Kilifi"}},{"type":"Feature","geometry":{"type":"Point","coordinates":[40.04173,-3.296972]},"properties":{"id":"627172388","n":"Kizingo kwa Sumuni","t":"bh","c":"Kilifi"}},{"type":"Feature","geometry":{"type":"Point","coordinates":[40.029958,-3.298523]},"properties":{"id":"556689982","n":"Mbarakachembe","t":"bh","c":"Kilifi"}},{"type":"Feature","geometry":{"type":"Point","coordinates":[40.012844,-3.306098]},"properties":{"id":"556689786","n":"Gede","t":"bh","c":"Kilifi"}},{"type":"Feature","geometry":{"type":"Point","coordinates":[40.054218,-3.286469]},"properties":{"id":"556690007","n":"Kizingo Kwa kadodo","t":"bh","c":"Kilifi"}},{"type":"Feature","geometry":{"type":"Point","coordinates":[40.041099,-3.293699]},"properties":{"id":"556689975","n":"Mbarakachembe Soyosoyo","t":"bh","c":"Kilifi"}},{"type":"Feature","geometry":{"type":"Point","coordinates":[40.020017,-3.338568]},"properties":{"id":"627171758","n":"Jimba/Hadija (Kwa Mjape)","t":"bh","c":"Kilifi"}},{"type":"Feature","geometry":{"type":"Point","coordinates":[40.083072,-3.291715]},"properties":{"id":"623075425","n":"Mbarakachembe ( Kwa Kitsao Maitha)","t":"bh","c":"Kilifi"}},{"type":"Feature","geometry":{"type":"Point","coordinates":[40.039571,-3.328475]},"properties":{"id":"623076079","n":"Kanani Kwa Ruth Nyokabi","t":"bh","c":"Kilifi"}},{"type":"Feature","geometry":{"type":"Point","coordinates":[40.02738,-3.332937]},"properties":{"id":"556690203","n":"Jimba Gede kwa Tsori.","t":"bh","c":"Kilifi"}},{"type":"Feature","geometry":{"type":"Point","coordinates":[40.034382,-3.29214]},"properties":{"id":"556689999","n":"MBARAKACHEMBE (Kwa Dunda)","t":"bh","c":"Kilifi"}},{"type":"Feature","geometry":{"type":"Point","coordinates":[40.012331,-3.32724]},"properties":{"id":"627171727","n":"Chafisi kwa Saidi Tatu","t":"bh","c":"Kilifi"}},{"type":"Feature","geometry":{"type":"Point","coordinates":[40.061144,-3.321308]},"properties":{"id":"623076093","n":"Kanani Kwa Fazah","t":"bh","c":"Kilifi"}},{"type":"Feature","geometry":{"type":"Point","coordinates":[40.092612,-3.283119]},"properties":{"id":"623075762","n":"Enock village (Kwa Mgala)","t":"bh","c":"Kilifi"}},{"type":"Feature","geometry":{"type":"Point","coordinates":[40.086568,-3.284215]},"properties":{"id":"556690038","n":"Mbaraka Chembe KWA ENOCK (KWA KOMBI)","t":"bh","c":"Kilifi"}},{"type":"Feature","geometry":{"type":"Point","coordinates":[40.038151,-3.304511]},"properties":{"id":"556689968","n":"Mbarakachembe","t":"bh","c":"Kilifi"}},{"type":"Feature","geometry":{"type":"Point","coordinates":[40.069519,-3.286201]},"properties":{"id":"556690014","n":"KAHATI B (Kwa George Kanzao)","t":"bh","c":"Kilifi"}},{"type":"Feature","geometry":{"type":"Point","coordinates":[40.04752,-3.293541]},"properties":{"id":"623075827","n":"Mwaduna B (Kwa Mthoro)","t":"bh","c":"Kilifi"}},{"type":"Feature","geometry":{"type":"Point","coordinates":[40.031666,-3.304884]},"properties":{"id":"556689944","n":"Mbarakachembe","t":"bh","c":"Kilifi"}},{"type":"Feature","geometry":{"type":"Point","coordinates":[40.079324,-3.290761]},"properties":{"id":"556690021","n":"MBARAKACHEMBE (KWA NGOA SARO)","t":"bh","c":"Kilifi"}},{"type":"Feature","geometry":{"type":"Point","coordinates":[40.039286,-3.327596]},"properties":{"id":"623076055","n":"Kanani Kwa kazungu Wa kalu","t":"bh","c":"Kilifi"}},{"type":"Feature","geometry":{"type":"Point","coordinates":[40.042445,-3.279302]},"properties":{"id":"622978156","n":"MBARAKACHEMBE KWA KAPOMBE CHARA","t":"bh","c":"Kilifi"}},{"type":"Feature","geometry":{"type":"Point","coordinates":[40.091347,-3.281605]},"properties":{"id":"623075724","n":"Kwa Enock (Kwa Kingi Kambi)","t":"bh","c":"Kilifi"}},{"type":"Feature","geometry":{"type":"Point","coordinates":[40.04174,-3.300744]},"properties":{"id":"623075449","n":"Kizingo Kwa salimu maitha","t":"bh","c":"Kilifi"}},{"type":"Feature","geometry":{"type":"Point","coordinates":[40.074334,-3.280778]},"properties":{"id":"623075401","n":"Mkunguni Kwa Ngumbao Wa mwadena","t":"bh","c":"Kilifi"}},{"type":"Feature","geometry":{"type":"Point","coordinates":[39.79856,-3.72744]},"properties":{"id":"540056413","n":"Harambee","t":"bh","c":"Kilifi"}},{"type":"Feature","geometry":{"type":"Point","coordinates":[39.917211,-3.151505]},"properties":{"id":"627172704","n":"Garashi kwa Genya water project","t":"pdw","c":"Kilifi"}},{"type":"Feature","geometry":{"type":"Point","coordinates":[40.194441,-2.996686]},"properties":{"id":"623076000","n":"Kambini San Marco (Ngomeni)","t":"bh","c":"Kilifi"}},{"type":"Feature","geometry":{"type":"Point","coordinates":[40.11008,-2.91606]},"properties":{"id":"24619198","n":"TBM_Kenya041418","t":"bh","c":"Kilifi"}},{"type":"Feature","geometry":{"type":"Point","coordinates":[40.136053,-2.937228]},"properties":{"id":"264119458","n":"Kibaoni water point","t":"bh","c":"Kilifi"}},{"type":"Feature","geometry":{"type":"Point","coordinates":[40.173862,-3.020758]},"properties":{"id":"623076024","n":"Garithe A (Kwa Harrison Safari Ngari)","t":"bh","c":"Kilifi"}},{"type":"Feature","geometry":{"type":"Point","coordinates":[40.210714,-2.997868]},"properties":{"id":"623075999","n":"Ngomeni Milimani Kwa Ngome","t":"bh","c":"Kilifi"}},{"type":"Feature","geometry":{"type":"Point","coordinates":[40.119974,-3.139001]},"properties":{"id":"623075614","n":"Masheheni C Kwa Gohu","t":"bh","c":"Kilifi"}},{"type":"Feature","geometry":{"type":"Point","coordinates":[40.138362,-3.076642]},"properties":{"id":"556689566","n":"Kwa Chenje Mwadori - Mjanaheri","t":"bh","c":"Kilifi"}},{"type":"Feature","geometry":{"type":"Point","coordinates":[40.137123,-3.098375]},"properties":{"id":"623075676","n":"Kagombani B (Kwa Changawa Kabaruku)","t":"bh","c":"Kilifi"}},{"type":"Feature","geometry":{"type":"Point","coordinates":[40.127004,-3.13115]},"properties":{"id":"623075690","n":"Majenjeni Kwa Ngoa Mae","t":"bh","c":"Kilifi"}},{"type":"Feature","geometry":{"type":"Point","coordinates":[40.147836,-3.068033]},"properties":{"id":"623076048","n":"Mjanaheri Timboni Kwa Menza Kalugo","t":"bh","c":"Kilifi"}},{"type":"Feature","geometry":{"type":"Point","coordinates":[40.137181,-3.134863]},"properties":{"id":"623076158","n":"Majenjeni Kwa Mumba","t":"bh","c":"Kilifi"}},{"type":"Feature","geometry":{"type":"Point","coordinates":[40.145361,-3.094396]},"properties":{"id":"623077056","n":"Kibao Cha Ngombe (Kwa Tsalafu)","t":"bh","c":"Kilifi"}},{"type":"Feature","geometry":{"type":"Point","coordinates":[40.145672,-3.086457]},"properties":{"id":"623077063","n":"Mjanaheri wayani","t":"bh","c":"Kilifi"}},{"type":"Feature","geometry":{"type":"Point","coordinates":[40.138091,-3.137004]},"properties":{"id":"623076677","n":"Majenjeni Kwa Gabriel Charo Mzungu","t":"bh","c":"Kilifi"}},{"type":"Feature","geometry":{"type":"Point","coordinates":[40.159405,-3.119915]},"properties":{"id":"627172601","n":"Mamburui Mosque","t":"bh","c":"Kilifi"}},{"type":"Feature","geometry":{"type":"Point","coordinates":[40.118929,-3.077661]},"properties":{"id":"627172412","n":"Bomani Msolo (Kwa Mwakumba)","t":"bh","c":"Kilifi"}},{"type":"Feature","geometry":{"type":"Point","coordinates":[40.159295,-3.122381]},"properties":{"id":"623075346","n":"Mambrui Play Ground","t":"pdw","c":"Kilifi"}},{"type":"Feature","geometry":{"type":"Point","coordinates":[40.144925,-3.068194]},"properties":{"id":"627172113","n":"Mjanaheri Timboni (Kwa Bikonde)","t":"bh","c":"Kilifi"}},{"type":"Feature","geometry":{"type":"Point","coordinates":[40.158756,-3.121543]},"properties":{"id":"623075353","n":"Mambrui (Kwa Athman Yusuf)","t":"bh","c":"Kilifi"}},{"type":"Feature","geometry":{"type":"Point","coordinates":[40.134211,-3.099628]},"properties":{"id":"627172515","n":"Kagombani (Kwa Kabaruku 2)","t":"bh","c":"Kilifi"}},{"type":"Feature","geometry":{"type":"Point","coordinates":[39.95183,-2.98887]},"properties":{"id":"246922766","n":"Kanyumbuni water kiosk","t":"bh","c":"Kilifi"}},{"type":"Feature","geometry":{"type":"Point","coordinates":[40.144182,-3.086974]},"properties":{"id":"627172065","n":"Wayani Mjanaheri (Kwa Pascal Thoya)","t":"bh","c":"Kilifi"}},{"type":"Feature","geometry":{"type":"Point","coordinates":[40.140945,-3.10996]},"properties":{"id":"627172292","n":"Kagombani Kwa Amilulu","t":"bh","c":"Kilifi"}},{"type":"Feature","geometry":{"type":"Point","coordinates":[40.131785,-3.149471]},"properties":{"id":"623075597","n":"Sabaki Kwa Jumwa Unda","t":"bh","c":"Kilifi"}},{"type":"Feature","geometry":{"type":"Point","coordinates":[40.147862,-3.110893]},"properties":{"id":"556689559","n":"Kagombani - Kwa Kashindo","t":"bh","c":"Kilifi"}},{"type":"Feature","geometry":{"type":"Point","coordinates":[40.141784,-3.075982]},"properties":{"id":"627172089","n":"Mjanaheri Centre (Kwa Magogo)","t":"bh","c":"Kilifi"}},{"type":"Feature","geometry":{"type":"Point","coordinates":[40.14665,-3.093996]},"properties":{"id":"627172357","n":"Kibao Cha Ng'ombe (Kwa Moris Nyiro)","t":"bh","c":"Kilifi"}},{"type":"Feature","geometry":{"type":"Point","coordinates":[40.140507,-3.141039]},"properties":{"id":"623076660","n":"Majenjeni Kwa Said Omar","t":"bh","c":"Kilifi"}},{"type":"Feature","geometry":{"type":"Point","coordinates":[40.123848,-3.117208]},"properties":{"id":"623075669","n":"Kapupuni A (Kitsao Mwakubia)","t":"bh","c":"Kilifi"}},{"type":"Feature","geometry":{"type":"Point","coordinates":[40.127514,-3.093356]},"properties":{"id":"627172522","n":"Mkondoni Kwa Katsenga","t":"bh","c":"Kilifi"}},{"type":"Feature","geometry":{"type":"Point","coordinates":[40.123689,-3.140402]},"properties":{"id":"623075638","n":"Masheheni C (Kwa Beja)","t":"bh","c":"Kilifi"}},{"type":"Feature","geometry":{"type":"Point","coordinates":[40.121942,-3.099064]},"properties":{"id":"623075683","n":"Marikebuni (Kwa Said Salim)","t":"bh","c":"Kilifi"}},{"type":"Feature","geometry":{"type":"Point","coordinates":[40.128412,-3.148907]},"properties":{"id":"627172429","n":"Sabaki kwa Michael Chengo","t":"bh","c":"Kilifi"}},{"type":"Feature","geometry":{"type":"Point","coordinates":[40.154905,-3.114316]},"properties":{"id":"623075607","n":"Mambrui Kwa Mwanga","t":"bh","c":"Kilifi"}},{"type":"Feature","geometry":{"type":"Point","coordinates":[40.128803,-3.128524]},"properties":{"id":"623075652","n":"Majenjeni C (Kwa Pepo)","t":"bh","c":"Kilifi"}},{"type":"Feature","geometry":{"type":"Point","coordinates":[40.15366,-3.111258]},"properties":{"id":"556689535","n":"Majengo kwa Chief","t":"bh","c":"Kilifi"}},{"type":"Feature","geometry":{"type":"Point","coordinates":[40.152546,-3.107958]},"properties":{"id":"627172333","n":"Mambrui Majengo Milano (Kwa Charo Baya)","t":"bh","c":"Kilifi"}},{"type":"Feature","geometry":{"type":"Point","coordinates":[40.141249,-3.069474]},"properties":{"id":"627172395","n":"Kabelengani (Kwa Sudi Nasiri)","t":"bh","c":"Kilifi"}},{"type":"Feature","geometry":{"type":"Point","coordinates":[40.158327,-3.12076]},"properties":{"id":"623076880","n":"Mambrui (Kwa Salim Kaputi)","t":"bh","c":"Kilifi"}},{"type":"Feature","geometry":{"type":"Point","coordinates":[40.125589,-3.135258]},"properties":{"id":"623075645","n":"Majenjeni C ( Kwa Kambi Chengo)","t":"bh","c":"Kilifi"}},{"type":"Feature","geometry":{"type":"Point","coordinates":[40.141392,-3.129093]},"properties":{"id":"556689511","n":"Kwa Mbagwe","t":"bh","c":"Kilifi"}},{"type":"Feature","geometry":{"type":"Point","coordinates":[40.136895,-3.068682]},"properties":{"id":"627172405","n":"Kabelengani (Kwa Aziz Salim Aziz)","t":"bh","c":"Kilifi"}},{"type":"Feature","geometry":{"type":"Point","coordinates":[40.125319,-3.097687]},"properties":{"id":"623075937","n":"Mkondoni Kwa Mwasugu","t":"bh","c":"Kilifi"}},{"type":"Feature","geometry":{"type":"Point","coordinates":[40.142682,-3.074468]},"properties":{"id":"627172106","n":"Mjanaheri Timboni (Kwa Tano)","t":"bh","c":"Kilifi"}},{"type":"Feature","geometry":{"type":"Point","coordinates":[40.143775,-3.099345]},"properties":{"id":"627172340","n":"Kagombani ( Kwa Kadzeha)","t":"bh","c":"Kilifi"}},{"type":"Feature","geometry":{"type":"Point","coordinates":[40.134905,-3.134897]},"properties":{"id":"556689810","n":"Majenjeni","t":"bh","c":"Kilifi"}},{"type":"Feature","geometry":{"type":"Point","coordinates":[40.15632,-3.121109]},"properties":{"id":"627172618","n":"Mambrui Kitanguni Kwa Salim Ngonyo","t":"bh","c":"Kilifi"}},{"type":"Feature","geometry":{"type":"Point","coordinates":[40.138384,-3.076582]},"properties":{"id":"627172364","n":"Kabelengani ( Kwa Mwadori)","t":"bh","c":"Kilifi"}},{"type":"Feature","geometry":{"type":"Point","coordinates":[40.15368,-3.111409]},"properties":{"id":"623075377","n":"Mambrui Majengo (Assistant Chief's Office)","t":"bh","c":"Kilifi"}},{"type":"Feature","geometry":{"type":"Point","coordinates":[40.146807,-3.066292]},"properties":{"id":"623076017","n":"Mjanaheri Sakina (Kwa Kombe Wa Unda)","t":"bh","c":"Kilifi"}},{"type":"Feature","geometry":{"type":"Point","coordinates":[40.158034,-3.124415]},"properties":{"id":"623075360","n":"Mambrui Tana Ndogo (Kwa Ismail Tuma)","t":"bh","c":"Kilifi"}},{"type":"Feature","geometry":{"type":"Point","coordinates":[40.143886,-3.083526]},"properties":{"id":"627172072","n":"Mjanaheri Posta (Kwa Kenga Jefa Kalu)","t":"bh","c":"Kilifi"}},{"type":"Feature","geometry":{"type":"Point","coordinates":[40.149884,-3.106569]},"properties":{"id":"627172319","n":"Majengo Kagombani (Kwa Chengo Mwangudu)","t":"bh","c":"Kilifi"}},{"type":"Feature","geometry":{"type":"Point","coordinates":[40.126718,-3.11521]},"properties":{"id":"623075944","n":"Kapupuni A (Kwa Kahindi Karisa)","t":"bh","c":"Kilifi"}},{"type":"Feature","geometry":{"type":"Point","coordinates":[40.126671,-3.088212]},"properties":{"id":"627172058","n":"Mkondoni Kwa Jando","t":"bh","c":"Kilifi"}},{"type":"Feature","geometry":{"type":"Point","coordinates":[40.132675,-3.109928]},"properties":{"id":"627172302","n":"Kapupuni (Kwa Ziro)","t":"bh","c":"Kilifi"}},{"type":"Feature","geometry":{"type":"Point","coordinates":[40.14402,-3.087269]},"properties":{"id":"623077094","n":"Mjanaheri Wayani Kwa Lewa Changawa Jefa","t":"bh","c":"Kilifi"}},{"type":"Feature","geometry":{"type":"Point","coordinates":[40.144951,-3.087552]},"properties":{"id":"623077087","n":"Mjanaheri Wayani (Kwa Ponda Mwavuo)","t":"bh","c":"Kilifi"}},{"type":"Feature","geometry":{"type":"Point","coordinates":[40.141612,-3.12915]},"properties":{"id":"623075384","n":"Majenjeni (Kwa Mbago Mkilifini)","t":"bh","c":"Kilifi"}},{"type":"Feature","geometry":{"type":"Point","coordinates":[40.144711,-3.086251]},"properties":{"id":"623077070","n":"Mjanaheri Wayani (Kwa Changawa Jefa)","t":"bh","c":"Kilifi"}},{"type":"Feature","geometry":{"type":"Point","coordinates":[40.086233,-3.272803]},"properties":{"id":"623075803","n":"Gahaleni Kwa Francis Kaingu Nyanje (Kawandi)","t":"bh","c":"Kilifi"}},{"type":"Feature","geometry":{"type":"Point","coordinates":[40.072193,-3.271128]},"properties":{"id":"623076804","n":"Mkunguni (Kwa Keah Kaidhi)","t":"bh","c":"Kilifi"}},{"type":"Feature","geometry":{"type":"Point","coordinates":[40.095362,-3.259013]},"properties":{"id":"627171655","n":"Msoloni Mtaa wa Saba","t":"bh","c":"Kilifi"}},{"type":"Feature","geometry":{"type":"Point","coordinates":[40.104665,-3.235856]},"properties":{"id":"627171851","n":"kwa Chocha (Kwa Ali Shemaka)","t":"bh","c":"Kilifi"}},{"type":"Feature","geometry":{"type":"Point","coordinates":[40.071984,-3.27943]},"properties":{"id":"556690131","n":"Mkunguni Sambamba kwa Katete","t":"bh","c":"Kilifi"}},{"type":"Feature","geometry":{"type":"Point","coordinates":[40.096496,-3.262841]},"properties":{"id":"627171648","n":"Msoloni kwa Lylon","t":"bh","c":"Kilifi"}},{"type":"Feature","geometry":{"type":"Point","coordinates":[40.096553,-3.276329]},"properties":{"id":"556690193","n":"Gahaleni kwa Mshenga","t":"bh","c":"Kilifi"}},{"type":"Feature","geometry":{"type":"Point","coordinates":[40.093995,-3.277824]},"properties":{"id":"623075834","n":"Gahaleni A (Kwa Kanyamadari)","t":"bh","c":"Kilifi"}},{"type":"Feature","geometry":{"type":"Point","coordinates":[40.073966,-3.277411]},"properties":{"id":"627172247","n":"Mkunguni (Kwa Ferdinad)","t":"bh","c":"Kilifi"}},{"type":"Feature","geometry":{"type":"Point","coordinates":[40.103061,-3.266566]},"properties":{"id":"627171703","n":"Keresha kwa Kitsao Kirao","t":"bh","c":"Kilifi"}},{"type":"Feature","geometry":{"type":"Point","coordinates":[40.093638,-3.263272]},"properties":{"id":"623075841","n":"Gahaleni B (Kazungu Saa Bawa)","t":"bh","c":"Kilifi"}},{"type":"Feature","geometry":{"type":"Point","coordinates":[40.095182,-3.237639]},"properties":{"id":"627172508","n":"Kwachocha kwa Ambrose khambi","t":"bh","c":"Kilifi"}},{"type":"Feature","geometry":{"type":"Point","coordinates":[40.069623,-3.267943]},"properties":{"id":"623077104","n":"Mkunguni (Kwa Mwanduka)","t":"bh","c":"Kilifi"}},{"type":"Feature","geometry":{"type":"Point","coordinates":[40.10954,-3.247804]},"properties":{"id":"623075487","n":"Kadongoleni (Kwa Cicilia Katana)","t":"bh","c":"Kilifi"}},{"type":"Feature","geometry":{"type":"Point","coordinates":[40.042847,-3.264312]},"properties":{"id":"627172326","n":"Msabaha Ng'ombeni (Kwa Biatoto)","t":"bh","c":"Kilifi"}},{"type":"Feature","geometry":{"type":"Point","coordinates":[40.088137,-3.27719]},"properties":{"id":"623075810","n":"Gahaleni (Kwa Harrison Kadzagamba)","t":"bh","c":"Kilifi"}},{"type":"Feature","geometry":{"type":"Point","coordinates":[40.108867,-3.258281]},"properties":{"id":"623076103","n":"Kajajini Kwa Daniel Jira (Mchonyi)","t":"bh","c":"Kilifi"}},{"type":"Feature","geometry":{"type":"Point","coordinates":[40.072496,-3.272642]},"properties":{"id":"623075391","n":"Mkunguni (Kwa Pamoja)","t":"bh","c":"Kilifi"}},{"type":"Feature","geometry":{"type":"Point","coordinates":[40.077516,-3.277881]},"properties":{"id":"556690045","n":"Mkunguni Kwa Kahindi Thoya Sirya","t":"bh","c":"Kilifi"}},{"type":"Feature","geometry":{"type":"Point","coordinates":[40.086633,-3.263964]},"properties":{"id":"623077128","n":"Kijiwetanga Kwa kenga Wa kinda","t":"bh","c":"Kilifi"}},{"type":"Feature","geometry":{"type":"Point","coordinates":[40.092032,-3.259534]},"properties":{"id":"623077166","n":"Digirikani Kwa Deche Mazurui (Kwa Makopolo)","t":"bh","c":"Kilifi"}},{"type":"Feature","geometry":{"type":"Point","coordinates":[40.094,-3.266093]},"properties":{"id":"627171624","n":"Gahaleni kwa changawa Mwaringa","t":"bh","c":"Kilifi"}},{"type":"Feature","geometry":{"type":"Point","coordinates":[40.06672,-3.267782]},"properties":{"id":"623077111","n":"Mashamba/Majengo ( Kwa Kaliwa)","t":"bh","c":"Kilifi"}},{"type":"Feature","geometry":{"type":"Point","coordinates":[40.089393,-3.277143]},"properties":{"id":"623075779","n":"Gahaleni Kibabamche (Kwa Vincent Karabu)","t":"bh","c":"Kilifi"}},{"type":"Feature","geometry":{"type":"Point","coordinates":[40.105879,-3.265381]},"properties":{"id":"623076828","n":"Kajajini (Kwa Mwatela)","t":"bh","c":"Kilifi"}},{"type":"Feature","geometry":{"type":"Point","coordinates":[40.090537,-3.275937]},"properties":{"id":"623075786","n":"Gahaleni B (Kwa Kambi Ngala Hinzano)","t":"bh","c":"Kilifi"}},{"type":"Feature","geometry":{"type":"Point","coordinates":[40.083997,-3.258305]},"properties":{"id":"627171569","n":"Kijiwetanga kwa Harrison Sulubu Baya","t":"bh","c":"Kilifi"}},{"type":"Feature","geometry":{"type":"Point","coordinates":[40.079247,-3.263151]},"properties":{"id":"627171545","n":"Kijiwetanga kwa Binyiro","t":"bh","c":"Kilifi"}},{"type":"Feature","geometry":{"type":"Point","coordinates":[40.0491,-3.259781]},"properties":{"id":"623075315","n":"Jeneri Maplotini (Kwa Mwasaha Chula)","t":"bh","c":"Kilifi"}},{"type":"Feature","geometry":{"type":"Point","coordinates":[40.112425,-3.248028]},"properties":{"id":"623076897","n":"Milano (Kwa Mwanathumu Maitha)","t":"bh","c":"Kilifi"}},{"type":"Feature","geometry":{"type":"Point","coordinates":[40.078485,-3.276163]},"properties":{"id":"627172498","n":"Mkunguni kwa charo wa ngowa","t":"bh","c":"Kilifi"}},{"type":"Feature","geometry":{"type":"Point","coordinates":[40.101591,-3.247926]},"properties":{"id":"623075418","n":"Takaye (Kwa Mae)","t":"bh","c":"Kilifi"}},{"type":"Feature","geometry":{"type":"Point","coordinates":[40.111343,-3.245537]},"properties":{"id":"623075339","n":"Soweto Bethel (Kwa Stephen Mwamuye)","t":"bh","c":"Kilifi"}},{"type":"Feature","geometry":{"type":"Point","coordinates":[40.084583,-3.254454]},"properties":{"id":"627171576","n":"Kijiwetanga kwa masha mwamure","t":"bh","c":"Kilifi"}},{"type":"Feature","geometry":{"type":"Point","coordinates":[40.110129,-3.257484]},"properties":{"id":"627171686","n":"Kajajini kwa mokoli mkutano","t":"bh","c":"Kilifi"}},{"type":"Feature","geometry":{"type":"Point","coordinates":[40.061526,-3.279124]},"properties":{"id":"627171600","n":"Mashamba kwa Kenga Kapombe","t":"bh","c":"Kilifi"}},{"type":"Feature","geometry":{"type":"Point","coordinates":[40.091199,-3.25568]},"properties":{"id":"627171631","n":"Digirikani kwa Gasper Shume","t":"bh","c":"Kilifi"}},{"type":"Feature","geometry":{"type":"Point","coordinates":[40.084233,-3.26497]},"properties":{"id":"623077276","n":"Kijiwetanga Jongooni Kwa Barua","t":"bh","c":"Kilifi"}},{"type":"Feature","geometry":{"type":"Point","coordinates":[40.113631,-3.245445]},"properties":{"id":"627172199","n":"Milano kwa Kithumbi","t":"bh","c":"Kilifi"}},{"type":"Feature","geometry":{"type":"Point","coordinates":[40.107175,-3.249846]},"properties":{"id":"627172261","n":"Kadongoleni kwa sokota","t":"bh","c":"Kilifi"}},{"type":"Feature","geometry":{"type":"Point","coordinates":[40.079121,-3.253344]},"properties":{"id":"627171583","n":"Kijiwetanga kwa gogwe","t":"bh","c":"Kilifi"}},{"type":"Feature","geometry":{"type":"Point","coordinates":[40.11402,-3.249006]},"properties":{"id":"623077135","n":"Milano Kwa king Wa kombe","t":"bh","c":"Kilifi"}},{"type":"Feature","geometry":{"type":"Point","coordinates":[40.074496,-3.254903]},"properties":{"id":"627171590","n":"Kijiwetanga kwa kitsao Karabu","t":"bh","c":"Kilifi"}},{"type":"Feature","geometry":{"type":"Point","coordinates":[40.068387,-3.272176]},"properties":{"id":"627172254","n":"Mkunguni/Mashamba kwa Rose Kadzo Masha","t":"bh","c":"Kilifi"}},{"type":"Feature","geometry":{"type":"Point","coordinates":[40.100529,-3.257577]},"properties":{"id":"627171710","n":"Msoloni kwa Nyanje Kuya","t":"bh","c":"Kilifi"}},{"type":"Feature","geometry":{"type":"Point","coordinates":[40.10511,-3.2481]},"properties":{"id":"622978194","n":"TAKAYE (KWA KEAH MVUMBA)","t":"bh","c":"Kilifi"}},{"type":"Feature","geometry":{"type":"Point","coordinates":[40.100127,-3.271931]},"properties":{"id":"623076732","n":"Gahaleni kwa Mdigo","t":"bh","c":"Kilifi"}},{"type":"Feature","geometry":{"type":"Point","coordinates":[40.114052,-3.245561]},"properties":{"id":"623077025","n":"Muyeye Kwa Japhet Charo Maitha","t":"bh","c":"Kilifi"}},{"type":"Feature","geometry":{"type":"Point","coordinates":[40.105967,-3.241321]},"properties":{"id":"622978187","n":"KASUFINI (KWA NGUMBAO KARISA SAID)","t":"bh","c":"Kilifi"}},{"type":"Feature","geometry":{"type":"Point","coordinates":[40.099756,-3.273634]},"properties":{"id":"623076756","n":"Keresha Kwa kidongoshi","t":"bh","c":"Kilifi"}},{"type":"Feature","geometry":{"type":"Point","coordinates":[40.068912,-3.269883]},"properties":{"id":"556690155","n":"Mkunguni kwa Masha wa Mweni","t":"bh","c":"Kilifi"}},{"type":"Feature","geometry":{"type":"Point","coordinates":[40.077079,-3.257183]},"properties":{"id":"627171538","n":"Kijiwetanga kwa Nyale","t":"bh","c":"Kilifi"}},{"type":"Feature","geometry":{"type":"Point","coordinates":[40.069072,-3.24686]},"properties":{"id":"627172553","n":"Mirimani Barani Kwa Masha Wa Chai","t":"bh","c":"Kilifi"}},{"type":"Feature","geometry":{"type":"Point","coordinates":[40.093565,-3.259907]},"properties":{"id":"622978211","n":"DIGIRIKANI (KWA NGOTO)","t":"bh","c":"Kilifi"}},{"type":"Feature","geometry":{"type":"Point","coordinates":[40.102281,-3.270398]},"properties":{"id":"623076749","n":"Keresha kwa Buru","t":"bh","c":"Kilifi"}},{"type":"Feature","geometry":{"type":"Point","coordinates":[40.095051,-3.25679]},"properties":{"id":"622978204","n":"MSOLONI DIGIRIKANI (KWA KARISA GOHU)","t":"bh","c":"Kilifi"}},{"type":"Feature","geometry":{"type":"Point","coordinates":[40.088864,-3.271821]},"properties":{"id":"623075793","n":"Gahaleni B (Kwa Karisa Hinzano Kadzagamba)","t":"bh","c":"Kilifi"}},{"type":"Feature","geometry":{"type":"Point","coordinates":[40.076414,-3.261312]},"properties":{"id":"623076086","n":"Kijiwetanga Kwa Musha","t":"bh","c":"Kilifi"}},{"type":"Feature","geometry":{"type":"Point","coordinates":[40.086548,-3.266212]},"properties":{"id":"556690186","n":"Jongooni kwa Mgomba","t":"bh","c":"Kilifi"}},{"type":"Feature","geometry":{"type":"Point","coordinates":[40.082291,-3.279104]},"properties":{"id":"623075621","n":"Mbarakachembe Kibabamche","t":"bh","c":"Kilifi"}},{"type":"Feature","geometry":{"type":"Point","coordinates":[40.040213,-3.258423]},"properties":{"id":"556690124","n":"Msabaha West","t":"bh","c":"Kilifi"}},{"type":"Feature","geometry":{"type":"Point","coordinates":[40.076943,-3.276008]},"properties":{"id":"556690052","n":"Mkunguni ( Kwa kenga luwali)","t":"bh","c":"Kilifi"}},{"type":"Feature","geometry":{"type":"Point","coordinates":[40.11429,-3.250221]},"properties":{"id":"627172182","n":"Milano ( Kwa Benjamin Charo Ziro)","t":"bh","c":"Kilifi"}},{"type":"Feature","geometry":{"type":"Point","coordinates":[40.105933,-3.260265]},"properties":{"id":"627171662","n":"Msoloni kwa Mlanda","t":"bh","c":"Kilifi"}},{"type":"Feature","geometry":{"type":"Point","coordinates":[40.106556,-3.275183]},"properties":{"id":"627171693","n":"Keresha kwa Katana Chishenga","t":"bh","c":"Kilifi"}},{"type":"Feature","geometry":{"type":"Point","coordinates":[40.106114,-3.261241]},"properties":{"id":"623076859","n":"Mtaa Wa Kati Kwa Baha( Msolono)","t":"bh","c":"Kilifi"}},{"type":"Feature","geometry":{"type":"Point","coordinates":[40.113923,-3.247002]},"properties":{"id":"627172216","n":"Muyeye kwa kadenge mtsoma","t":"bh","c":"Kilifi"}},{"type":"Feature","geometry":{"type":"Point","coordinates":[40.062448,-3.262567]},"properties":{"id":"623075755","n":"Majengo Mapya Kwa Karisa Ndenge Chonya","t":"bh","c":"Kilifi"}},{"type":"Feature","geometry":{"type":"Point","coordinates":[40.067399,-3.276856]},"properties":{"id":"556690162","n":"Mashamba Mkunguni ( Kwa Mangi Yaa Jefa)","t":"bh","c":"Kilifi"}},{"type":"Feature","geometry":{"type":"Point","coordinates":[40.08159,-3.25711]},"properties":{"id":"627171617","n":"Kijiwetanga kwa Boraafya Omar","t":"bh","c":"Kilifi"}},{"type":"Feature","geometry":{"type":"Point","coordinates":[40.113172,-3.246077]},"properties":{"id":"623077159","n":"Milano mayatima Kwa Kitsao Wa karisa","t":"bh","c":"Kilifi"}},{"type":"Feature","geometry":{"type":"Point","coordinates":[40.071327,-3.27765]},"properties":{"id":"556690148","n":"Mkunguni","t":"bh","c":"Kilifi"}},{"type":"Feature","geometry":{"type":"Point","coordinates":[40.004249,-3.195556]},"properties":{"id":"623077180","n":"Madunguni Kwa Joseph Ruwa","t":"bh","c":"Kilifi"}},{"type":"Feature","geometry":{"type":"Point","coordinates":[39.974002,-3.183989]},"properties":{"id":"556690234","n":"Madunguni Viragoni A","t":"bh","c":"Kilifi"}},{"type":"Feature","geometry":{"type":"Point","coordinates":[39.977972,-3.188966]},"properties":{"id":"623077252","n":"Madunguni Magongoloni Kwa Kitsao Wa Chengo","t":"bh","c":"Kilifi"}},{"type":"Feature","geometry":{"type":"Point","coordinates":[39.97352,-3.1879]},"properties":{"id":"623077245","n":"Madunguni Magongoloni","t":"bh","c":"Kilifi"}},{"type":"Feature","geometry":{"type":"Point","coordinates":[39.979758,-3.189811]},"properties":{"id":"623077269","n":"Madunguni Magongoloni Kwa Mwambegu Kenga Komoro","t":"bh","c":"Kilifi"}},{"type":"Feature","geometry":{"type":"Point","coordinates":[39.988129,-3.192555]},"properties":{"id":"623077197","n":"Mgandini Kwa Kithi Kalu","t":"bh","c":"Kilifi"}},{"type":"Feature","geometry":{"type":"Point","coordinates":[39.983085,-3.182315]},"properties":{"id":"623077221","n":"Mingani Kwa Karisa Badi","t":"bh","c":"Kilifi"}},{"type":"Feature","geometry":{"type":"Point","coordinates":[39.984173,-3.181916]},"properties":{"id":"623077214","n":"Mingani Kwa Mr. Mole","t":"bh","c":"Kilifi"}},{"type":"Feature","geometry":{"type":"Point","coordinates":[39.977917,-3.183598]},"properties":{"id":"623077238","n":"Viragoni B Kwa Chara mhutsu","t":"bh","c":"Kilifi"}},{"type":"Feature","geometry":{"type":"Point","coordinates":[39.987998,-3.187888]},"properties":{"id":"623077207","n":"Mgandini Kwa Abdhallah Ndema","t":"bh","c":"Kilifi"}},{"type":"Feature","geometry":{"type":"Point","coordinates":[40.102305,-3.204317]},"properties":{"id":"556689834","n":"Mtangani","t":"bh","c":"Kilifi"}},{"type":"Feature","geometry":{"type":"Point","coordinates":[40.101902,-3.208538]},"properties":{"id":"556689827","n":"Jelele","t":"bh","c":"Kilifi"}},{"type":"Feature","geometry":{"type":"Point","coordinates":[40.085891,-3.23996]},"properties":{"id":"622978170","n":"THALATHAMELI (KWA RAMA)","t":"bh","c":"Kilifi"}},{"type":"Feature","geometry":{"type":"Point","coordinates":[40.104651,-3.217033]},"properties":{"id":"623075535","n":"Maisha Mapya (Asumani Hamisi Ali)","t":"bh","c":"Kilifi"}},{"type":"Feature","geometry":{"type":"Point","coordinates":[40.108317,-3.220197]},"properties":{"id":"556689858","n":"Malindi Tototo","t":"bh","c":"Kilifi"}},{"type":"Feature","geometry":{"type":"Point","coordinates":[40.087041,-3.231548]},"properties":{"id":"623075975","n":"Kaoyeni","t":"bh","c":"Kilifi"}},{"type":"Feature","geometry":{"type":"Point","coordinates":[40.105497,-3.218101]},"properties":{"id":"556689841","n":"Malindi Maisha Mapya","t":"bh","c":"Kilifi"}},{"type":"Feature","geometry":{"type":"Point","coordinates":[40.092885,-3.236137]},"properties":{"id":"623075982","n":"Kwa chocha( Kwa ngowa)","t":"bh","c":"Kilifi"}},{"type":"Feature","geometry":{"type":"Point","coordinates":[40.123816,-3.162252]},"properties":{"id":"623075968","n":"Moi madiga","t":"bh","c":"Kilifi"}},{"type":"Feature","geometry":{"type":"Point","coordinates":[40.119398,-3.163106]},"properties":{"id":"623075559","n":"Moi A (Kwa Mohammed Omar)","t":"bh","c":"Kilifi"}},{"type":"Feature","geometry":{"type":"Point","coordinates":[40.117871,-3.169328]},"properties":{"id":"623075566","n":"Kibokoni (Kwa Stephen Katana)","t":"bh","c":"Kilifi"}},{"type":"Feature","geometry":{"type":"Point","coordinates":[40.119298,-3.172387]},"properties":{"id":"623077001","n":"Kibokoni malindi","t":"bh","c":"Kilifi"}},{"type":"Feature","geometry":{"type":"Point","coordinates":[40.123376,-3.156867]},"properties":{"id":"623075528","n":"Moi (Kwa Kasena Karisa Kadzitu)","t":"bh","c":"Kilifi"}},{"type":"Feature","geometry":{"type":"Point","coordinates":[40.108904,-3.186126]},"properties":{"id":"627172285","n":"Kwa Ndomo (Kwa Mranja)","t":"bh","c":"Kilifi"}},{"type":"Feature","geometry":{"type":"Point","coordinates":[40.12101,-3.162584]},"properties":{"id":"623075494","n":"Moi (Kwa Charo Ngoma)","t":"bh","c":"Kilifi"}},{"type":"Feature","geometry":{"type":"Point","coordinates":[40.120919,-3.165546]},"properties":{"id":"623075542","n":"Moi Kwa Didaa","t":"bh","c":"Kilifi"}},{"type":"Feature","geometry":{"type":"Point","coordinates":[40.124798,-3.160937]},"properties":{"id":"623076031","n":"Moi Kwa Jay","t":"bh","c":"Kilifi"}},{"type":"Feature","geometry":{"type":"Point","coordinates":[40.123199,-3.160201]},"properties":{"id":"623075951","n":"Moi Kwa madevu","t":"bh","c":"Kilifi"}},{"type":"Feature","geometry":{"type":"Point","coordinates":[40.122112,-3.1641]},"properties":{"id":"623075504","n":"Moi (Kwa Ngala)","t":"bh","c":"Kilifi"}},{"type":"Feature","geometry":{"type":"Point","coordinates":[40.127248,-3.157672]},"properties":{"id":"623075511","n":"Moi (Kwa Rahma)","t":"bh","c":"Kilifi"}},{"type":"Feature","geometry":{"type":"Point","coordinates":[40.12795,-3.164693]},"properties":{"id":"623075580","n":"Moi (Kwa Bibi Halima)","t":"bh","c":"Kilifi"}},{"type":"Feature","geometry":{"type":"Point","coordinates":[40.119036,-3.160921]},"properties":{"id":"627172467","n":"Moi kwa Stephen Mwagure","t":"bh","c":"Kilifi"}},{"type":"Feature","geometry":{"type":"Point","coordinates":[40.109851,-3.18817]},"properties":{"id":"627172278","n":"Sabaki (Kwa Sheik Sharif)","t":"bh","c":"Kilifi"}},{"type":"Feature","geometry":{"type":"Point","coordinates":[40.119641,-3.224915]},"properties":{"id":"627172041","n":"Maweni Santafee (Twahib Ahmed Muhidini)","t":"bh","c":"Kilifi"}},{"type":"Feature","geometry":{"type":"Point","coordinates":[40.116186,-3.229654]},"properties":{"id":"627171985","n":"Saba Saba ( Kwa Kadzenga)","t":"bh","c":"Kilifi"}},{"type":"Feature","geometry":{"type":"Point","coordinates":[40.111849,-3.228879]},"properties":{"id":"623076976","n":"Ngala Phase 3  (Kwa Mwarabu)","t":"bh","c":"Kilifi"}},{"type":"Feature","geometry":{"type":"Point","coordinates":[40.128006,-3.235]},"properties":{"id":"627172003","n":"Maweni Kwa Famau (Kwa Kaboga)","t":"bh","c":"Kilifi"}},{"type":"Feature","geometry":{"type":"Point","coordinates":[40.116478,-3.227739]},"properties":{"id":"627171978","n":"Saba Saba Maweni ( Kwa Halako)","t":"bh","c":"Kilifi"}},{"type":"Feature","geometry":{"type":"Point","coordinates":[40.11676,-3.229622]},"properties":{"id":"627172546","n":"Kwa Kadzenga (Kwa Mama Elda)","t":"bh","c":"Kilifi"}},{"type":"Feature","geometry":{"type":"Point","coordinates":[40.117564,-3.229]},"properties":{"id":"627172027","n":"Sokomoko (Kwa Ali Khale Ali)","t":"bh","c":"Kilifi"}},{"type":"Feature","geometry":{"type":"Point","coordinates":[40.112248,-3.22781]},"properties":{"id":"627171875","n":"Ngala Phase 3 (Kwa Lenox Katana)","t":"bh","c":"Kilifi"}},{"type":"Feature","geometry":{"type":"Point","coordinates":[40.120192,-3.227477]},"properties":{"id":"627171992","n":"Maweni Kwa Famau","t":"bh","c":"Kilifi"}},{"type":"Feature","geometry":{"type":"Point","coordinates":[40.116389,-3.233488]},"properties":{"id":"623076763","n":"Muyeye Kwa Athman Nguzo","t":"bh","c":"Kilifi"}},{"type":"Feature","geometry":{"type":"Point","coordinates":[40.114009,-3.240936]},"properties":{"id":"627172687","n":"Muyeye Kwa Ustadh Athman","t":"bh","c":"Kilifi"}},{"type":"Feature","geometry":{"type":"Point","coordinates":[40.115321,-3.235539]},"properties":{"id":"623076718","n":"Metro Kwa Kahindi Wa Kombo","t":"bh","c":"Kilifi"}},{"type":"Feature","geometry":{"type":"Point","coordinates":[40.117366,-3.227173]},"properties":{"id":"627172450","n":"Malindi Maweni Pentagon (Kwa Thethe)","t":"bh","c":"Kilifi"}},{"type":"Feature","geometry":{"type":"Point","coordinates":[40.113091,-3.243756]},"properties":{"id":"623076907","n":"Muyeye (Boniface Kalama Ngumbao)","t":"bh","c":"Kilifi"}},{"type":"Feature","geometry":{"type":"Point","coordinates":[40.114365,-3.239136]},"properties":{"id":"623077032","n":"Muyeye casanova","t":"bh","c":"Kilifi"}},{"type":"Feature","geometry":{"type":"Point","coordinates":[40.114262,-3.238915]},"properties":{"id":"627171813","n":"Muyeye Casanova (Kwa Yaa Kabombo)","t":"bh","c":"Kilifi"}},{"type":"Feature","geometry":{"type":"Point","coordinates":[40.113648,-3.241138]},"properties":{"id":"627171806","n":"Muyeye Casanova (Kwa Salimu Rungua)","t":"bh","c":"Kilifi"}},{"type":"Feature","geometry":{"type":"Point","coordinates":[40.114492,-3.235893]},"properties":{"id":"627171820","n":"Muyeye Metro (Kwa Katana Nasoro)","t":"bh","c":"Kilifi"}},{"type":"Feature","geometry":{"type":"Point","coordinates":[40.113735,-3.241705]},"properties":{"id":"627172175","n":"Muyeye (Kwa Kashutu Kahindi)","t":"bh","c":"Kilifi"}},{"type":"Feature","geometry":{"type":"Point","coordinates":[40.115919,-3.23931]},"properties":{"id":"627172560","n":"Karima Kwa Hadija Ali","t":"bh","c":"Kilifi"}},{"type":"Feature","geometry":{"type":"Point","coordinates":[40.119444,-3.228126]},"properties":{"id":"623077018","n":"Malindi Kwa famau","t":"bh","c":"Kilifi"}},{"type":"Feature","geometry":{"type":"Point","coordinates":[40.116508,-3.230904]},"properties":{"id":"627172168","n":"Saba Saba (Kwa John Kombe)","t":"bh","c":"Kilifi"}},{"type":"Feature","geometry":{"type":"Point","coordinates":[40.126233,-3.220145]},"properties":{"id":"627172584","n":"Shella Mvinjeni (Kwa Mzee Lali)","t":"bh","c":"Kilifi"}},{"type":"Feature","geometry":{"type":"Point","coordinates":[40.11431,-3.234983]},"properties":{"id":"623076141","n":"Metro Nari Nari Butchery","t":"bh","c":"Kilifi"}},{"type":"Feature","geometry":{"type":"Point","coordinates":[40.115272,-3.238146]},"properties":{"id":"627172577","n":"Karima Kwa Said Ali","t":"bh","c":"Kilifi"}},{"type":"Feature","geometry":{"type":"Point","coordinates":[40.111217,-3.244739]},"properties":{"id":"627172230","n":"Muyeye Bathel(Joshua Ngari Kombe)","t":"bh","c":"Kilifi"}},{"type":"Feature","geometry":{"type":"Point","coordinates":[40.118212,-3.226008]},"properties":{"id":"623075920","n":"Malindi Maweni Kwa rukia abed","t":"pdw","c":"Kilifi"}},{"type":"Feature","geometry":{"type":"Point","coordinates":[40.114527,-3.23425]},"properties":{"id":"627171837","n":"Muyeye kwa Vumbi","t":"bh","c":"Kilifi"}},{"type":"Feature","geometry":{"type":"Point","coordinates":[40.111474,-3.228932]},"properties":{"id":"623077049","n":"Malindi Ngala Phase 3 (Kwa Star)","t":"bh","c":"Kilifi"}},{"type":"Feature","geometry":{"type":"Point","coordinates":[40.117127,-3.237094]},"properties":{"id":"627171930","n":"Muyeye Shela Ndogo (Kwa Hadija Abdhalah)","t":"bh","c":"Kilifi"}},{"type":"Feature","geometry":{"type":"Point","coordinates":[40.113341,-3.235499]},"properties":{"id":"623076787","n":"Kwa Vumbi Kwa mama hawaa ( Metro)","t":"bh","c":"Kilifi"}},{"type":"Feature","geometry":{"type":"Point","coordinates":[40.110962,-3.232141]},"properties":{"id":"623076835","n":"Ngala phase 3 Kwa Aisha Mohamed","t":"bh","c":"Kilifi"}},{"type":"Feature","geometry":{"type":"Point","coordinates":[40.116171,-3.232889]},"properties":{"id":"623076938","n":"Malindi Manicipal (Kwa Mamake Baya)","t":"bh","c":"Kilifi"}},{"type":"Feature","geometry":{"type":"Point","coordinates":[40.112122,-3.22835]},"properties":{"id":"627171868","n":"Ngala Phase 3 (Kwa Munaa)","t":"bh","c":"Kilifi"}},{"type":"Feature","geometry":{"type":"Point","coordinates":[40.114842,-3.233659]},"properties":{"id":"627172539","n":"Kwa Vumbi  kwa Marehemu","t":"bh","c":"Kilifi"}},{"type":"Feature","geometry":{"type":"Point","coordinates":[40.115702,-3.23046]},"properties":{"id":"623076062","n":"Malindi Saba Saba Kwa Fauzia","t":"bh","c":"Kilifi"}},{"type":"Feature","geometry":{"type":"Point","coordinates":[40.116299,-3.235968]},"properties":{"id":"627171923","n":"Muyeye (Kwa Jumaa Kasongo)","t":"bh","c":"Kilifi"}},{"type":"Feature","geometry":{"type":"Point","coordinates":[40.119514,-3.22329]},"properties":{"id":"627172120","n":"Maweni Santafee Misikiti Miwili (Kwa Mohamed Shekue)","t":"bh","c":"Kilifi"}},{"type":"Feature","geometry":{"type":"Point","coordinates":[40.1182,-3.227048]},"properties":{"id":"627172151","n":"Pentagon (Kwa Abdhulahi)","t":"bh","c":"Kilifi"}},{"type":"Feature","geometry":{"type":"Point","coordinates":[40.114867,-3.235112]},"properties":{"id":"623076134","n":"Metro Kwa Mamake Hadija","t":"bh","c":"Kilifi"}},{"type":"Feature","geometry":{"type":"Point","coordinates":[40.118838,-3.228776]},"properties":{"id":"627172010","n":"Maweni Minazi Mitano (Kwa Mama Fatuma Mohamed)","t":"bh","c":"Kilifi"}},{"type":"Feature","geometry":{"type":"Point","coordinates":[40.115705,-3.234315]},"properties":{"id":"623075470","n":"Kwa Vumbi Makaburini (Kwa Lucas Kadenge)","t":"bh","c":"Kilifi"}},{"type":"Feature","geometry":{"type":"Point","coordinates":[40.115937,-3.238004]},"properties":{"id":"627171909","n":"Muyeye Shela Ndogo (Kwa Juma Idi","t":"bh","c":"Kilifi"}},{"type":"Feature","geometry":{"type":"Point","coordinates":[40.115492,-3.236378]},"properties":{"id":"627171954","n":"Muyeye kwa kavoi","t":"bh","c":"Kilifi"}},{"type":"Feature","geometry":{"type":"Point","coordinates":[40.11345,-3.234329]},"properties":{"id":"623076770","n":"Metro kwa Vumbi Kwa Deche","t":"bh","c":"Kilifi"}},{"type":"Feature","geometry":{"type":"Point","coordinates":[40.114782,-3.237885]},"properties":{"id":"623076921","n":"Metro (Kwa Dorcas Wario)","t":"bh","c":"Kilifi"}},{"type":"Feature","geometry":{"type":"Point","coordinates":[40.113021,-3.22705]},"properties":{"id":"623076811","n":"Ngala phase 3 (Kwa Hadijah Sheikh)","t":"bh","c":"Kilifi"}},{"type":"Feature","geometry":{"type":"Point","coordinates":[40.114091,-3.241534]},"properties":{"id":"627172649","n":"Karima Kwa Sarah Mwavumbo","t":"bh","c":"Kilifi"}},{"type":"Feature","geometry":{"type":"Point","coordinates":[40.117008,-3.231785]},"properties":{"id":"627171961","n":"Muyeye","t":"bh","c":"Kilifi"}},{"type":"Feature","geometry":{"type":"Point","coordinates":[40.11716,-3.228158]},"properties":{"id":"623075463","n":"Pentagon (Kwa Fatuma Mohammed)","t":"bh","c":"Kilifi"}},{"type":"Feature","geometry":{"type":"Point","coordinates":[40.116125,-3.233929]},"properties":{"id":"623076725","n":"Muyeye Kwa Abdulkadir","t":"bh","c":"Kilifi"}},{"type":"Feature","geometry":{"type":"Point","coordinates":[40.122124,-3.224989]},"properties":{"id":"627172137","n":"Maweni Salafia (Kwa Mzee Ahamed Kiarabu)","t":"bh","c":"Kilifi"}},{"type":"Feature","geometry":{"type":"Point","coordinates":[40.113138,-3.242364]},"properties":{"id":"623076914","n":"Muyeye (Kwa Salim Mwangala)","t":"bh","c":"Kilifi"}},{"type":"Feature","geometry":{"type":"Point","coordinates":[40.117557,-3.225085]},"properties":{"id":"627172034","n":"Maweni Kwa Baya (Kwa Joseph Mwabonje Kea)","t":"bh","c":"Kilifi"}},{"type":"Feature","geometry":{"type":"Point","coordinates":[40.114842,-3.236582]},"properties":{"id":"623076701","n":"Metro Kwa Wanje","t":"bh","c":"Kilifi"}},{"type":"Feature","geometry":{"type":"Point","coordinates":[40.115465,-3.230105]},"properties":{"id":"623076110","n":"Sabasaba Kwa Muhammed abas","t":"bh","c":"Kilifi"}},{"type":"Feature","geometry":{"type":"Point","coordinates":[40.122733,-3.224386]},"properties":{"id":"627172144","n":"Maweni Sea Breeze (Kwa Jannes)","t":"bh","c":"Kilifi"}},{"type":"Feature","geometry":{"type":"Point","coordinates":[40.109662,-3.244462]},"properties":{"id":"627172223","n":"Muyeye kwa kajamaa ( kwa kadzo Genge)","t":"bh","c":"Kilifi"}},{"type":"Feature","geometry":{"type":"Point","coordinates":[40.116608,-3.232772]},"properties":{"id":"627171844","n":"Saba Saba Municipal (Kwa Athman Mkoka)","t":"bh","c":"Kilifi"}},{"type":"Feature","geometry":{"type":"Point","coordinates":[40.116953,-3.238015]},"properties":{"id":"627172656","n":"Karima Shela Ndogo","t":"bh","c":"Kilifi"}},{"type":"Feature","geometry":{"type":"Point","coordinates":[40.114494,-3.237098]},"properties":{"id":"627171899","n":"Muyeye Almona ( kwa Aisha Ali Omar)","t":"bh","c":"Kilifi"}},{"type":"Feature","geometry":{"type":"Point","coordinates":[40.111435,-3.24156]},"properties":{"id":"627172632","n":"Muyeye Soweto Kwa Tumbo","t":"bh","c":"Kilifi"}},{"type":"Feature","geometry":{"type":"Point","coordinates":[40.118159,-3.237669]},"properties":{"id":"627172663","n":"Shela Ndogo Kwa Shee","t":"bh","c":"Kilifi"}},{"type":"Feature","geometry":{"type":"Point","coordinates":[40.12039,-3.227249]},"properties":{"id":"623076983","n":"Malindi Maweni (Kwa Famau)","t":"bh","c":"Kilifi"}},{"type":"Feature","geometry":{"type":"Point","coordinates":[40.116885,-3.227302]},"properties":{"id":"623076794","n":"Saba Saba Pentagon Kwa Neshi","t":"bh","c":"Kilifi"}},{"type":"Feature","geometry":{"type":"Point","coordinates":[40.11487,-3.240355]},"properties":{"id":"627172670","n":"Muyeye","t":"bh","c":"Kilifi"}},{"type":"Feature","geometry":{"type":"Point","coordinates":[40.118658,-3.228622]},"properties":{"id":"623076990","n":"Minazi mitano Kwa Athman Rumi( malindi)","t":"bh","c":"Kilifi"}},{"type":"Feature","geometry":{"type":"Point","coordinates":[40.115137,-3.236175]},"properties":{"id":"627171947","n":"Muyeye (Kwa Ngonyo)","t":"bh","c":"Kilifi"}},{"type":"Feature","geometry":{"type":"Point","coordinates":[40.115139,-3.238509]},"properties":{"id":"627171916","n":"Muyeye  Karima(Kwa Mwakwaya)","t":"bh","c":"Kilifi"}},{"type":"Feature","geometry":{"type":"Point","coordinates":[40.113056,-3.244751]},"properties":{"id":"627172209","n":"Muyeye Kwa mzee Olele","t":"bh","c":"Kilifi"}},{"type":"Feature","geometry":{"type":"Point","coordinates":[39.390522,-4.147752]},"properties":{"id":"467833322","n":"Moyeni water project","t":"bh","c":"Kwale","d":200.0}},{"type":"Feature","geometry":{"type":"Point","coordinates":[39.385601,-4.624266]},"properties":{"id":"466590675","n":"UZIMA","t":"bh","c":"Kwale"}},{"type":"Feature","geometry":{"type":"Point","coordinates":[39.382144,-4.639366]},"properties":{"id":"186376913","n":"VUTA PUMZI","t":"bh","c":"Kwale"}},{"type":"Feature","geometry":{"type":"Point","coordinates":[39.377032,-4.638481]},"properties":{"id":"430266959","n":"MABENDANI A","t":"bh","c":"Kwale"}},{"type":"Feature","geometry":{"type":"Point","coordinates":[39.382668,-4.638881]},"properties":{"id":"430266870","n":"MBUYUNI","t":"bh","c":"Kwale"}},{"type":"Feature","geometry":{"type":"Point","coordinates":[39.382722,-4.642047]},"properties":{"id":"469060524","n":"Vichangaraweni","t":"bh","c":"Kwale"}},{"type":"Feature","geometry":{"type":"Point","coordinates":[39.387641,-4.629756]},"properties":{"id":"430266739","n":"NZUANI","t":"bh","c":"Kwale"}},{"type":"Feature","geometry":{"type":"Point","coordinates":[39.38646,-4.644974]},"properties":{"id":"430266973","n":"MAJENGO DEEP SEA","t":"bh","c":"Kwale"}},{"type":"Feature","geometry":{"type":"Point","coordinates":[39.383947,-4.628586]},"properties":{"id":"710310004","n":"ANZIWANI KWA MTEHI","t":"bh","c":"Kwale"}},{"type":"Feature","geometry":{"type":"Point","coordinates":[39.385305,-4.583313]},"properties":{"id":"393520925","n":"Mwambao Water Point","t":"bh","c":"Kwale"}},{"type":"Feature","geometry":{"type":"Point","coordinates":[39.384305,-4.610408]},"properties":{"id":"430266681","n":"KICHAKA MKWAJUNI","t":"bh","c":"Kwale"}},{"type":"Feature","geometry":{"type":"Point","coordinates":[39.384538,-4.640909]},"properties":{"id":"430266784","n":"TAWALANI","t":"bh","c":"Kwale"}},{"type":"Feature","geometry":{"type":"Point","coordinates":[39.384223,-4.63849]},"properties":{"id":"430266935","n":"MBUYUNI ESTATE","t":"bh","c":"Kwale"}},{"type":"Feature","geometry":{"type":"Point","coordinates":[39.381477,-4.606541]},"properties":{"id":"430266856","n":"PANAMA 2","t":"bh","c":"Kwale"}},{"type":"Feature","geometry":{"type":"Point","coordinates":[39.379154,-4.624688]},"properties":{"id":"466590644","n":"ANZIWANI BONGWE","t":"bh","c":"Kwale"}},{"type":"Feature","geometry":{"type":"Point","coordinates":[39.379392,-4.639332]},"properties":{"id":"430266894","n":"FIRDAUS","t":"bh","c":"Kwale"}},{"type":"Feature","geometry":{"type":"Point","coordinates":[39.386145,-4.610356]},"properties":{"id":"393520949","n":"Panama Water Point","t":"bh","c":"Kwale"}},{"type":"Feature","geometry":{"type":"Point","coordinates":[39.384816,-4.621718]},"properties":{"id":"430266832","n":"NAJA","t":"bh","c":"Kwale"}},{"type":"Feature","geometry":{"type":"Point","coordinates":[39.388057,-4.604258]},"properties":{"id":"430266746","n":"MWAZARO BEACH","t":"bh","c":"Kwale"}},{"type":"Feature","geometry":{"type":"Point","coordinates":[39.382352,-4.633467]},"properties":{"id":"430266911","n":"AZAM KIWANJANI","t":"bh","c":"Kwale"}},{"type":"Feature","geometry":{"type":"Point","coordinates":[39.381814,-4.624326]},"properties":{"id":"466590668","n":"ANZIWANI PORINI","t":"bh","c":"Kwale"}},{"type":"Feature","geometry":{"type":"Point","coordinates":[39.570267,-4.248284]},"properties":{"id":"161519935","n":"MBOKWENI (KARUAA)","t":"bh","c":"Kwale"}},{"type":"Feature","geometry":{"type":"Point","coordinates":[39.583498,-4.2244]},"properties":{"id":"56281217","n":"TIWI KIZINGO","t":"bh","c":"Kwale"}},{"type":"Feature","geometry":{"type":"Point","coordinates":[39.586379,-4.232513]},"properties":{"id":"102070293","n":"TIWI KIRUDI KWA TUNDE","t":"bh","c":"Kwale"}},{"type":"Feature","geometry":{"type":"Point","coordinates":[39.586021,-4.218548]},"properties":{"id":"56281190","n":"TIWI PONGWE","t":"bh","c":"Kwale"}},{"type":"Feature","geometry":{"type":"Point","coordinates":[39.59285,-4.224143]},"properties":{"id":"130262389","n":"TIWI KIZINGO KIZE","t":"bh","c":"Kwale"}},{"type":"Feature","geometry":{"type":"Point","coordinates":[39.570364,-4.250365]},"properties":{"id":"161519904","n":"MBOKWENI","t":"bh","c":"Kwale"}},{"type":"Feature","geometry":{"type":"Point","coordinates":[39.572572,-4.25284]},"properties":{"id":"186376308","n":"Mwachema water point","t":"bh","c":"Kwale"}},{"type":"Feature","geometry":{"type":"Point","coordinates":[39.600108,-4.230028]},"properties":{"id":"40448082","n":"TIWI MAWENI","t":"bh","c":"Kwale"}},{"type":"Feature","geometry":{"type":"Point","coordinates":[39.595671,-4.232332]},"properties":{"id":"161520775","n":"TIWI YA MAWENI","t":"bh","c":"Kwale"}},{"type":"Feature","geometry":{"type":"Point","coordinates":[39.570678,-4.244471]},"properties":{"id":"430266650","n":"MANUNDUNI 2","t":"bh","c":"Kwale"}},{"type":"Feature","geometry":{"type":"Point","coordinates":[39.565596,-4.243169]},"properties":{"id":"186376281","n":"Kanu water point","t":"bh","c":"Kwale"}},{"type":"Feature","geometry":{"type":"Point","coordinates":[39.582192,-4.225582]},"properties":{"id":"161520586","n":"TIWI SPORT LONDON","t":"bh","c":"Kwale"}},{"type":"Feature","geometry":{"type":"Point","coordinates":[39.581262,-4.232695]},"properties":{"id":"56281231","n":"TIWI KIRUDI","t":"bh","c":"Kwale"}},{"type":"Feature","geometry":{"type":"Point","coordinates":[39.578536,-4.233955]},"properties":{"id":"56281255","n":"TIWI BIXA","t":"bh","c":"Kwale"}},{"type":"Feature","geometry":{"type":"Point","coordinates":[39.592268,-4.23495]},"properties":{"id":"225959501","n":"TIWI NGOTO","t":"bh","c":"Kwale"}},{"type":"Feature","geometry":{"type":"Point","coordinates":[39.534237,-4.266623]},"properties":{"id":"34957932","n":"VUKANI","t":"bh","c":"Kwale"}},{"type":"Feature","geometry":{"type":"Point","coordinates":[39.57943,-4.267777]},"properties":{"id":"161520696","n":"MVUMONI KIBUNDANI","t":"bh","c":"Kwale"}},{"type":"Feature","geometry":{"type":"Point","coordinates":[39.575703,-4.273342]},"properties":{"id":"161520634","n":"MWAMAMBI DIANI","t":"bh","c":"Kwale"}},{"type":"Feature","geometry":{"type":"Point","coordinates":[39.575037,-4.277923]},"properties":{"id":"161521518","n":"MWEMBENGOMA","t":"bh","c":"Kwale"}},{"type":"Feature","geometry":{"type":"Point","coordinates":[39.571645,-4.275178]},"properties":{"id":"466590606","n":"DIANI","t":"bh","c":"Kwale"}},{"type":"Feature","geometry":{"type":"Point","coordinates":[39.589385,-4.264099]},"properties":{"id":"161520919","n":"MWAKAMBA YA MAWENI","t":"bh","c":"Kwale"}},{"type":"Feature","geometry":{"type":"Point","coordinates":[39.576637,-4.274257]},"properties":{"id":"161521226","n":"MWANGAWA","t":"bh","c":"Kwale"}},{"type":"Feature","geometry":{"type":"Point","coordinates":[39.571644,-4.27408]},"properties":{"id":"161521305","n":"SURURU","t":"bh","c":"Kwale"}},{"type":"Feature","geometry":{"type":"Point","coordinates":[39.536427,-4.286251]},"properties":{"id":"72007950","n":"MBUANI","t":"bh","c":"Kwale"}},{"type":"Feature","geometry":{"type":"Point","coordinates":[39.581965,-4.26615]},"properties":{"id":"161520737","n":"MVUMONI MMBUYUNI","t":"bh","c":"Kwale"}},{"type":"Feature","geometry":{"type":"Point","coordinates":[39.571703,-4.278237]},"properties":{"id":"393520774","n":"ABC Community","t":"bh","c":"Kwale"}},{"type":"Feature","geometry":{"type":"Point","coordinates":[39.584977,-4.261942]},"properties":{"id":"161520892","n":"MWAKAMBA YA BURANI","t":"bh","c":"Kwale"}},{"type":"Feature","geometry":{"type":"Point","coordinates":[39.560636,-4.280686]},"properties":{"id":"21351615","n":"BONGWE(DIANI FOREST)","t":"bh","c":"Kwale"}},{"type":"Feature","geometry":{"type":"Point","coordinates":[39.58463,-4.270877]},"properties":{"id":"161521051","n":"LIDO","t":"bh","c":"Kwale"}},{"type":"Feature","geometry":{"type":"Point","coordinates":[39.580682,-4.275529]},"properties":{"id":"617540847","n":"RONDWE","t":"bh","c":"Kwale"}},{"type":"Feature","geometry":{"type":"Point","coordinates":[39.573033,-4.265781]},"properties":{"id":"161520799","n":"DARING","t":"bh","c":"Kwale"}},{"type":"Feature","geometry":{"type":"Point","coordinates":[39.582132,-4.269825]},"properties":{"id":"161520524","n":"MUVUMONI PALATINA","t":"bh","c":"Kwale"}},{"type":"Feature","geometry":{"type":"Point","coordinates":[39.575266,-4.27048]},"properties":{"id":"161520933","n":"MWARONI GOMBATO","t":"bh","c":"Kwale"}},{"type":"Feature","geometry":{"type":"Point","coordinates":[39.575456,-4.265388]},"properties":{"id":"161520593","n":"MWARONI CHANGAMWE","t":"bh","c":"Kwale"}},{"type":"Feature","geometry":{"type":"Point","coordinates":[39.547799,-4.265762]},"properties":{"id":"102070231","n":"MWAMTENDA","t":"bh","c":"Kwale"}},{"type":"Feature","geometry":{"type":"Point","coordinates":[39.58672,-4.264281]},"properties":{"id":"225959738","n":"Mwakamba vikonjeni","t":"bh","c":"Kwale"}},{"type":"Feature","geometry":{"type":"Point","coordinates":[39.578391,-4.269389]},"properties":{"id":"161521752","n":"MWARONI PRIMARY","t":"bh","c":"Kwale"}},{"type":"Feature","geometry":{"type":"Point","coordinates":[39.579755,-4.279529]},"properties":{"id":"161521556","n":"MWEMBE NGURUWE","t":"bh","c":"Kwale"}},{"type":"Feature","geometry":{"type":"Point","coordinates":[39.586751,-4.266203]},"properties":{"id":"161520672","n":"MWAKAMBA","t":"bh","c":"Kwale"}},{"type":"Feature","geometry":{"type":"Point","coordinates":[39.574618,-4.27202]},"properties":{"id":"161521491","n":"MWARONI KITSAKAMWATSA","t":"bh","c":"Kwale"}},{"type":"Feature","geometry":{"type":"Point","coordinates":[39.580768,-4.275592]},"properties":{"id":"469060641","n":"RONDWE","t":"bh","c":"Kwale"}},{"type":"Feature","geometry":{"type":"Point","coordinates":[39.58035,-4.266911]},"properties":{"id":"161520658","n":"MVUMONI KWA KISINYO","t":"bh","c":"Kwale"}},{"type":"Feature","geometry":{"type":"Point","coordinates":[39.574884,-4.274538]},"properties":{"id":"161521288","n":"MWANGAWA MWAMAMBI","t":"bh","c":"Kwale"}},{"type":"Feature","geometry":{"type":"Point","coordinates":[39.577315,-4.277184]},"properties":{"id":"161521594","n":"MWAMAMBI YA CHIZE","t":"bh","c":"Kwale"}},{"type":"Feature","geometry":{"type":"Point","coordinates":[39.554638,-4.273781]},"properties":{"id":"52516050","n":"NINGOLI","t":"bh","c":"Kwale"}},{"type":"Feature","geometry":{"type":"Point","coordinates":[39.577988,-4.274924]},"properties":{"id":"161521240","n":"MVUMONI GIRIAMA","t":"bh","c":"Kwale"}},{"type":"Feature","geometry":{"type":"Point","coordinates":[39.573373,-4.263897]},"properties":{"id":"161520830","n":"MWARONI MACHENGANO","t":"bh","c":"Kwale"}},{"type":"Feature","geometry":{"type":"Point","coordinates":[39.521788,-4.353802]},"properties":{"id":"56281097","n":"ZENGWA (GANJA LA SIMBA)","t":"bh","c":"Kwale"}},{"type":"Feature","geometry":{"type":"Point","coordinates":[39.536592,-4.366009]},"properties":{"id":"393519958","n":"Mwakipeku","t":"bh","c":"Kwale"}},{"type":"Feature","geometry":{"type":"Point","coordinates":[39.535427,-4.333542]},"properties":{"id":"56281303","n":"MWABUNGO SCHEME","t":"bh","c":"Kwale"}},{"type":"Feature","geometry":{"type":"Point","coordinates":[39.53984,-4.350248]},"properties":{"id":"393519879","n":"Uza Uza","t":"bh","c":"Kwale"}},{"type":"Feature","geometry":{"type":"Point","coordinates":[39.538642,-4.344208]},"properties":{"id":"393519745","n":"Mwabungo Center","t":"bh","c":"Kwale"}},{"type":"Feature","geometry":{"type":"Point","coordinates":[39.480458,-4.361595]},"properties":{"id":"56281073","n":"MASINDENI ZIGIRA","t":"bh","c":"Kwale"}},{"type":"Feature","geometry":{"type":"Point","coordinates":[39.483023,-4.381675]},"properties":{"id":"186376975","n":"HEHE KWA MWAMGONGO","t":"bh","c":"Kwale"}},{"type":"Feature","geometry":{"type":"Point","coordinates":[39.524958,-4.363985]},"properties":{"id":"393520846","n":"Kibarani","t":"bh","c":"Kwale"}},{"type":"Feature","geometry":{"type":"Point","coordinates":[39.484127,-4.350966]},"properties":{"id":"21672561","n":"MASINDENI MALUKI","t":"bh","c":"Kwale"}},{"type":"Feature","geometry":{"type":"Point","coordinates":[39.542623,-4.347782]},"properties":{"id":"393520808","n":"Chonyi Community","t":"bh","c":"Kwale"}},{"type":"Feature","geometry":{"type":"Point","coordinates":[39.52772,-4.361599]},"properties":{"id":"469060627","n":"GANJA LA SIMBA ECD","t":"bh","c":"Kwale"}},{"type":"Feature","geometry":{"type":"Point","coordinates":[39.516941,-4.390003]},"properties":{"id":"469060658","n":"Matunda Bora","t":"bh","c":"Kwale"}},{"type":"Feature","geometry":{"type":"Point","coordinates":[39.468253,-4.348891]},"properties":{"id":"469060610","n":"MASINDENI","t":"bh","c":"Kwale"}},{"type":"Feature","geometry":{"type":"Point","coordinates":[39.538304,-4.361527]},"properties":{"id":"393520664","n":"Kidimu","t":"bh","c":"Kwale"}},{"type":"Feature","geometry":{"type":"Point","coordinates":[39.546181,-4.337289]},"properties":{"id":"393519965","n":"Tangulia Community","t":"bh","c":"Kwale"}},{"type":"Feature","geometry":{"type":"Point","coordinates":[39.54091,-4.338999]},"properties":{"id":"430266674","n":"Abijan","t":"bh","c":"Kwale"}},{"type":"Feature","geometry":{"type":"Point","coordinates":[39.523526,-4.341054]},"properties":{"id":"466590620","n":"KAMBE KIUZINI","t":"bh","c":"Kwale"}},{"type":"Feature","geometry":{"type":"Point","coordinates":[39.526918,-4.329205]},"properties":{"id":"161520294","n":"KAMBE MWAMUA","t":"bh","c":"Kwale"}},{"type":"Feature","geometry":{"type":"Point","coordinates":[39.536816,-4.367743]},"properties":{"id":"393520688","n":"Mwakipeku 2","t":"bh","c":"Kwale"}},{"type":"Feature","geometry":{"type":"Point","coordinates":[39.532356,-4.367262]},"properties":{"id":"393520011","n":"Nyumba Mbovu","t":"bh","c":"Kwale"}},{"type":"Feature","geometry":{"type":"Point","coordinates":[39.51821,-4.364012]},"properties":{"id":"597887545","n":"Kinondo Gandini 2","t":"bh","c":"Kwale"}},{"type":"Feature","geometry":{"type":"Point","coordinates":[39.527006,-4.337777]},"properties":{"id":"469060713","n":"MAWECHE","t":"bh","c":"Kwale"}},{"type":"Feature","geometry":{"type":"Point","coordinates":[39.519485,-4.367568]},"properties":{"id":"430267060","n":"KINONDO GANDINI","t":"bh","c":"Kwale"}},{"type":"Feature","geometry":{"type":"Point","coordinates":[39.543161,-4.351913]},"properties":{"id":"402081496","n":"MTANGIZENI B","t":"bh","c":"Kwale"}},{"type":"Feature","geometry":{"type":"Point","coordinates":[39.542826,-4.339822]},"properties":{"id":"161521570","n":"MWABUNGO POLYTECHNIC","t":"bh","c":"Kwale"}},{"type":"Feature","geometry":{"type":"Point","coordinates":[39.542716,-4.356522]},"properties":{"id":"393520035","n":"Kigugumo","t":"bh","c":"Kwale"}},{"type":"Feature","geometry":{"type":"Point","coordinates":[39.547981,-4.353683]},"properties":{"id":"393520798","n":"Ngongonda","t":"bh","c":"Kwale"}},{"type":"Feature","geometry":{"type":"Point","coordinates":[39.536554,-4.342189]},"properties":{"id":"161521628","n":"MWAMUA BANDA LA NGOZI","t":"bh","c":"Kwale"}},{"type":"Feature","geometry":{"type":"Point","coordinates":[39.518335,-4.360753]},"properties":{"id":"161519801","n":"NGANDINI","t":"bh","c":"Kwale"}},{"type":"Feature","geometry":{"type":"Point","coordinates":[39.541076,-4.341436]},"properties":{"id":"161521350","n":"MWANGOLOKO MWAMUA","t":"bh","c":"Kwale"}},{"type":"Feature","geometry":{"type":"Point","coordinates":[39.482812,-4.381623]},"properties":{"id":"186376982","n":"HEHE VILLAGE IN MAGAONI","t":"bh","c":"Kwale"}},{"type":"Feature","geometry":{"type":"Point","coordinates":[39.522532,-4.348134]},"properties":{"id":"161519959","n":"MWANDULIA","t":"bh","c":"Kwale"}},{"type":"Feature","geometry":{"type":"Point","coordinates":[39.528945,-4.365991]},"properties":{"id":"393520884","n":"Steji Water Point","t":"bh","c":"Kwale"}},{"type":"Feature","geometry":{"type":"Point","coordinates":[39.51332,-4.352826]},"properties":{"id":"710310042","n":"MUHAKA ZENGWA","t":"bh","c":"Kwale"}},{"type":"Feature","geometry":{"type":"Point","coordinates":[39.529425,-4.344421]},"properties":{"id":"466590596","n":"MWABUNGO MWEGANI","t":"bh","c":"Kwale"}},{"type":"Feature","geometry":{"type":"Point","coordinates":[39.529503,-4.372366]},"properties":{"id":"161574293","n":"KINONDO TOWN PRIMARY","t":"bh","c":"Kwale"}},{"type":"Feature","geometry":{"type":"Point","coordinates":[39.547883,-4.355354]},"properties":{"id":"393520633","n":"Silewe Community","t":"bh","c":"Kwale"}},{"type":"Feature","geometry":{"type":"Point","coordinates":[39.524832,-4.338712]},"properties":{"id":"56281279","n":"MWABUNGO MWAMUA","t":"bh","c":"Kwale"}},{"type":"Feature","geometry":{"type":"Point","coordinates":[39.538071,-4.359474]},"properties":{"id":"393520640","n":"Giriama Kubwa","t":"bh","c":"Kwale"}},{"type":"Feature","geometry":{"type":"Point","coordinates":[39.492875,-4.338275]},"properties":{"id":"56281114","n":"MWEMBE-KIJEMBE","t":"bh","c":"Kwale"}},{"type":"Feature","geometry":{"type":"Point","coordinates":[39.548781,-4.351828]},"properties":{"id":"393520626","n":"Madago Community","t":"bh","c":"Kwale"}},{"type":"Feature","geometry":{"type":"Point","coordinates":[39.54322,-4.343665]},"properties":{"id":"393520781","n":"MWANGOLOKO CHA","t":"bh","c":"Kwale"}},{"type":"Feature","geometry":{"type":"Point","coordinates":[39.548806,-4.351924]},"properties":{"id":"430266605","n":"Madago","t":"bh","c":"Kwale"}},{"type":"Feature","geometry":{"type":"Point","coordinates":[39.479124,-4.382491]},"properties":{"id":"469060665","n":"MAGAONI","t":"bh","c":"Kwale"}},{"type":"Feature","geometry":{"type":"Point","coordinates":[39.541404,-4.34363]},"properties":{"id":"161521374","n":"MWANGOLOKO","t":"bh","c":"Kwale"}},{"type":"Feature","geometry":{"type":"Point","coordinates":[39.53363,-4.361493]},"properties":{"id":"393519934","n":"Ganja La Simba Msikitini","t":"bh","c":"Kwale"}},{"type":"Feature","geometry":{"type":"Point","coordinates":[39.53389,-4.356265]},"properties":{"id":"466590613","n":"GALU","t":"bh","c":"Kwale"}},{"type":"Feature","geometry":{"type":"Point","coordinates":[39.468359,-4.348758]},"properties":{"id":"43520086","n":"MASINDENI MUTAHE","t":"bh","c":"Kwale"}},{"type":"Feature","geometry":{"type":"Point","coordinates":[39.517417,-4.356944]},"properties":{"id":"161520050","n":"ZENGWA B","t":"bh","c":"Kwale"}},{"type":"Feature","geometry":{"type":"Point","coordinates":[39.529301,-4.342641]},"properties":{"id":"466590589","n":"MWABUNGO KIUZINI","t":"bh","c":"Kwale"}},{"type":"Feature","geometry":{"type":"Point","coordinates":[39.543193,-4.354517]},"properties":{"id":"161521776","n":"BIGA GAGOMBENI","t":"bh","c":"Kwale"}},{"type":"Feature","geometry":{"type":"Point","coordinates":[39.548052,-4.343979]},"properties":{"id":"430266722","n":"Kizimukazi","t":"bh","c":"Kwale"}},{"type":"Feature","geometry":{"type":"Point","coordinates":[39.545854,-4.348676]},"properties":{"id":"393520042","n":"Mtangizeni community","t":"bh","c":"Kwale"}},{"type":"Feature","geometry":{"type":"Point","coordinates":[39.537011,-4.3498]},"properties":{"id":"393519659","n":"Mwabungo Kona.","t":"bh","c":"Kwale"}},{"type":"Feature","geometry":{"type":"Point","coordinates":[39.479189,-4.382517]},"properties":{"id":"617540823","n":"Viembeni Mtoni","t":"bh","c":"Kwale"}},{"type":"Feature","geometry":{"type":"Point","coordinates":[39.543427,-4.348832]},"properties":{"id":"393520705","n":"Mwangoloko B","t":"bh","c":"Kwale"}},{"type":"Feature","geometry":{"type":"Point","coordinates":[39.53585,-4.339388]},"properties":{"id":"161519980","n":"MWAMUA COROLADO","t":"bh","c":"Kwale"}},{"type":"Feature","geometry":{"type":"Point","coordinates":[39.494913,-4.448898]},"properties":{"id":"393520004","n":"Mwanangura","t":"bh","c":"Kwale"}},{"type":"Feature","geometry":{"type":"Point","coordinates":[39.421845,-4.501136]},"properties":{"id":"393520729","n":"Fahamuni","t":"bh","c":"Kwale"}},{"type":"Feature","geometry":{"type":"Point","coordinates":[39.432582,-4.432784]},"properties":{"id":"617540861","n":"FINGIRIKA B","t":"bh","c":"Kwale"}},{"type":"Feature","geometry":{"type":"Point","coordinates":[39.457197,-4.487004]},"properties":{"id":"466590321","n":"Gavunzeni","t":"bh","c":"Kwale"}},{"type":"Feature","geometry":{"type":"Point","coordinates":[39.458345,-4.472015]},"properties":{"id":"597887538","n":"Milalani","t":"bh","c":"Kwale"}},{"type":"Feature","geometry":{"type":"Point","coordinates":[39.436222,-4.425983]},"properties":{"id":"3866957","n":"VINGIRIKA","t":"bh","c":"Kwale"}},{"type":"Feature","geometry":{"type":"Point","coordinates":[39.457292,-4.505028]},"properties":{"id":"466590541","n":"MUNJE","t":"bh","c":"Kwale"}},{"type":"Feature","geometry":{"type":"Point","coordinates":[39.469557,-4.484192]},"properties":{"id":"393519910","n":"Mwagundu Kwa Ngenya.","t":"bh","c":"Kwale"}},{"type":"Feature","geometry":{"type":"Point","coordinates":[39.491034,-4.463837]},"properties":{"id":"393519783","n":"Tumbe","t":"bh","c":"Kwale"}},{"type":"Feature","geometry":{"type":"Point","coordinates":[39.461707,-4.480565]},"properties":{"id":"161520878","n":"CHUNGANI","t":"bh","c":"Kwale"}},{"type":"Feature","geometry":{"type":"Point","coordinates":[39.412386,-4.494808]},"properties":{"id":"466590716","n":"MUCHINJIRINI","t":"bh","c":"Kwale"}},{"type":"Feature","geometry":{"type":"Point","coordinates":[39.490014,-4.453129]},"properties":{"id":"393520097","n":"Ghorofani Water Point","t":"bh","c":"Kwale"}},{"type":"Feature","geometry":{"type":"Point","coordinates":[39.434985,-4.423465]},"properties":{"id":"225959673","n":"Vingirika 2","t":"bh","c":"Kwale"}},{"type":"Feature","geometry":{"type":"Point","coordinates":[39.455187,-4.499767]},"properties":{"id":"161521202","n":"KISOMBA NDUNI","t":"bh","c":"Kwale"}},{"type":"Feature","geometry":{"type":"Point","coordinates":[39.45225,-4.48103]},"properties":{"id":"161521185","n":"MABATANI KIZIRU","t":"bh","c":"Kwale"}},{"type":"Feature","geometry":{"type":"Point","coordinates":[39.475626,-4.482947]},"properties":{"id":"161521099","n":"MWAEMBE","t":"bh","c":"Kwale"}},{"type":"Feature","geometry":{"type":"Point","coordinates":[39.473595,-4.460401]},"properties":{"id":"225959594","n":"VIEMBENI","t":"bh","c":"Kwale"}},{"type":"Feature","geometry":{"type":"Point","coordinates":[39.4704,-4.460674]},"properties":{"id":"225959549","n":"Kibubu","t":"bh","c":"Kwale"}},{"type":"Feature","geometry":{"type":"Point","coordinates":[39.471425,-4.487307]},"properties":{"id":"161521532","n":"MWAGUNDU KWA MWAZANI","t":"bh","c":"Kwale"}},{"type":"Feature","geometry":{"type":"Point","coordinates":[39.492047,-4.457063]},"properties":{"id":"466590266","n":"Timboni Water Point","t":"bh","c":"Kwale"}},{"type":"Feature","geometry":{"type":"Point","coordinates":[39.475588,-4.466327]},"properties":{"id":"430266708","n":"Mwajumaa","t":"bh","c":"Kwale"}},{"type":"Feature","geometry":{"type":"Point","coordinates":[39.484693,-4.468551]},"properties":{"id":"393519800","n":"Vingujini","t":"bh","c":"Kwale"}},{"type":"Feature","geometry":{"type":"Point","coordinates":[39.494212,-4.444382]},"properties":{"id":"393520712","n":"Sanura","t":"bh","c":"Kwale"}},{"type":"Feature","geometry":{"type":"Point","coordinates":[39.486297,-4.457225]},"properties":{"id":"393520767","n":"Msambweni polytechnic","t":"bh","c":"Kwale"}},{"type":"Feature","geometry":{"type":"Point","coordinates":[39.437943,-4.579123]},"properties":{"id":"466590682","n":"FUNZI","t":"bh","c":"Kwale"}},{"type":"Feature","geometry":{"type":"Point","coordinates":[39.470513,-4.49172]},"properties":{"id":"161521666","n":"MWAGUNDU CHITZE","t":"bh","c":"Kwale"}},{"type":"Feature","geometry":{"type":"Point","coordinates":[39.461627,-4.476415]},"properties":{"id":"161520957","n":"DZIKOBA MILALANI","t":"bh","c":"Kwale"}},{"type":"Feature","geometry":{"type":"Point","coordinates":[39.465978,-4.480968]},"properties":{"id":"225959666","n":"Chungani pomoja","t":"bh","c":"Kwale"}},{"type":"Feature","geometry":{"type":"Point","coordinates":[39.493023,-4.446077]},"properties":{"id":"393519972","n":"Nguzo Mbili Community","t":"bh","c":"Kwale"}},{"type":"Feature","geometry":{"type":"Point","coordinates":[39.451753,-4.494164]},"properties":{"id":"161521398","n":"MUGUKUNI","t":"bh","c":"Kwale"}},{"type":"Feature","geometry":{"type":"Point","coordinates":[39.444422,-4.475259]},"properties":{"id":"469060737","n":"MABATANI KWA GOWA","t":"bh","c":"Kwale"}},{"type":"Feature","geometry":{"type":"Point","coordinates":[39.454636,-4.549808]},"properties":{"id":"186376937","n":"NDOONI","t":"bh","c":"Kwale"}},{"type":"Feature","geometry":{"type":"Point","coordinates":[39.469529,-4.469642]},"properties":{"id":"393519776","n":"Ganja Marizani.","t":"bh","c":"Kwale"}},{"type":"Feature","geometry":{"type":"Point","coordinates":[39.422624,-4.499167]},"properties":{"id":"393520918","n":"Fahamuni 2","t":"bh","c":"Kwale"}},{"type":"Feature","geometry":{"type":"Point","coordinates":[39.485492,-4.466849]},"properties":{"id":"393520815","n":"Tumbe kwa Khamisi","t":"bh","c":"Kwale"}},{"type":"Feature","geometry":{"type":"Point","coordinates":[39.466866,-4.488163]},"properties":{"id":"161521642","n":"MWAGUNDU KWA MWAKAORE","t":"bh","c":"Kwale"}},{"type":"Feature","geometry":{"type":"Point","coordinates":[39.46994,-4.456765]},"properties":{"id":"225959525","n":"Marigiza c","t":"bh","c":"Kwale"}},{"type":"Feature","geometry":{"type":"Point","coordinates":[39.437347,-4.452602]},"properties":{"id":"225959570","n":"Gonjora","t":"ps","c":"Kwale"}},{"type":"Feature","geometry":{"type":"Point","coordinates":[39.4487,-4.502571]},"properties":{"id":"161521415","n":"KIKUNGUNI # 2","t":"bh","c":"Kwale"}},{"type":"Feature","geometry":{"type":"Point","coordinates":[39.486788,-4.466229]},"properties":{"id":"393520750","n":"Tumbe 2","t":"bh","c":"Kwale"}},{"type":"Feature","geometry":{"type":"Point","coordinates":[39.48276,-4.472175]},"properties":{"id":"466590273","n":"Sawasawa","t":"bh","c":"Kwale"}},{"type":"Feature","geometry":{"type":"Point","coordinates":[39.473829,-4.470311]},"properties":{"id":"430266760","n":"MARIDZANI COMMUNITY","t":"bh","c":"Kwale"}},{"type":"Feature","geometry":{"type":"Point","coordinates":[39.453208,-4.499457]},"properties":{"id":"161521147","n":"KINGWEDE KISOMBA","t":"bh","c":"Kwale"}},{"type":"Feature","geometry":{"type":"Point","coordinates":[39.468869,-4.451995]},"properties":{"id":"225959604","n":"Voroni","t":"bh","c":"Kwale"}},{"type":"Feature","geometry":{"type":"Point","coordinates":[39.470775,-4.488686]},"properties":{"id":"161521680","n":"MWAGUNDU KWA MWATUNYA","t":"bh","c":"Kwale"}},{"type":"Feature","geometry":{"type":"Point","coordinates":[39.470478,-4.465156]},"properties":{"id":"469060720","n":"BOMANI","t":"bh","c":"Kwale"}},{"type":"Feature","geometry":{"type":"Point","coordinates":[39.448941,-4.50104]},"properties":{"id":"354412652","n":"KIKUNGUNI 3","t":"bh","c":"Kwale"}},{"type":"Feature","geometry":{"type":"Point","coordinates":[39.465745,-4.483873]},"properties":{"id":"161521020","n":"MWAGUNDU","t":"bh","c":"Kwale"}},{"type":"Feature","geometry":{"type":"Point","coordinates":[39.494258,-4.454353]},"properties":{"id":"393520107","n":"Pendo Water Point","t":"bh","c":"Kwale"}},{"type":"Feature","geometry":{"type":"Point","coordinates":[39.461902,-4.487112]},"properties":{"id":"161521109","n":"KINGWEDE KINANGO","t":"bh","c":"Kwale"}},{"type":"Feature","geometry":{"type":"Point","coordinates":[39.449992,-4.501067]},"properties":{"id":"161521161","n":"KIKUNGUNI","t":"bh","c":"Kwale"}},{"type":"Feature","geometry":{"type":"Point","coordinates":[39.482468,-4.467992]},"properties":{"id":"393520839","n":"Viva Community","t":"bh","c":"Kwale"}},{"type":"Feature","geometry":{"type":"Point","coordinates":[39.484744,-4.461711]},"properties":{"id":"393519817","n":"Mnarani","t":"bh","c":"Kwale"}},{"type":"Feature","geometry":{"type":"Point","coordinates":[39.490221,-4.450621]},"properties":{"id":"393520066","n":"Ndoroni","t":"bh","c":"Kwale"}},{"type":"Feature","geometry":{"type":"Point","coordinates":[39.466944,-4.467889]},"properties":{"id":"393519769","n":"Ngaja","t":"bh","c":"Kwale"}},{"type":"Feature","geometry":{"type":"Point","coordinates":[39.495583,-4.459806]},"properties":{"id":"393520114","n":"Kwa Chege","t":"bh","c":"Kwale"}},{"type":"Feature","geometry":{"type":"Point","coordinates":[39.495514,-4.446484]},"properties":{"id":"393519893","n":"Shangani","t":"bh","c":"Kwale"}},{"type":"Feature","geometry":{"type":"Point","coordinates":[39.440028,-4.43032]},"properties":{"id":"307689047","n":"Vingirika duncanndegwa","t":"bh","c":"Kwale"}},{"type":"Feature","geometry":{"type":"Point","coordinates":[39.479461,-4.464569]},"properties":{"id":"162340509","n":"DETENI","t":"bh","c":"Kwale"}},{"type":"Feature","geometry":{"type":"Point","coordinates":[39.432629,-4.432738]},"properties":{"id":"597887521","n":"Fingirika","t":"bh","c":"Kwale"}},{"type":"Feature","geometry":{"type":"Point","coordinates":[39.458197,-4.502959]},"properties":{"id":"161521439","n":"KITZE","t":"bh","c":"Kwale"}},{"type":"Feature","geometry":{"type":"Point","coordinates":[39.469754,-4.458082]},"properties":{"id":"225959484","n":"Marigiza","t":"bh","c":"Kwale"}},{"type":"Feature","geometry":{"type":"Point","coordinates":[39.473711,-4.479288]},"properties":{"id":"161521745","n":"MWAEMBE GOTSO","t":"bh","c":"Kwale"}},{"type":"Feature","geometry":{"type":"Point","coordinates":[39.49199,-4.454532]},"properties":{"id":"393519831","n":"Nyumba Sita","t":"bh","c":"Kwale"}},{"type":"Feature","geometry":{"type":"Point","coordinates":[39.463738,-4.480329]},"properties":{"id":"161521477","n":"CHUNGANI KWA KALOYO","t":"bh","c":"Kwale"}},{"type":"Feature","geometry":{"type":"Point","coordinates":[39.460221,-4.483921]},"properties":{"id":"161520988","n":"CHUNGANI KWA MWAGUSHI","t":"bh","c":"Kwale"}},{"type":"Feature","geometry":{"type":"Point","coordinates":[39.444353,-4.475314]},"properties":{"id":"405298042","n":"Mabatani Kwa mzee Goa","t":"bh","c":"Kwale"}},{"type":"Feature","geometry":{"type":"Point","coordinates":[39.484123,-4.466386]},"properties":{"id":"393520822","n":"Ngurufuni","t":"bh","c":"Kwale"}},{"type":"Feature","geometry":{"type":"Point","coordinates":[39.453123,-4.4854]},"properties":{"id":"225959642","n":"Mwachome","t":"bh","c":"Kwale"}},{"type":"Feature","geometry":{"type":"Point","coordinates":[39.475596,-4.467451]},"properties":{"id":"430266667","n":"Amani","t":"bh","c":"Kwale"}},{"type":"Feature","geometry":{"type":"Point","coordinates":[39.472444,-4.457601]},"properties":{"id":"430266753","n":"VIEMBENI 2","t":"bh","c":"Kwale"}},{"type":"Feature","geometry":{"type":"Point","coordinates":[39.450824,-4.485981]},"properties":{"id":"225959563","n":"KIZIRU","t":"bh","c":"Kwale"}},{"type":"Feature","geometry":{"type":"Point","coordinates":[39.457708,-4.485114]},"properties":{"id":"161521329","n":"MAGUTU MASJD IBRAHIM","t":"bh","c":"Kwale"}},{"type":"Feature","geometry":{"type":"Point","coordinates":[39.475037,-4.464538]},"properties":{"id":"430266818","n":"Jomo Kenyatta","t":"bh","c":"Kwale"}},{"type":"Feature","geometry":{"type":"Point","coordinates":[39.491278,-4.460508]},"properties":{"id":"393520073","n":"Mwandamu community","t":"bh","c":"Kwale"}},{"type":"Feature","geometry":{"type":"Point","coordinates":[39.474574,-4.457974]},"properties":{"id":"469060672","n":"Viembeni Mtoni","t":"bh","c":"Kwale"}},{"type":"Feature","geometry":{"type":"Point","coordinates":[39.546901,-4.292425]},"properties":{"id":"52515626","n":"SHAMU KIDZANGONI","t":"bh","c":"Kwale"}},{"type":"Feature","geometry":{"type":"Point","coordinates":[39.544066,-4.330721]},"properties":{"id":"393519714","n":"Kazi Ngumu","t":"bh","c":"Kwale"}},{"type":"Feature","geometry":{"type":"Point","coordinates":[39.55197,-4.335825]},"properties":{"id":"402081506","n":"MCHAKAMCHAKA","t":"bh","c":"Kwale"}},{"type":"Feature","geometry":{"type":"Point","coordinates":[39.560781,-4.299802]},"properties":{"id":"710310066","n":"MAGUTU","t":"bh","c":"Kwale"}},{"type":"Feature","geometry":{"type":"Point","coordinates":[39.542994,-4.30181]},"properties":{"id":"710310035","n":"SHAMU MWAPINDA","t":"bh","c":"Kwale"}},{"type":"Feature","geometry":{"type":"Point","coordinates":[39.550177,-4.299206]},"properties":{"id":"102070224","n":"SHAMU KIDUDUMO","t":"bh","c":"Kwale"}},{"type":"Feature","geometry":{"type":"Point","coordinates":[39.545169,-4.328648]},"properties":{"id":"430267156","n":"ROMIKA","t":"bh","c":"Kwale"}},{"type":"Feature","geometry":{"type":"Point","coordinates":[39.551919,-4.335827]},"properties":{"id":"430266715","n":"Mchaka mchaka","t":"bh","c":"Kwale"}},{"type":"Feature","geometry":{"type":"Point","coordinates":[39.555073,-4.31948]},"properties":{"id":"161520610","n":"UMOJA","t":"bh","c":"Kwale"}},{"type":"Feature","geometry":{"type":"Point","coordinates":[39.549097,-4.297094]},"properties":{"id":"34957901","n":"SHAMU MATOPENI","t":"bh","c":"Kwale"}},{"type":"Feature","geometry":{"type":"Point","coordinates":[39.555214,-4.287363]},"properties":{"id":"710310028","n":"BONGWE IBIZA","t":"bh","c":"Kwale"}},{"type":"Feature","geometry":{"type":"Point","coordinates":[39.559617,-4.306322]},"properties":{"id":"161521264","n":"MAGUTU RATINGA","t":"bh","c":"Kwale"}},{"type":"Feature","geometry":{"type":"Point","coordinates":[39.532381,-4.312358]},"properties":{"id":"52516108","n":"TULIANI","t":"bh","c":"Kwale"}},{"type":"Feature","geometry":{"type":"Point","coordinates":[39.546278,-4.299826]},"properties":{"id":"141178882","n":"SHAMU VIDORINI","t":"bh","c":"Kwale"}},{"type":"Feature","geometry":{"type":"Point","coordinates":[39.547519,-4.315033]},"properties":{"id":"52516005","n":"MVINDENI","t":"bh","c":"Kwale"}},{"type":"Feature","geometry":{"type":"Point","coordinates":[39.569547,-4.29378]},"properties":{"id":"186376322","n":"Mkwakwani","t":"bh","c":"Kwale"}},{"type":"Feature","geometry":{"type":"Point","coordinates":[39.539392,-4.313859]},"properties":{"id":"161520713","n":"AHSANTE SCHEME","t":"bh","c":"Kwale"}},{"type":"Feature","geometry":{"type":"Point","coordinates":[39.55084,-4.292714]},"properties":{"id":"102070190","n":"SHAMU CHETENI","t":"bh","c":"Kwale"}},{"type":"Feature","geometry":{"type":"Point","coordinates":[39.541365,-4.301084]},"properties":{"id":"56281152","n":"SHAMU NYAGU","t":"bh","c":"Kwale"}},{"type":"Feature","geometry":{"type":"Point","coordinates":[39.544871,-4.294675]},"properties":{"id":"52516074","n":"SHAMU JEZA","t":"bh","c":"Kwale"}},{"type":"Feature","geometry":{"type":"Point","coordinates":[39.54484,-4.334917]},"properties":{"id":"466590280","n":"Stahimili","t":"bh","c":"Kwale"}},{"type":"Feature","geometry":{"type":"Point","coordinates":[39.563999,-4.289322]},"properties":{"id":"393519666","n":"Mwabungo","t":"bh","c":"Kwale"}}]}