{"type":"FeatureCollection","features":[{"type":"Feature","geometry":{"type":"Point","coordinates":[37.526286,-2.864069]},"properties":{"id":"339032222","n":"Ndeiya","t":"bh","c":"Kajiado"}},{"type":"Feature","geometry":{"type":"Point","coordinates":[37.460775,-2.92552]},"properties":{"id":"332457116","n":"Rongai tank","t":"us","c":"Kajiado"}},{"type":"Feature","geometry":{"type":"Point","coordinates":[37.482658,-2.927465]},"properties":{"id":"332480794","n":"Sompet","t":"us","c":"Kajiado"}},{"type":"Feature","geometry":{"type":"Point","coordinates":[37.551946,-2.812842]},"properties":{"id":"353780059","n":"Parsanka","t":"bh","c":"Kajiado"}},{"type":"Feature","geometry":{"type":"Point","coordinates":[37.582298,-2.899638]},"properties":{"id":"332466837","n":"Olepplos inkisajani springs","t":"ps","c":"Kajiado"}},{"type":"Feature","geometry":{"type":"Point","coordinates":[37.512828,-2.922556]},"properties":{"id":"342932762","n":"Lower tikondo borehole","t":"bh","c":"Kajiado"}},{"type":"Feature","geometry":{"type":"Point","coordinates":[37.550148,-2.892954]},"properties":{"id":"355062199","n":"Ali borehole","t":"bh","c":"Kajiado"}},{"type":"Feature","geometry":{"type":"Point","coordinates":[37.556453,-2.916208]},"properties":{"id":"343366155","n":"Narumoru shurie spring","t":"us","c":"Kajiado"}},{"type":"Feature","geometry":{"type":"Point","coordinates":[37.547693,-2.896846]},"properties":{"id":"355062285","n":"Didi borehole","t":"bh","c":"Kajiado"}},{"type":"Feature","geometry":{"type":"Point","coordinates":[37.760297,-2.882178]},"properties":{"id":"342134337","n":"Nkaroni borehole","t":"bh","c":"Kajiado"}},{"type":"Feature","geometry":{"type":"Point","coordinates":[37.562611,-2.898453]},"properties":{"id":"355062333","n":"Maanzoni borehole 2","t":"udw","c":"Kajiado"}},{"type":"Feature","geometry":{"type":"Point","coordinates":[37.562963,-2.89775]},"properties":{"id":"355062319","n":"Maanzoni borehole 1","t":"bh","c":"Kajiado"}},{"type":"Feature","geometry":{"type":"Point","coordinates":[37.880924,-2.870653]},"properties":{"id":"349101897","n":"Iltilal borehole 3","t":"bh","c":"Kajiado"}},{"type":"Feature","geometry":{"type":"Point","coordinates":[37.604772,-2.888762]},"properties":{"id":"342134399","n":"Naibor nkajigik red cross borehole","t":"bh","c":"Kajiado"}},{"type":"Feature","geometry":{"type":"Point","coordinates":[37.571538,-2.900857]},"properties":{"id":"355062405","n":"Maanzoni borehole 5","t":"pdw","c":"Kajiado"}},{"type":"Feature","geometry":{"type":"Point","coordinates":[37.887426,-2.867075]},"properties":{"id":"349101842","n":"Iltilal borehole 2","t":"bh","c":"Kajiado"}},{"type":"Feature","geometry":{"type":"Point","coordinates":[37.55905,-2.90508]},"properties":{"id":"355062058","n":"Kilihub borehole 1","t":"pdw","c":"Kajiado"}},{"type":"Feature","geometry":{"type":"Point","coordinates":[37.760325,-2.908617]},"properties":{"id":"332480512","n":"Kuku Belgium bh","t":"bh","c":"Kajiado"}},{"type":"Feature","geometry":{"type":"Point","coordinates":[37.571065,-2.897553]},"properties":{"id":"355062371","n":"Maanzoni borehole 4","t":"bh","c":"Kajiado"}},{"type":"Feature","geometry":{"type":"Point","coordinates":[37.55638,-2.905982]},"properties":{"id":"355062096","n":"Kilihub borehole 2","t":"pdw","c":"Kajiado"}},{"type":"Feature","geometry":{"type":"Point","coordinates":[37.514714,-2.915177]},"properties":{"id":"342139040","n":"Kisajani borehole","t":"bh","c":"Kajiado"}},{"type":"Feature","geometry":{"type":"Point","coordinates":[37.512828,-2.922556]},"properties":{"id":"343342597","n":"Kimana tikondo borehole 2","t":"bh","c":"Kajiado"}},{"type":"Feature","geometry":{"type":"Point","coordinates":[37.57751,-2.908983]},"properties":{"id":"342139088","n":"Merro msikitini springs","t":"us","c":"Kajiado"}},{"type":"Feature","geometry":{"type":"Point","coordinates":[37.521189,-2.891896]},"properties":{"id":"354324586","n":"Olgulului trough","t":"bh","c":"Kajiado"}},{"type":"Feature","geometry":{"type":"Point","coordinates":[37.514308,-2.915365]},"properties":{"id":"355062168","n":"Nyotu borehole","t":"bh","c":"Kajiado"}},{"type":"Feature","geometry":{"type":"Point","coordinates":[37.735493,-2.897378]},"properties":{"id":"349101653","n":"Kitipae borehole","t":"bh","c":"Kajiado"}},{"type":"Feature","geometry":{"type":"Point","coordinates":[37.607088,-2.883877]},"properties":{"id":"342134430","n":"Naibor nkajigik red cross 2 borehole","t":"bh","c":"Kajiado"}},{"type":"Feature","geometry":{"type":"Point","coordinates":[37.583835,-2.901797]},"properties":{"id":"332466112","n":"Kuruta springs","t":"ps","c":"Kajiado"}},{"type":"Feature","geometry":{"type":"Point","coordinates":[37.571547,-2.920653]},"properties":{"id":"342139002","n":"Mama Ali shurie springs","t":"ps","c":"Kajiado"}},{"type":"Feature","geometry":{"type":"Point","coordinates":[37.585722,-2.903757]},"properties":{"id":"332466136","n":"Oleshongo springs","t":"ps","c":"Kajiado"}},{"type":"Feature","geometry":{"type":"Point","coordinates":[37.55139,-2.90012]},"properties":{"id":"355062034","n":"Air strip borehole p 1","t":"bh","c":"Kajiado"}},{"type":"Feature","geometry":{"type":"Point","coordinates":[37.878159,-2.85598]},"properties":{"id":"349101787","n":"Iltilal borehole 1","t":"bh","c":"Kajiado"}},{"type":"Feature","geometry":{"type":"Point","coordinates":[37.534356,-2.87806]},"properties":{"id":"332456957","n":"Mashamba mapya","t":"bh","c":"Kajiado"}},{"type":"Feature","geometry":{"type":"Point","coordinates":[37.514308,-2.915365]},"properties":{"id":"355062120","n":"Gekonge borehole","t":"bh","c":"Kajiado"}},{"type":"Feature","geometry":{"type":"Point","coordinates":[37.602696,-2.894374]},"properties":{"id":"342799215","n":"Warden springs kisajani","t":"us","c":"Kajiado"}},{"type":"Feature","geometry":{"type":"Point","coordinates":[37.569317,-2.98049]},"properties":{"id":"353402922","n":"Kibaoni community borehole","t":"bh","c":"Kajiado"}},{"type":"Feature","geometry":{"type":"Point","coordinates":[37.713855,-3.062878]},"properties":{"id":"352774897","n":"Oltepesi stream","t":"us","c":"Kajiado"}},{"type":"Feature","geometry":{"type":"Point","coordinates":[37.730332,-3.044382]},"properties":{"id":"362039979","n":"Esukuta borehole","t":"bh","c":"Kajiado"}},{"type":"Feature","geometry":{"type":"Point","coordinates":[37.668195,-2.981073]},"properties":{"id":"342138843","n":"Olshonyokie borehole","t":"bh","c":"Kajiado"}},{"type":"Feature","geometry":{"type":"Point","coordinates":[37.705927,-3.106248]},"properties":{"id":"352774598","n":"Lemayian borehole olmapinu","t":"bh","c":"Kajiado"}},{"type":"Feature","geometry":{"type":"Point","coordinates":[37.566702,-2.936487]},"properties":{"id":"332478238","n":"Noolturesh","t":"ps","c":"Kajiado"}},{"type":"Feature","geometry":{"type":"Point","coordinates":[37.70799,-3.022791]},"properties":{"id":"352774309","n":"Lemongo 2 river","t":"us","c":"Kajiado"}},{"type":"Feature","geometry":{"type":"Point","coordinates":[37.750747,-3.088039]},"properties":{"id":"352774835","n":"Mwemwenyi borehole","t":"bh","c":"Kajiado"}},{"type":"Feature","geometry":{"type":"Point","coordinates":[37.701016,-3.076254]},"properties":{"id":"352774488","n":"Olmapinu borehole 1","t":"bh","c":"Kajiado"}},{"type":"Feature","geometry":{"type":"Point","coordinates":[37.612886,-2.92421]},"properties":{"id":"332466260","n":"Nalepo olkaria borehole","t":"bh","c":"Kajiado"}},{"type":"Feature","geometry":{"type":"Point","coordinates":[37.683708,-3.032613]},"properties":{"id":"362039931","n":"Ensda borehole","t":"bh","c":"Kajiado"}},{"type":"Feature","geometry":{"type":"Point","coordinates":[37.569703,-2.973148]},"properties":{"id":"353403174","n":"Selengei shallow well 5","t":"pdw","c":"Kajiado"}},{"type":"Feature","geometry":{"type":"Point","coordinates":[37.715092,-3.018793]},"properties":{"id":"352774323","n":"Lemongo borehole","t":"bh","c":"Kajiado"}},{"type":"Feature","geometry":{"type":"Point","coordinates":[37.570414,-2.971957]},"properties":{"id":"353403136","n":"Selengei shallow well 1","t":"pdw","c":"Kajiado"}},{"type":"Feature","geometry":{"type":"Point","coordinates":[37.570414,-2.971957]},"properties":{"id":"353403143","n":"Selengei shallow well 2","t":"pdw","c":"Kajiado"}},{"type":"Feature","geometry":{"type":"Point","coordinates":[37.576388,-2.959007]},"properties":{"id":"332986850","n":"Illasit","t":"ps","c":"Kajiado"}},{"type":"Feature","geometry":{"type":"Point","coordinates":[37.585929,-2.973482]},"properties":{"id":"342138908","n":"Kibo water point","t":"ps","c":"Kajiado"}},{"type":"Feature","geometry":{"type":"Point","coordinates":[37.554379,-2.943236]},"properties":{"id":"332479394","n":"","t":"bh","c":"Kajiado"}},{"type":"Feature","geometry":{"type":"Point","coordinates":[37.705907,-3.100725]},"properties":{"id":"352774529","n":"Elijah borehole mapinu","t":"bh","c":"Kajiado"}},{"type":"Feature","geometry":{"type":"Point","coordinates":[37.570907,-2.966956]},"properties":{"id":"332466181","n":"Oldoinyo oibor borehole","t":"bh","c":"Kajiado"}},{"type":"Feature","geometry":{"type":"Point","coordinates":[37.557533,-2.965551]},"properties":{"id":"519324747","n":"Ilasit Village","t":"bh","c":"Kajiado"}},{"type":"Feature","geometry":{"type":"Point","coordinates":[37.700108,-3.132853]},"properties":{"id":"352774550","n":"Olmapinu borehole","t":"bh","c":"Kajiado"}},{"type":"Feature","geometry":{"type":"Point","coordinates":[37.569703,-2.973148]},"properties":{"id":"353403150","n":"Selengei shallow well 3","t":"pdw","c":"Kajiado"}},{"type":"Feature","geometry":{"type":"Point","coordinates":[37.567016,-2.937153]},"properties":{"id":"342138953","n":"Nultres river","t":"us","c":"Kajiado"}},{"type":"Feature","geometry":{"type":"Point","coordinates":[37.569703,-2.973148]},"properties":{"id":"353403167","n":"Selengei shallow well 4","t":"pdw","c":"Kajiado"}},{"type":"Feature","geometry":{"type":"Point","coordinates":[37.774888,-3.169382]},"properties":{"id":"362040128","n":"Njukini borehole","t":"bh","c":"Kajiado"}},{"type":"Feature","geometry":{"type":"Point","coordinates":[37.705174,-3.052764]},"properties":{"id":"362085523","n":"Ereteti shallow well","t":"pdw","c":"Kajiado"}},{"type":"Feature","geometry":{"type":"Point","coordinates":[37.724717,-3.01238]},"properties":{"id":"352774361","n":"Belgrove lemongo borehole","t":"bh","c":"Kajiado"}},{"type":"Feature","geometry":{"type":"Point","coordinates":[39.184685,-4.516837]},"properties":{"id":"161520476","n":"MANDA MWENA","t":"bh","c":"Kwale"}},{"type":"Feature","geometry":{"type":"Point","coordinates":[39.373002,-4.63391]},"properties":{"id":"466590400","n":"MABENDANI B","t":"bh","c":"Kwale"}},{"type":"Feature","geometry":{"type":"Point","coordinates":[39.189295,-4.566942]},"properties":{"id":"430267015","n":"MATORONI","t":"bh","c":"Kwale"}},{"type":"Feature","geometry":{"type":"Point","coordinates":[39.171887,-4.580703]},"properties":{"id":"161520421","n":"BONDENI NEEMA","t":"bh","c":"Kwale"}},{"type":"Feature","geometry":{"type":"Point","coordinates":[39.19212,-4.599789]},"properties":{"id":"161520548","n":"MIUNGONI  E.A.P.C","t":"bh","c":"Kwale"}},{"type":"Feature","geometry":{"type":"Point","coordinates":[39.153662,-4.541298]},"properties":{"id":"466590699","n":"MAHURUNI KWA THOMAS","t":"bh","c":"Kwale"}},{"type":"Feature","geometry":{"type":"Point","coordinates":[39.203888,-4.638009]},"properties":{"id":"161520098","n":"KIWEGU B","t":"bh","c":"Kwale"}},{"type":"Feature","geometry":{"type":"Point","coordinates":[39.196293,-4.589335]},"properties":{"id":"161520201","n":"MTUNE","t":"bh","c":"Kwale"}},{"type":"Feature","geometry":{"type":"Point","coordinates":[39.190146,-4.602786]},"properties":{"id":"430267125","n":"MIUNGONI EAPC BONDENI","t":"bh","c":"Kwale"}},{"type":"Feature","geometry":{"type":"Point","coordinates":[39.199919,-4.560836]},"properties":{"id":"469060579","n":"MATORONI B4","t":"bh","c":"Kwale"}},{"type":"Feature","geometry":{"type":"Point","coordinates":[39.21763,-4.577084]},"properties":{"id":"430267022","n":"MWAINI","t":"bh","c":"Kwale"}},{"type":"Feature","geometry":{"type":"Point","coordinates":[39.170427,-4.568028]},"properties":{"id":"466590730","n":"MIKODENI","t":"bh","c":"Kwale"}},{"type":"Feature","geometry":{"type":"Point","coordinates":[39.192107,-4.562483]},"properties":{"id":"469060586","n":"MATORINI B5","t":"bh","c":"Kwale"}},{"type":"Feature","geometry":{"type":"Point","coordinates":[39.200478,-4.589942]},"properties":{"id":"430267008","n":"MTUNE A","t":"bh","c":"Kwale"}},{"type":"Feature","geometry":{"type":"Point","coordinates":[39.167579,-4.540453]},"properties":{"id":"393519855","n":"Mahuruni","t":"bh","c":"Kwale"}},{"type":"Feature","geometry":{"type":"Point","coordinates":[39.19962,-4.551798]},"properties":{"id":"469060603","n":"MATORONI A4","t":"bh","c":"Kwale"}},{"type":"Feature","geometry":{"type":"Point","coordinates":[39.197833,-4.595219]},"properties":{"id":"430266997","n":"MTUNE B","t":"bh","c":"Kwale"}},{"type":"Feature","geometry":{"type":"Point","coordinates":[39.175218,-4.564958]},"properties":{"id":"161520751","n":"KIDOMAYA","t":"bh","c":"Kwale"}},{"type":"Feature","geometry":{"type":"Point","coordinates":[39.183115,-4.580322]},"properties":{"id":"466590527","n":"MIKOMANI","t":"bh","c":"Kwale"}},{"type":"Feature","geometry":{"type":"Point","coordinates":[39.203136,-4.625523]},"properties":{"id":"161520232","n":"KIWEGU C","t":"bh","c":"Kwale"}},{"type":"Feature","geometry":{"type":"Point","coordinates":[39.185086,-4.566575]},"properties":{"id":"430267084","n":"MATORONI B2","t":"bh","c":"Kwale"}},{"type":"Feature","geometry":{"type":"Point","coordinates":[39.185105,-4.595963]},"properties":{"id":"161519863","n":"MIUNGONI","t":"bh","c":"Kwale"}},{"type":"Feature","geometry":{"type":"Point","coordinates":[39.192397,-4.567195]},"properties":{"id":"430267053","n":"MATORONI B","t":"bh","c":"Kwale"}},{"type":"Feature","geometry":{"type":"Point","coordinates":[39.183728,-4.583174]},"properties":{"id":"161520108","n":"KASARANI CHEMICHEMI","t":"bh","c":"Kwale"}},{"type":"Feature","geometry":{"type":"Point","coordinates":[39.183434,-4.59989]},"properties":{"id":"161520359","n":"MIUNGONI B","t":"bh","c":"Kwale"}},{"type":"Feature","geometry":{"type":"Point","coordinates":[39.175783,-4.580353]},"properties":{"id":"161520407","n":"BONDENI MAI","t":"bh","c":"Kwale"}},{"type":"Feature","geometry":{"type":"Point","coordinates":[39.198761,-4.604258]},"properties":{"id":"466590448","n":"MWARONGO B","t":"bh","c":"Kwale"}},{"type":"Feature","geometry":{"type":"Point","coordinates":[39.185107,-4.592413]},"properties":{"id":"430267101","n":"BORABORA","t":"bh","c":"Kwale"}},{"type":"Feature","geometry":{"type":"Point","coordinates":[39.198512,-4.616047]},"properties":{"id":"161520146","n":"KIWEGU MWACHIBWIRI","t":"bh","c":"Kwale"}},{"type":"Feature","geometry":{"type":"Point","coordinates":[39.185495,-4.559739]},"properties":{"id":"617540744","n":"MATORONI A2","t":"bh","c":"Kwale"}},{"type":"Feature","geometry":{"type":"Point","coordinates":[39.200139,-4.625012]},"properties":{"id":"161520311","n":"KIWEGU KASEMENI","t":"bh","c":"Kwale"}},{"type":"Feature","geometry":{"type":"Point","coordinates":[39.183119,-4.580358]},"properties":{"id":"430267077","n":"MIKOMANI","t":"bh","c":"Kwale"}},{"type":"Feature","geometry":{"type":"Point","coordinates":[39.195809,-4.567294]},"properties":{"id":"466590486","n":"MATORONI B 3","t":"bh","c":"Kwale"}},{"type":"Feature","geometry":{"type":"Point","coordinates":[39.183124,-4.585621]},"properties":{"id":"161519887","n":"KASARANI NEEMA","t":"bh","c":"Kwale"}},{"type":"Feature","geometry":{"type":"Point","coordinates":[39.200111,-4.617415]},"properties":{"id":"393519628","n":"Mwachibwiri 2","t":"bh","c":"Kwale"}},{"type":"Feature","geometry":{"type":"Point","coordinates":[39.177097,-4.575982]},"properties":{"id":"161520380","n":"MAI","t":"bh","c":"Kwale"}},{"type":"Feature","geometry":{"type":"Point","coordinates":[39.172466,-4.572712]},"properties":{"id":"710310059","n":"BUMBUNA 1","t":"bh","c":"Kwale"}},{"type":"Feature","geometry":{"type":"Point","coordinates":[39.160941,-4.548311]},"properties":{"id":"466590723","n":"MAHURUNI KWA MUTUA","t":"bh","c":"Kwale"}},{"type":"Feature","geometry":{"type":"Point","coordinates":[39.197096,-4.609712]},"properties":{"id":"161520335","n":"MWARONGO","t":"bh","c":"Kwale"}},{"type":"Feature","geometry":{"type":"Point","coordinates":[39.17288,-4.570045]},"properties":{"id":"466590637","n":"BUMBUNA 2","t":"bh","c":"Kwale"}},{"type":"Feature","geometry":{"type":"Point","coordinates":[39.167033,-4.58124]},"properties":{"id":"161521075","n":"BONDENI UMBA","t":"bh","c":"Kwale"}},{"type":"Feature","geometry":{"type":"Point","coordinates":[39.204362,-4.614196]},"properties":{"id":"181852575","n":"Kiwegu redemers","t":"bh","c":"Kwale"}},{"type":"Feature","geometry":{"type":"Point","coordinates":[38.308489,-3.449208]},"properties":{"id":"612611034","n":"Mbagha Springs","t":"ps","c":"Taita Taveta"}},{"type":"Feature","geometry":{"type":"Point","coordinates":[38.281378,-3.425195]},"properties":{"id":"612610837","n":"Shokonyi Stream","t":"us","c":"Taita Taveta"}},{"type":"Feature","geometry":{"type":"Point","coordinates":[38.316757,-3.469497]},"properties":{"id":"612610710","n":"Mwangea borehole","t":"pdw","c":"Taita Taveta"}},{"type":"Feature","geometry":{"type":"Point","coordinates":[38.290038,-3.426594]},"properties":{"id":"612610758","n":"Ndiwa Mwarimbo Stream","t":"us","c":"Taita Taveta"}},{"type":"Feature","geometry":{"type":"Point","coordinates":[38.331677,-3.419345]},"properties":{"id":"612677173","n":"St Mary's boys","t":"bh","c":"Taita Taveta"}},{"type":"Feature","geometry":{"type":"Point","coordinates":[38.291356,-3.433155]},"properties":{"id":"612610741","n":"Mwarekeronyi stream","t":"us","c":"Taita Taveta"}},{"type":"Feature","geometry":{"type":"Point","coordinates":[38.33349,-3.440937]},"properties":{"id":"612594195","n":"Mwatogha water project","t":"ps","c":"Taita Taveta"}},{"type":"Feature","geometry":{"type":"Point","coordinates":[38.178351,-3.433989]},"properties":{"id":"615226460","n":"Izerenyi Borehole","t":"bh","c":"Taita Taveta"}},{"type":"Feature","geometry":{"type":"Point","coordinates":[38.317848,-3.517516]},"properties":{"id":"287042188","n":"Iriwenyi water kiosk","t":"bh","c":"Taita Taveta"}},{"type":"Feature","geometry":{"type":"Point","coordinates":[38.297627,-3.418707]},"properties":{"id":"612675157","n":"Lusharunyi steam","t":"us","c":"Taita Taveta"}},{"type":"Feature","geometry":{"type":"Point","coordinates":[38.31607,-3.507779]},"properties":{"id":"612610679","n":"Godoma borehole","t":"bh","c":"Taita Taveta"}},{"type":"Feature","geometry":{"type":"Point","coordinates":[38.293435,-3.424967]},"properties":{"id":"612610806","n":"Bolobolo stream","t":"us","c":"Taita Taveta"}},{"type":"Feature","geometry":{"type":"Point","coordinates":[38.280658,-3.427232]},"properties":{"id":"612610923","n":"Mghambonyi Springs","t":"ps","c":"Taita Taveta"}},{"type":"Feature","geometry":{"type":"Point","coordinates":[38.293119,-3.422527]},"properties":{"id":"612610772","n":"Mnyerinyi community water stream","t":"us","c":"Taita Taveta"}},{"type":"Feature","geometry":{"type":"Point","coordinates":[38.292879,-3.421652]},"properties":{"id":"612610796","n":"Mwasoko water project intake 2","t":"us","c":"Taita Taveta"}},{"type":"Feature","geometry":{"type":"Point","coordinates":[38.319912,-3.459384]},"properties":{"id":"612610734","n":"Bura water project-stream","t":"ps","c":"Taita Taveta"}},{"type":"Feature","geometry":{"type":"Point","coordinates":[38.31788,-3.517533]},"properties":{"id":"246922876","n":"Iriwenyi water kiosk","t":"bh","c":"Taita Taveta"}},{"type":"Feature","geometry":{"type":"Point","coordinates":[38.296499,-3.420161]},"properties":{"id":"612589052","n":"Baramghodi 2","t":"us","c":"Taita Taveta"}},{"type":"Feature","geometry":{"type":"Point","coordinates":[38.309997,-3.453648]},"properties":{"id":"615226666","n":"Kwa Celeste Water Spring","t":"ps","c":"Taita Taveta"}},{"type":"Feature","geometry":{"type":"Point","coordinates":[38.34731,-3.539142]},"properties":{"id":"287042243","n":"Maribongonyi Kanisani Water kiosk","t":"bh","c":"Taita Taveta"}},{"type":"Feature","geometry":{"type":"Point","coordinates":[38.3253,-3.501594]},"properties":{"id":"246922838","n":"Mwakimori water kiosk no.7","t":"bh","c":"Taita Taveta"}},{"type":"Feature","geometry":{"type":"Point","coordinates":[38.34832,-3.474866]},"properties":{"id":"612739558","n":"Kirughurunyi/MKolonge Spring","t":"us","c":"Taita Taveta"}},{"type":"Feature","geometry":{"type":"Point","coordinates":[38.338095,-3.459569]},"properties":{"id":"612594140","n":"Wusila/mlambenyi water project","t":"us","c":"Taita Taveta"}},{"type":"Feature","geometry":{"type":"Point","coordinates":[38.310187,-3.616364]},"properties":{"id":"287042236","n":"Chungaunga Water Kiosk","t":"bh","c":"Taita Taveta"}},{"type":"Feature","geometry":{"type":"Point","coordinates":[38.365981,-3.496263]},"properties":{"id":"612739510","n":"Majegho Borehole","t":"bh","c":"Taita Taveta"}},{"type":"Feature","geometry":{"type":"Point","coordinates":[38.327777,-3.543901]},"properties":{"id":"287042195","n":"Mwazoka water kiosk","t":"bh","c":"Taita Taveta"}},{"type":"Feature","geometry":{"type":"Point","coordinates":[38.309241,-3.590661]},"properties":{"id":"287042229","n":"Kwa Kele water kiosk","t":"bh","c":"Taita Taveta"}},{"type":"Feature","geometry":{"type":"Point","coordinates":[38.319186,-3.56347]},"properties":{"id":"287042205","n":"Mgama Water kiosk","t":"bh","c":"Taita Taveta"}},{"type":"Feature","geometry":{"type":"Point","coordinates":[38.336733,-3.458836]},"properties":{"id":"612594274","n":"Kengwa intake","t":"us","c":"Taita Taveta"}},{"type":"Feature","geometry":{"type":"Point","coordinates":[38.348111,-3.474649]},"properties":{"id":"612629132","n":"Kirughurunyi/mkolonge spring","t":"ps","c":"Taita Taveta"}},{"type":"Feature","geometry":{"type":"Point","coordinates":[38.329916,-3.519973]},"properties":{"id":"287042164","n":"Mdeminyi Tapstands","t":"bh","c":"Taita Taveta"}},{"type":"Feature","geometry":{"type":"Point","coordinates":[38.331305,-3.511422]},"properties":{"id":"287042171","n":"Mwarangenyi water kiosk","t":"bh","c":"Taita Taveta"}},{"type":"Feature","geometry":{"type":"Point","coordinates":[38.313961,-3.573793]},"properties":{"id":"287042212","n":"Manyanga water kiosk","t":"bh","c":"Taita Taveta"}},{"type":"Feature","geometry":{"type":"Point","coordinates":[38.378239,-3.495022]},"properties":{"id":"612589753","n":"Kenyatta High school 1","t":"bh","c":"Taita Taveta"}},{"type":"Feature","geometry":{"type":"Point","coordinates":[38.412035,-3.494017]},"properties":{"id":"246923592","n":"Merryland water kiosk","t":"bh","c":"Taita Taveta"}},{"type":"Feature","geometry":{"type":"Point","coordinates":[38.382653,-3.505658]},"properties":{"id":"612632967","n":"Singila water project","t":"bh","c":"Taita Taveta"}},{"type":"Feature","geometry":{"type":"Point","coordinates":[38.417425,-3.487441]},"properties":{"id":"612589818","n":"Modambogho health center 3","t":"bh","c":"Taita Taveta"}},{"type":"Feature","geometry":{"type":"Point","coordinates":[38.383884,-3.481179]},"properties":{"id":"612629390","n":"Mwasinenyi 1","t":"bh","c":"Taita Taveta"}},{"type":"Feature","geometry":{"type":"Point","coordinates":[38.376042,-3.496245]},"properties":{"id":"612589887","n":"Sino Girls Secondary School 1","t":"pdw","c":"Taita Taveta"}},{"type":"Feature","geometry":{"type":"Point","coordinates":[38.383893,-3.481065]},"properties":{"id":"612629400","n":"Mwasinenyi 2","t":"bh","c":"Taita Taveta"}},{"type":"Feature","geometry":{"type":"Point","coordinates":[38.462882,-3.44225]},"properties":{"id":"612591666","n":"Mengo Shallow Well","t":"udw","c":"Taita Taveta"}},{"type":"Feature","geometry":{"type":"Point","coordinates":[38.473977,-3.442744]},"properties":{"id":"612591965","n":"Mengo Borehole","t":"bh","c":"Taita Taveta"}},{"type":"Feature","geometry":{"type":"Point","coordinates":[38.50286,-3.4206]},"properties":{"id":"612648630","n":"Yyy567","t":"us","c":"Taita Taveta"}},{"type":"Feature","geometry":{"type":"Point","coordinates":[38.416238,-3.360375]},"properties":{"id":"612591408","n":"Kipang'a Spring","t":"us","c":"Taita Taveta"}},{"type":"Feature","geometry":{"type":"Point","coordinates":[38.43268,-3.352876]},"properties":{"id":"612591271","n":"Mwambirwa Intake","t":"us","c":"Taita Taveta"}},{"type":"Feature","geometry":{"type":"Point","coordinates":[38.430961,-3.351076]},"properties":{"id":"612591233","n":"Mwambirwa Stream","t":"us","c":"Taita Taveta"}},{"type":"Feature","geometry":{"type":"Point","coordinates":[38.413204,-3.348965]},"properties":{"id":"612591336","n":"Kwa Sally Water intake","t":"us","c":"Taita Taveta"}},{"type":"Feature","geometry":{"type":"Point","coordinates":[38.502849,-3.420574]},"properties":{"id":"612623040","n":"Mkuyuni","t":"pdw","c":"Taita Taveta"}},{"type":"Feature","geometry":{"type":"Point","coordinates":[38.444382,-3.434213]},"properties":{"id":"612591738","n":"Mengo Dispensary Shallow Well","t":"udw","c":"Taita Taveta"}},{"type":"Feature","geometry":{"type":"Point","coordinates":[38.416515,-3.432072]},"properties":{"id":"612591848","n":"Mambura Well","t":"udw","c":"Taita Taveta"}},{"type":"Feature","geometry":{"type":"Point","coordinates":[38.425966,-3.356016]},"properties":{"id":"612591288","n":"Mariwe Water Intake","t":"us","c":"Taita Taveta"}},{"type":"Feature","geometry":{"type":"Point","coordinates":[38.410823,-3.365862]},"properties":{"id":"612591398","n":"Kungi Stream","t":"us","c":"Taita Taveta"}},{"type":"Feature","geometry":{"type":"Point","coordinates":[38.339562,-3.458409]},"properties":{"id":"612594157","n":"Kengwa water project","t":"us","c":"Taita Taveta"}},{"type":"Feature","geometry":{"type":"Point","coordinates":[38.343311,-3.456683]},"properties":{"id":"612594298","n":"Wamwawaza spring","t":"ps","c":"Taita Taveta"}},{"type":"Feature","geometry":{"type":"Point","coordinates":[38.360788,-3.425318]},"properties":{"id":"612666058","n":"Josa spring","t":"ps","c":"Taita Taveta"}},{"type":"Feature","geometry":{"type":"Point","coordinates":[38.373475,-3.416799]},"properties":{"id":"612645709","n":"Kwa Bigvai Waterpoint","t":"us","c":"Taita Taveta"}},{"type":"Feature","geometry":{"type":"Point","coordinates":[38.373543,-3.416727]},"properties":{"id":"612665954","n":"Kwa bigvai waterpoint","t":"us","c":"Taita Taveta"}},{"type":"Feature","geometry":{"type":"Point","coordinates":[38.340481,-3.429878]},"properties":{"id":"612594188","n":"Mwanginyi water project","t":"ps","c":"Taita Taveta"}},{"type":"Feature","geometry":{"type":"Point","coordinates":[38.33525,-3.45333]},"properties":{"id":"612632455","n":"Mwakushola water project","t":"ps","c":"Taita Taveta"}},{"type":"Feature","geometry":{"type":"Point","coordinates":[38.360953,-3.425471]},"properties":{"id":"612632376","n":"CHONGONYI /JOSA SPRING","t":"ps","c":"Taita Taveta"}},{"type":"Feature","geometry":{"type":"Point","coordinates":[38.337481,-3.446268]},"properties":{"id":"612594171","n":"Ikungunyi-lagho buro water project","t":"ps","c":"Taita Taveta"}},{"type":"Feature","geometry":{"type":"Point","coordinates":[38.372242,-3.417862]},"properties":{"id":"612665947","n":"Chome water project","t":"ps","c":"Taita Taveta"}},{"type":"Feature","geometry":{"type":"Point","coordinates":[38.377222,-3.415902]},"properties":{"id":"615961536","n":"Mjajenyi Main Water Point","t":"ps","c":"Taita Taveta"}},{"type":"Feature","geometry":{"type":"Point","coordinates":[38.336221,-3.427731]},"properties":{"id":"612632503","n":"NGERENYI -NAIROBI AREA WATER PROJECT","t":"ps","c":"Taita Taveta"}},{"type":"Feature","geometry":{"type":"Point","coordinates":[38.372329,-3.418096]},"properties":{"id":"612645699","n":"Chome Water Project","t":"ps","c":"Taita Taveta"}},{"type":"Feature","geometry":{"type":"Point","coordinates":[38.385725,-3.469979]},"properties":{"id":"612629424","n":"Modambogho shallow well","t":"pdw","c":"Taita Taveta"}},{"type":"Feature","geometry":{"type":"Point","coordinates":[38.354386,-3.431213]},"properties":{"id":"612632383","n":"Dembwa Wusi Water Project","t":"us","c":"Taita Taveta"}},{"type":"Feature","geometry":{"type":"Point","coordinates":[38.339216,-3.456558]},"properties":{"id":"612594267","n":"Kengwa intake","t":"ps","c":"Taita Taveta"}},{"type":"Feature","geometry":{"type":"Point","coordinates":[38.360968,-3.42626]},"properties":{"id":"612666065","n":"Kwa mwagodi water point","t":"us","c":"Taita Taveta"}},{"type":"Feature","geometry":{"type":"Point","coordinates":[37.676106,-3.390356]},"properties":{"id":"619904342","n":"SDA TAVETA CENTRAL WATERPOINT","t":"bh","c":"Taita Taveta"}},{"type":"Feature","geometry":{"type":"Point","coordinates":[37.676803,-3.393559]},"properties":{"id":"612812907","n":"Taveta hospital borehole","t":"bh","c":"Taita Taveta"}},{"type":"Feature","geometry":{"type":"Point","coordinates":[37.674793,-3.391626]},"properties":{"id":"619904438","n":"AL-FATAH PRIMARY WATERPOINT","t":"bh","c":"Taita Taveta"}},{"type":"Feature","geometry":{"type":"Point","coordinates":[37.693328,-3.38998]},"properties":{"id":"612702543","n":"Miembeni SDA water project","t":"bh","c":"Taita Taveta"}},{"type":"Feature","geometry":{"type":"Point","coordinates":[37.734027,-3.294793]},"properties":{"id":"612604638","n":"Challa Borehole","t":"bh","c":"Taita Taveta"}},{"type":"Feature","geometry":{"type":"Point","coordinates":[37.7381,-3.25576]},"properties":{"id":"612598577","n":"Tuhire irrigation scheme 2","t":"bh","c":"Taita Taveta"}},{"type":"Feature","geometry":{"type":"Point","coordinates":[37.708838,-3.242604]},"properties":{"id":"612604597","n":"Wololo Borehole","t":"bh","c":"Taita Taveta"}},{"type":"Feature","geometry":{"type":"Point","coordinates":[37.744033,-3.288096]},"properties":{"id":"612598591","n":"Chala secondary borehole","t":"bh","c":"Taita Taveta"}},{"type":"Feature","geometry":{"type":"Point","coordinates":[37.71293,-3.196579]},"properties":{"id":"612723782","n":"Chumvini water springs","t":"ps","c":"Taita Taveta"}},{"type":"Feature","geometry":{"type":"Point","coordinates":[37.712328,-3.196431]},"properties":{"id":"612723816","n":"Challa water project","t":"ps","c":"Taita Taveta"}},{"type":"Feature","geometry":{"type":"Point","coordinates":[37.714683,-3.208498]},"properties":{"id":"612604487","n":"Bishop John Njenga Borehole","t":"bh","c":"Taita Taveta"}},{"type":"Feature","geometry":{"type":"Point","coordinates":[37.726631,-3.185538]},"properties":{"id":"612723706","n":"Njukini mixed secondary school borehole","t":"bh","c":"Taita Taveta"}},{"type":"Feature","geometry":{"type":"Point","coordinates":[37.715273,-3.20664]},"properties":{"id":"612723854","n":"Bishop Njenga secondary school water borehole","t":"bh","c":"Taita Taveta"}},{"type":"Feature","geometry":{"type":"Point","coordinates":[37.726536,-3.186984]},"properties":{"id":"612723744","n":"Njukini primary school borehole","t":"bh","c":"Taita Taveta"}},{"type":"Feature","geometry":{"type":"Point","coordinates":[37.726383,-3.18712]},"properties":{"id":"612723751","n":"Njukini primary school tubewell","t":"bh","c":"Taita Taveta"}},{"type":"Feature","geometry":{"type":"Point","coordinates":[37.725657,-3.188275]},"properties":{"id":"612598364","n":"Njukini salvation army borehole","t":"bh","c":"Taita Taveta"}},{"type":"Feature","geometry":{"type":"Point","coordinates":[37.724662,-3.190283]},"properties":{"id":"612604418","n":"Njukini dispensary Shallow well","t":"udw","c":"Taita Taveta"}},{"type":"Feature","geometry":{"type":"Point","coordinates":[37.710345,-3.235237]},"properties":{"id":"612604607","n":"Mahandakini SDA Church Borehole","t":"bh","c":"Taita Taveta"}},{"type":"Feature","geometry":{"type":"Point","coordinates":[37.724267,-3.19398]},"properties":{"id":"612604401","n":"Sandy River 2 Springs","t":"us","c":"Taita Taveta"}},{"type":"Feature","geometry":{"type":"Point","coordinates":[37.735402,-3.205735]},"properties":{"id":"612598340","n":"Sir ramson primary borehole","t":"bh","c":"Taita Taveta"}},{"type":"Feature","geometry":{"type":"Point","coordinates":[37.72277,-3.196406]},"properties":{"id":"612604384","n":"Sir Ramson C1 Spring 2","t":"us","c":"Taita Taveta"}},{"type":"Feature","geometry":{"type":"Point","coordinates":[37.710759,-3.176172]},"properties":{"id":"612604432","n":"SDAKijiji C water point","t":"bh","c":"Taita Taveta"}},{"type":"Feature","geometry":{"type":"Point","coordinates":[37.722826,-3.192468]},"properties":{"id":"612609475","n":"SDA Njukini Church borehole","t":"bh","c":"Taita Taveta"}},{"type":"Feature","geometry":{"type":"Point","coordinates":[37.708273,-3.267391]},"properties":{"id":"612724006","n":"SDA church majengo borehole","t":"bh","c":"Taita Taveta"}},{"type":"Feature","geometry":{"type":"Point","coordinates":[37.719108,-3.198039]},"properties":{"id":"612604377","n":"Sir Ramson Spring 1","t":"us","c":"Taita Taveta"}},{"type":"Feature","geometry":{"type":"Point","coordinates":[37.717705,-3.32172]},"properties":{"id":"612609231","n":"Madulu Spring","t":"us","c":"Taita Taveta"}},{"type":"Feature","geometry":{"type":"Point","coordinates":[37.752163,-3.213357]},"properties":{"id":"612604353","n":"Irrigation ECD Boreholr","t":"bh","c":"Taita Taveta"}},{"type":"Feature","geometry":{"type":"Point","coordinates":[37.719782,-3.380044]},"properties":{"id":"612604267","n":"Kipesha Well","t":"bh","c":"Taita Taveta"}},{"type":"Feature","geometry":{"type":"Point","coordinates":[37.720168,-3.381328]},"properties":{"id":"612723627","n":"Mbele Ashikiri well","t":"bh","c":"Taita Taveta"}},{"type":"Feature","geometry":{"type":"Point","coordinates":[37.694408,-3.363199]},"properties":{"id":"612702622","n":"Malkloriti SDA  church","t":"bh","c":"Taita Taveta"}},{"type":"Feature","geometry":{"type":"Point","coordinates":[37.694429,-3.363196]},"properties":{"id":"612812550","n":"Malkiloriti SDA Church","t":"bh","c":"Taita Taveta"}},{"type":"Feature","geometry":{"type":"Point","coordinates":[37.733823,-3.419425]},"properties":{"id":"612723555","n":"Rekeke pre school water tank","t":"us","c":"Taita Taveta"}},{"type":"Feature","geometry":{"type":"Point","coordinates":[37.773867,-3.447637]},"properties":{"id":"612723438","n":"Njoro Masaini 1","t":"us","c":"Taita Taveta"}},{"type":"Feature","geometry":{"type":"Point","coordinates":[37.754558,-3.394891]},"properties":{"id":"612723421","n":"AIC Makutano -Mtakuja village Mata","t":"pdw","c":"Taita Taveta"}},{"type":"Feature","geometry":{"type":"Point","coordinates":[37.75206,-3.392337]},"properties":{"id":"612723414","n":"Peter Mulei Msyoka bore hole","t":"bh","c":"Taita Taveta"}},{"type":"Feature","geometry":{"type":"Point","coordinates":[37.754309,-3.394702]},"properties":{"id":"612603998","n":"A.I.C Makutano Church","t":"bh","c":"Taita Taveta"}},{"type":"Feature","geometry":{"type":"Point","coordinates":[37.758375,-3.471114]},"properties":{"id":"612723517","n":"ACK church Mata Borehole","t":"bh","c":"Taita Taveta"}},{"type":"Feature","geometry":{"type":"Point","coordinates":[37.783763,-3.390096]},"properties":{"id":"612598058","n":"Ngusero","t":"bh","c":"Taita Taveta"}},{"type":"Feature","geometry":{"type":"Point","coordinates":[37.780806,-3.393315]},"properties":{"id":"612598261","n":"Salaita juu","t":"bh","c":"Taita Taveta"}},{"type":"Feature","geometry":{"type":"Point","coordinates":[37.773355,-3.447266]},"properties":{"id":"612604023","n":"Njoro Masaini 2 Spring","t":"us","c":"Taita Taveta"}},{"type":"Feature","geometry":{"type":"Point","coordinates":[37.719722,-3.396728]},"properties":{"id":"612723603","n":"Borehole Davis farm next to former governor mruttus homestead","t":"bh","c":"Taita Taveta"}},{"type":"Feature","geometry":{"type":"Point","coordinates":[37.759554,-3.432451]},"properties":{"id":"612604030","n":"Tangini Seventh-day Adventist Church","t":"bh","c":"Taita Taveta"}},{"type":"Feature","geometry":{"type":"Point","coordinates":[37.771189,-3.570704]},"properties":{"id":"612598072","n":"Kachero","t":"bh","c":"Taita Taveta"}},{"type":"Feature","geometry":{"type":"Point","coordinates":[37.717878,-3.390848]},"properties":{"id":"612604243","n":"Timbila High School Farm Borehole","t":"bh","c":"Taita Taveta"}},{"type":"Feature","geometry":{"type":"Point","coordinates":[37.588236,-3.449549]},"properties":{"id":"615226714","n":"Kwa Doto Water Point","t":"bh","c":"Taita Taveta"}},{"type":"Feature","geometry":{"type":"Point","coordinates":[37.590637,-3.450488]},"properties":{"id":"615226745","n":"Kwa Halima Water Pump","t":"bh","c":"Taita Taveta"}},{"type":"Feature","geometry":{"type":"Point","coordinates":[37.588147,-3.450113]},"properties":{"id":"612666247","n":"Hamadia mosque water point","t":"bh","c":"Taita Taveta"}},{"type":"Feature","geometry":{"type":"Point","coordinates":[37.616858,-3.436485]},"properties":{"id":"612666900","n":"Kitobo Catholic church water point","t":"pdw","c":"Taita Taveta"}},{"type":"Feature","geometry":{"type":"Point","coordinates":[37.6801,-3.400219]},"properties":{"id":"612812859","n":"Bustani pre.school borehole","t":"bh","c":"Taita Taveta"}},{"type":"Feature","geometry":{"type":"Point","coordinates":[37.676034,-3.404351]},"properties":{"id":"612702842","n":"ST.PAUL CATHOLIC BOREHOLE","t":"bh","c":"Taita Taveta"}},{"type":"Feature","geometry":{"type":"Point","coordinates":[37.629132,-3.434643]},"properties":{"id":"615226927","n":"Kwa Ismail Kirigha Water Point","t":"bh","c":"Taita Taveta"}},{"type":"Feature","geometry":{"type":"Point","coordinates":[37.615876,-3.43869]},"properties":{"id":"615226862","n":"Kwa Solomon Water Point","t":"pdw","c":"Taita Taveta"}},{"type":"Feature","geometry":{"type":"Point","coordinates":[37.631552,-3.434238]},"properties":{"id":"615226941","n":"Kwa Fadhil Water Point","t":"pdw","c":"Taita Taveta"}},{"type":"Feature","geometry":{"type":"Point","coordinates":[37.592758,-3.444843]},"properties":{"id":"612666285","n":"Kwa doto","t":"bh","c":"Taita Taveta"}},{"type":"Feature","geometry":{"type":"Point","coordinates":[37.590719,-3.447303]},"properties":{"id":"615226800","n":"Bomba La Juu Water Kiosk","t":"bh","c":"Taita Taveta"}},{"type":"Feature","geometry":{"type":"Point","coordinates":[37.611574,-3.441169]},"properties":{"id":"615226824","n":"Njoro Kitobo Water Springs","t":"us","c":"Taita Taveta"}},{"type":"Feature","geometry":{"type":"Point","coordinates":[37.619352,-3.436137]},"properties":{"id":"612666917","n":"Kwa Mercy","t":"pdw","c":"Taita Taveta"}},{"type":"Feature","geometry":{"type":"Point","coordinates":[37.623425,-3.433463]},"properties":{"id":"615226893","n":"Kwa Sila Water Point","t":"pdw","c":"Taita Taveta"}},{"type":"Feature","geometry":{"type":"Point","coordinates":[37.587532,-3.451096]},"properties":{"id":"615226721","n":"Kwa Makacheche Water Point","t":"bh","c":"Taita Taveta"}},{"type":"Feature","geometry":{"type":"Point","coordinates":[37.591474,-3.451653]},"properties":{"id":"615226738","n":"Madarasani Primary Water Point","t":"bh","c":"Taita Taveta"}},{"type":"Feature","geometry":{"type":"Point","coordinates":[37.678325,-3.406982]},"properties":{"id":"612812945","n":"Corona shallow well","t":"udw","c":"Taita Taveta"}},{"type":"Feature","geometry":{"type":"Point","coordinates":[37.621697,-3.430437]},"properties":{"id":"612666924","n":"Kwa sila","t":"pdw","c":"Taita Taveta"}},{"type":"Feature","geometry":{"type":"Point","coordinates":[37.715728,-3.391182]},"properties":{"id":"612598209","n":"Timbila 1","t":"bh","c":"Taita Taveta"}},{"type":"Feature","geometry":{"type":"Point","coordinates":[37.611638,-3.438525]},"properties":{"id":"612666821","n":"Njoro springs","t":"us","c":"Taita Taveta"}},{"type":"Feature","geometry":{"type":"Point","coordinates":[37.60968,-3.440558]},"properties":{"id":"612666838","n":"Kwa mrinji water point","t":"bh","c":"Taita Taveta"}},{"type":"Feature","geometry":{"type":"Point","coordinates":[37.695834,-3.410388]},"properties":{"id":"612702921","n":"NJORO KUBWA SPRING","t":"us","c":"Taita Taveta"}},{"type":"Feature","geometry":{"type":"Point","coordinates":[37.59057,-3.4498]},"properties":{"id":"612666261","n":"Kwa udhaifa","t":"udw","c":"Taita Taveta"}},{"type":"Feature","geometry":{"type":"Point","coordinates":[37.611212,-3.44181]},"properties":{"id":"612666814","n":"Majengo irrigation scheme","t":"us","c":"Taita Taveta"}},{"type":"Feature","geometry":{"type":"Point","coordinates":[37.588288,-3.448035]},"properties":{"id":"612666216","n":"Kwa kimwaga","t":"bh","c":"Taita Taveta"}},{"type":"Feature","geometry":{"type":"Point","coordinates":[37.593858,-3.445689]},"properties":{"id":"615226776","n":"Kalukarange Water Point","t":"bh","c":"Taita Taveta"}},{"type":"Feature","geometry":{"type":"Point","coordinates":[37.682865,-3.395942]},"properties":{"id":"619904249","n":"MADRASSA SWAFAA AL-ISLAMIYYA WATERPOINT","t":"bh","c":"Taita Taveta"}},{"type":"Feature","geometry":{"type":"Point","coordinates":[37.695369,-3.408825]},"properties":{"id":"612812811","n":"Njoro ndogo","t":"us","c":"Taita Taveta"}},{"type":"Feature","geometry":{"type":"Point","coordinates":[37.687847,-3.395188]},"properties":{"id":"612812543","n":"Umojawetu kisimani CBO","t":"bh","c":"Taita Taveta"}},{"type":"Feature","geometry":{"type":"Point","coordinates":[37.600503,-3.44463]},"properties":{"id":"615226752","n":"Kwa Ngom Water Point","t":"bh","c":"Taita Taveta"}},{"type":"Feature","geometry":{"type":"Point","coordinates":[37.673039,-3.393534]},"properties":{"id":"612702787","n":"Lessesia borehole-tavevo offices Taveta","t":"bh","c":"Taita Taveta"}},{"type":"Feature","geometry":{"type":"Point","coordinates":[37.593225,-3.44046]},"properties":{"id":"612666302","n":"Kwa Ochieng","t":"bh","c":"Taita Taveta"}},{"type":"Feature","geometry":{"type":"Point","coordinates":[37.598072,-3.441962]},"properties":{"id":"615226769","n":"Rehoboth Winners School Water Point","t":"bh","c":"Taita Taveta"}},{"type":"Feature","geometry":{"type":"Point","coordinates":[37.679309,-3.395339]},"properties":{"id":"612812770","n":"SDA borehole","t":"bh","c":"Taita Taveta"}},{"type":"Feature","geometry":{"type":"Point","coordinates":[37.614873,-3.442123]},"properties":{"id":"612666876","n":"Kitobo primary school","t":"bh","c":"Taita Taveta"}},{"type":"Feature","geometry":{"type":"Point","coordinates":[37.67289,-3.393087]},"properties":{"id":"612812701","n":"Lutheran borehole-tavevo offices Taveta","t":"bh","c":"Taita Taveta"}},{"type":"Feature","geometry":{"type":"Point","coordinates":[37.619627,-3.432878]},"properties":{"id":"615226886","n":"Kwa Moses Makau Water Point","t":"pdw","c":"Taita Taveta"}},{"type":"Feature","geometry":{"type":"Point","coordinates":[37.589008,-3.448252]},"properties":{"id":"615226673","n":"Kwa chief water point","t":"bh","c":"Taita Taveta"}},{"type":"Feature","geometry":{"type":"Point","coordinates":[37.611099,-3.441696]},"properties":{"id":"615226817","n":"Kitobo Pump","t":"ps","c":"Taita Taveta"}},{"type":"Feature","geometry":{"type":"Point","coordinates":[37.613746,-3.4397]},"properties":{"id":"615226831","n":"Kitobo Dispensary","t":"bh","c":"Taita Taveta"}},{"type":"Feature","geometry":{"type":"Point","coordinates":[37.709019,-3.395323]},"properties":{"id":"612702615","n":"Kwa mbaso waterpoint","t":"pdw","c":"Taita Taveta"}},{"type":"Feature","geometry":{"type":"Point","coordinates":[37.618326,-3.436717]},"properties":{"id":"615226879","n":"Kwa Rachel Water Point","t":"pdw","c":"Taita Taveta"}},{"type":"Feature","geometry":{"type":"Point","coordinates":[37.591133,-3.455142]},"properties":{"id":"612666254","n":"Kwa kimwaga water point","t":"bh","c":"Taita Taveta"}},{"type":"Feature","geometry":{"type":"Point","coordinates":[37.591872,-3.44437]},"properties":{"id":"612666292","n":"Kwa Kighono","t":"bh","c":"Taita Taveta"}},{"type":"Feature","geometry":{"type":"Point","coordinates":[38.578684,-3.384078]},"properties":{"id":"612618976","n":"CIT WATER TANK","t":"pdw","c":"Taita Taveta"}},{"type":"Feature","geometry":{"type":"Point","coordinates":[38.57872,-3.383992]},"properties":{"id":"612619025","n":"Mess Water Tank","t":"pdw","c":"Taita Taveta"}},{"type":"Feature","geometry":{"type":"Point","coordinates":[38.538266,-3.446324]},"properties":{"id":"612603314","n":"Gimka borehole project","t":"bh","c":"Taita Taveta"}},{"type":"Feature","geometry":{"type":"Point","coordinates":[38.538119,-3.446477]},"properties":{"id":"612603338","n":"Gimka shallow well","t":"udw","c":"Taita Taveta"}},{"type":"Feature","geometry":{"type":"Point","coordinates":[38.672059,-3.829332]},"properties":{"id":"612606575","n":"Kirongwe spring","t":"us","c":"Taita Taveta"}},{"type":"Feature","geometry":{"type":"Point","coordinates":[38.721675,-3.597352]},"properties":{"id":"612605677","n":"Chamani borehole","t":"bh","c":"Taita Taveta"}},{"type":"Feature","geometry":{"type":"Point","coordinates":[38.522424,-3.371294]},"properties":{"id":"614844036","n":"Ikanga Borehole","t":"bh","c":"Taita Taveta"}},{"type":"Feature","geometry":{"type":"Point","coordinates":[38.566193,-3.384498]},"properties":{"id":"614844139","n":"Voi Vocational Training Center - Girls Hostel","t":"bh","c":"Taita Taveta"}},{"type":"Feature","geometry":{"type":"Point","coordinates":[38.459188,-3.362473]},"properties":{"id":"612602629","n":"Mrema springs","t":"us","c":"Taita Taveta"}},{"type":"Feature","geometry":{"type":"Point","coordinates":[38.450116,-3.32942]},"properties":{"id":"614845020","n":"Mbololo Forest Spring ( Ya Davis)","t":"us","c":"Taita Taveta"}},{"type":"Feature","geometry":{"type":"Point","coordinates":[38.473034,-3.302065]},"properties":{"id":"612632682","n":"NDOME Water project","t":"us","c":"Taita Taveta"}},{"type":"Feature","geometry":{"type":"Point","coordinates":[38.475501,-3.302311]},"properties":{"id":"612632761","n":"MTOTI water project","t":"us","c":"Taita Taveta"}},{"type":"Feature","geometry":{"type":"Point","coordinates":[38.484133,-3.301792]},"properties":{"id":"612632778","n":"Ndomi bore hole project","t":"bh","c":"Taita Taveta"}},{"type":"Feature","geometry":{"type":"Point","coordinates":[38.446934,-3.326058]},"properties":{"id":"645098617","n":"Malwa B water Intake","t":"us","c":"Taita Taveta"}},{"type":"Feature","geometry":{"type":"Point","coordinates":[38.584443,-3.475862]},"properties":{"id":"612588051","n":"Kwa mwadima","t":"us","c":"Taita Taveta"}},{"type":"Feature","geometry":{"type":"Point","coordinates":[38.620698,-3.468875]},"properties":{"id":"612611292","n":"Kwa Mwashighadi borehole","t":"bh","c":"Taita Taveta"}},{"type":"Feature","geometry":{"type":"Point","coordinates":[38.586434,-3.476811]},"properties":{"id":"612588109","n":"Mangrito springs","t":"us","c":"Taita Taveta"}},{"type":"Feature","geometry":{"type":"Point","coordinates":[38.582029,-3.523264]},"properties":{"id":"612587861","n":"Mwambela springs","t":"us","c":"Taita Taveta"}},{"type":"Feature","geometry":{"type":"Point","coordinates":[38.57697,-3.506031]},"properties":{"id":"612588240","n":"Mbaloni","t":"udw","c":"Taita Taveta"}},{"type":"Feature","geometry":{"type":"Point","coordinates":[38.583833,-3.481017]},"properties":{"id":"612588044","n":"Kwa baki 2","t":"us","c":"Taita Taveta"}},{"type":"Feature","geometry":{"type":"Point","coordinates":[38.575916,-3.514967]},"properties":{"id":"612587847","n":"Kisimeni Semi Arid Lands Project","t":"us","c":"Taita Taveta"}},{"type":"Feature","geometry":{"type":"Point","coordinates":[38.59744,-3.505999]},"properties":{"id":"612587971","n":"Mashighati Water project","t":"ps","c":"Taita Taveta"}},{"type":"Feature","geometry":{"type":"Point","coordinates":[38.584542,-3.480762]},"properties":{"id":"612588037","n":"Kwa Baki","t":"udw","c":"Taita Taveta"}},{"type":"Feature","geometry":{"type":"Point","coordinates":[38.577634,-3.514079]},"properties":{"id":"612587830","n":"Atize spring","t":"us","c":"Taita Taveta"}},{"type":"Feature","geometry":{"type":"Point","coordinates":[38.589941,-3.478369]},"properties":{"id":"612588082","n":"Sengeri Springs","t":"us","c":"Taita Taveta"}},{"type":"Feature","geometry":{"type":"Point","coordinates":[38.57797,-3.494961]},"properties":{"id":"612587823","n":"Pcea Kweni siro Borehole","t":"bh","c":"Taita Taveta"}},{"type":"Feature","geometry":{"type":"Point","coordinates":[38.582894,-3.474474]},"properties":{"id":"612588130","n":"Mwamshamba springs","t":"us","c":"Taita Taveta"}},{"type":"Feature","geometry":{"type":"Point","coordinates":[38.590038,-3.478615]},"properties":{"id":"612588075","n":"Sengeri Water Project","t":"us","c":"Taita Taveta"}},{"type":"Feature","geometry":{"type":"Point","coordinates":[38.554812,-3.507785]},"properties":{"id":"612611120","n":"Kwa Kilemba water point","t":"udw","c":"Taita Taveta"}},{"type":"Feature","geometry":{"type":"Point","coordinates":[38.588713,-3.477328]},"properties":{"id":"612588068","n":"Kwa wajara springs","t":"us","c":"Taita Taveta"}},{"type":"Feature","geometry":{"type":"Point","coordinates":[38.587128,-3.578157]},"properties":{"id":"701055394","n":"Talio water point 1 chrispus","t":"bh","c":"Taita Taveta"}},{"type":"Feature","geometry":{"type":"Point","coordinates":[38.587166,-3.504675]},"properties":{"id":"612587809","n":"","t":"us","c":"Taita Taveta"}},{"type":"Feature","geometry":{"type":"Point","coordinates":[38.581584,-3.507016]},"properties":{"id":"612587782","n":"Kinyoli spring","t":"us","c":"Taita Taveta"}},{"type":"Feature","geometry":{"type":"Point","coordinates":[38.45006,-3.478519]},"properties":{"id":"612587665","n":"Hellen","t":"udw","c":"Taita Taveta"}},{"type":"Feature","geometry":{"type":"Point","coordinates":[38.58062,-3.503364]},"properties":{"id":"612587902","n":"Kizembe springs","t":"us","c":"Taita Taveta"}},{"type":"Feature","geometry":{"type":"Point","coordinates":[38.593853,-3.500184]},"properties":{"id":"612587995","n":"Wachai shallow well","t":"pdw","c":"Taita Taveta"}},{"type":"Feature","geometry":{"type":"Point","coordinates":[38.591615,-3.59128]},"properties":{"id":"701055404","n":"Mwachanza site","t":"bh","c":"Taita Taveta"}},{"type":"Feature","geometry":{"type":"Point","coordinates":[38.583052,-3.508104]},"properties":{"id":"612587799","n":"Kweni tole spring","t":"us","c":"Taita Taveta"}},{"type":"Feature","geometry":{"type":"Point","coordinates":[38.576858,-3.508986]},"properties":{"id":"612588226","n":"Ack st mark dug well","t":"pdw","c":"Taita Taveta"}},{"type":"Feature","geometry":{"type":"Point","coordinates":[38.561555,-3.511943]},"properties":{"id":"612611096","n":"Chola Farm Borehole","t":"bh","c":"Taita Taveta"}},{"type":"Feature","geometry":{"type":"Point","coordinates":[38.586641,-3.49587]},"properties":{"id":"612587919","n":"Mwarovo water project","t":"us","c":"Taita Taveta"}},{"type":"Feature","geometry":{"type":"Point","coordinates":[38.584452,-3.524404]},"properties":{"id":"612587885","n":"Mwachafu springs","t":"ps","c":"Taita Taveta"}},{"type":"Feature","geometry":{"type":"Point","coordinates":[38.590431,-3.519536]},"properties":{"id":"612588020","n":"Mwakibora water project","t":"us","c":"Taita Taveta"}},{"type":"Feature","geometry":{"type":"Point","coordinates":[38.576939,-3.506535]},"properties":{"id":"612587768","n":"Sda church Water Borehole","t":"bh","c":"Taita Taveta"}},{"type":"Feature","geometry":{"type":"Point","coordinates":[38.589797,-3.48924]},"properties":{"id":"612587926","n":"Loghola Water catchment","t":"us","c":"Taita Taveta"}},{"type":"Feature","geometry":{"type":"Point","coordinates":[38.589229,-3.515978]},"properties":{"id":"612588013","n":"Kwenijalo springs","t":"us","c":"Taita Taveta"}},{"type":"Feature","geometry":{"type":"Point","coordinates":[38.320594,-3.403798]},"properties":{"id":"612589430","n":"Kiloghwa Kisengenyi water project 2","t":"ps","c":"Taita Taveta"}},{"type":"Feature","geometry":{"type":"Point","coordinates":[38.33111,-3.407636]},"properties":{"id":"612649301","n":"Choke A springs intake","t":"ps","c":"Taita Taveta"}},{"type":"Feature","geometry":{"type":"Point","coordinates":[38.30726,-3.407543]},"properties":{"id":"612648829","n":"Mwarekeronyi catchment","t":"ps","c":"Taita Taveta"}},{"type":"Feature","geometry":{"type":"Point","coordinates":[38.310178,-3.395005]},"properties":{"id":"612589265","n":"Mwalimu river kwa jibran","t":"us","c":"Taita Taveta"}},{"type":"Feature","geometry":{"type":"Point","coordinates":[38.315611,-3.375294]},"properties":{"id":"612649246","n":"Funju spring","t":"ps","c":"Taita Taveta"}},{"type":"Feature","geometry":{"type":"Point","coordinates":[38.332758,-3.417707]},"properties":{"id":"612649356","n":"St marys high school","t":"bh","c":"Taita Taveta"}},{"type":"Feature","geometry":{"type":"Point","coordinates":[38.30195,-3.414924]},"properties":{"id":"612589076","n":"Mwatulu 2","t":"us","c":"Taita Taveta"}},{"type":"Feature","geometry":{"type":"Point","coordinates":[38.318074,-3.355256]},"properties":{"id":"612677458","n":"Mwakishimba secondary school","t":"pdw","c":"Taita Taveta"}},{"type":"Feature","geometry":{"type":"Point","coordinates":[38.307474,-3.408618]},"properties":{"id":"612675126","n":"Langadenyi","t":"ps","c":"Taita Taveta"}},{"type":"Feature","geometry":{"type":"Point","coordinates":[38.287589,-3.410699]},"properties":{"id":"612589234","n":"Mashughu water catchment point","t":"us","c":"Taita Taveta"}},{"type":"Feature","geometry":{"type":"Point","coordinates":[38.259914,-3.396764]},"properties":{"id":"612649026","n":"Kawi water intake marungu","t":"us","c":"Taita Taveta"}},{"type":"Feature","geometry":{"type":"Point","coordinates":[38.298346,-3.415389]},"properties":{"id":"612648939","n":"Mwatulu project catchment","t":"ps","c":"Taita Taveta"}},{"type":"Feature","geometry":{"type":"Point","coordinates":[38.309823,-3.393382]},"properties":{"id":"612589289","n":"Mbangamboi  water point","t":"us","c":"Taita Taveta"}},{"type":"Feature","geometry":{"type":"Point","coordinates":[38.308083,-3.407725]},"properties":{"id":"612589021","n":"Ibebe catchment","t":"ps","c":"Taita Taveta"}},{"type":"Feature","geometry":{"type":"Point","coordinates":[38.302215,-3.415306]},"properties":{"id":"612589069","n":"Mwatulu","t":"us","c":"Taita Taveta"}},{"type":"Feature","geometry":{"type":"Point","coordinates":[38.286963,-3.407699]},"properties":{"id":"612676907","n":"Riziki water  point","t":"us","c":"Taita Taveta"}},{"type":"Feature","geometry":{"type":"Point","coordinates":[38.312789,-3.394258]},"properties":{"id":"612677018","n":"Kwalugo water point","t":"ps","c":"Taita Taveta"}},{"type":"Feature","geometry":{"type":"Point","coordinates":[38.315648,-3.374223]},"properties":{"id":"612649239","n":"Mkongongoyi spring funju","t":"us","c":"Taita Taveta"}},{"type":"Feature","geometry":{"type":"Point","coordinates":[38.303232,-3.408123]},"properties":{"id":"612648867","n":"Kiundu mata intake","t":"ps","c":"Taita Taveta"}},{"type":"Feature","geometry":{"type":"Point","coordinates":[38.308686,-3.403608]},"properties":{"id":"612648960","n":"Ndolwa catchment","t":"ps","c":"Taita Taveta"}},{"type":"Feature","geometry":{"type":"Point","coordinates":[38.31138,-3.395721]},"properties":{"id":"612677070","n":"Mwakera intake","t":"ps","c":"Taita Taveta"}},{"type":"Feature","geometry":{"type":"Point","coordinates":[38.289065,-3.398826]},"properties":{"id":"612677207","n":"Mbangangwale water point","t":"ps","c":"Taita Taveta"}},{"type":"Feature","geometry":{"type":"Point","coordinates":[38.301852,-3.415002]},"properties":{"id":"612675212","n":"Mwatulu3","t":"us","c":"Taita Taveta"}},{"type":"Feature","geometry":{"type":"Point","coordinates":[38.292503,-3.401564]},"properties":{"id":"612677238","n":"Mkuunyi spring","t":"ps","c":"Taita Taveta"}},{"type":"Feature","geometry":{"type":"Point","coordinates":[38.329457,-3.413475]},"properties":{"id":"612677166","n":"Mwakreti  water point","t":"us","c":"Taita Taveta"}},{"type":"Feature","geometry":{"type":"Point","coordinates":[38.320539,-3.401566]},"properties":{"id":"612649284","n":"Solome springs water project","t":"ps","c":"Taita Taveta"}},{"type":"Feature","geometry":{"type":"Point","coordinates":[38.293471,-3.404682]},"properties":{"id":"612676938","n":"Mount vuria","t":"us","c":"Taita Taveta"}},{"type":"Feature","geometry":{"type":"Point","coordinates":[38.301106,-3.409929]},"properties":{"id":"612648881","n":"Kiundu kwa samson spring","t":"us","c":"Taita Taveta"}},{"type":"Feature","geometry":{"type":"Point","coordinates":[38.303367,-3.411113]},"properties":{"id":"612675133","n":"Loki water point","t":"us","c":"Taita Taveta"}},{"type":"Feature","geometry":{"type":"Point","coordinates":[38.299339,-3.412223]},"properties":{"id":"612648908","n":"Kilemba cha kiwo water intake","t":"us","c":"Taita Taveta"}},{"type":"Feature","geometry":{"type":"Point","coordinates":[38.306265,-3.408734]},"properties":{"id":"612648953","n":"Kwa  kilatu","t":"us","c":"Taita Taveta"}},{"type":"Feature","geometry":{"type":"Point","coordinates":[38.247658,-3.38561]},"properties":{"id":"612649019","n":"Marungu pri  borehole","t":"bh","c":"Taita Taveta"}},{"type":"Feature","geometry":{"type":"Point","coordinates":[38.306165,-3.410503]},"properties":{"id":"612589007","n":"Tela","t":"us","c":"Taita Taveta"}},{"type":"Feature","geometry":{"type":"Point","coordinates":[38.320062,-3.403674]},"properties":{"id":"612589447","n":"Kwa Mwadime tank","t":"udw","c":"Taita Taveta"}},{"type":"Feature","geometry":{"type":"Point","coordinates":[38.307102,-3.408083]},"properties":{"id":"612648843","n":"Mwarekeronyi surface water","t":"us","c":"Taita Taveta"}},{"type":"Feature","geometry":{"type":"Point","coordinates":[38.295849,-3.40692]},"properties":{"id":"617716178","n":"Ndiwenyi water pointa","t":"us","c":"Taita Taveta"}},{"type":"Feature","geometry":{"type":"Point","coordinates":[38.345354,-3.378027]},"properties":{"id":"612677599","n":"Mwabili borehole","t":"udw","c":"Taita Taveta"}},{"type":"Feature","geometry":{"type":"Point","coordinates":[38.321577,-3.398363]},"properties":{"id":"612649208","n":"Gayo intake","t":"ps","c":"Taita Taveta"}},{"type":"Feature","geometry":{"type":"Point","coordinates":[38.321125,-3.395735]},"properties":{"id":"615961718","n":"Mazizi B","t":"us","c":"Taita Taveta"}},{"type":"Feature","geometry":{"type":"Point","coordinates":[38.321097,-3.39578]},"properties":{"id":"612645864","n":"Mazizi A water project","t":"us","c":"Taita Taveta"}},{"type":"Feature","geometry":{"type":"Point","coordinates":[38.340809,-3.393429]},"properties":{"id":"612645929","n":"Moda Ghwa Mburi Water Point","t":"us","c":"Taita Taveta"}},{"type":"Feature","geometry":{"type":"Point","coordinates":[38.339297,-3.382609]},"properties":{"id":"615961859","n":"Moda ghwa teka","t":"ps","c":"Taita Taveta"}},{"type":"Feature","geometry":{"type":"Point","coordinates":[38.334193,-3.373623]},"properties":{"id":"612677355","n":"Marumange water point","t":"ps","c":"Taita Taveta"}},{"type":"Feature","geometry":{"type":"Point","coordinates":[38.321447,-3.398418]},"properties":{"id":"615961701","n":"Mazizi water project","t":"ps","c":"Taita Taveta"}},{"type":"Feature","geometry":{"type":"Point","coordinates":[38.337803,-3.36736]},"properties":{"id":"615961756","n":"Matasenyi water point","t":"us","c":"Taita Taveta"}},{"type":"Feature","geometry":{"type":"Point","coordinates":[38.321805,-3.395587]},"properties":{"id":"612645871","n":"Kwa Weni Mazizi Water point","t":"us","c":"Taita Taveta"}},{"type":"Feature","geometry":{"type":"Point","coordinates":[38.336612,-3.381833]},"properties":{"id":"615961842","n":"Mwanjile","t":"us","c":"Taita Taveta"}},{"type":"Feature","geometry":{"type":"Point","coordinates":[38.343724,-3.392532]},"properties":{"id":"612677740","n":"Ndiwenyi water point","t":"us","c":"Taita Taveta"}},{"type":"Feature","geometry":{"type":"Point","coordinates":[38.323609,-3.395177]},"properties":{"id":"612677685","n":"Msidunyi water point","t":"us","c":"Taita Taveta"}},{"type":"Feature","geometry":{"type":"Point","coordinates":[38.322125,-3.395941]},"properties":{"id":"612677678","n":"Mazizi B water project","t":"us","c":"Taita Taveta"}},{"type":"Feature","geometry":{"type":"Point","coordinates":[38.335348,-3.39434]},"properties":{"id":"612645857","n":"Iyale Water Project","t":"ps","c":"Taita Taveta"}},{"type":"Feature","geometry":{"type":"Point","coordinates":[38.333943,-3.392566]},"properties":{"id":"612677719","n":"Kigala water point","t":"us","c":"Taita Taveta"}},{"type":"Feature","geometry":{"type":"Point","coordinates":[38.331497,-3.395049]},"properties":{"id":"615961725","n":"Ngololenyi water point","t":"ps","c":"Taita Taveta"}},{"type":"Feature","geometry":{"type":"Point","coordinates":[38.344854,-3.378813]},"properties":{"id":"612677582","n":"Kiriwa Cha mgosi spring","t":"us","c":"Taita Taveta"}},{"type":"Feature","geometry":{"type":"Point","coordinates":[38.328515,-3.324037]},"properties":{"id":"612650691","n":"Kwamaza mwanyota kalamu stream","t":"us","c":"Taita Taveta"}},{"type":"Feature","geometry":{"type":"Point","coordinates":[38.340725,-3.393369]},"properties":{"id":"615961787","n":"Moda ghwa mburi","t":"us","c":"Taita Taveta"}},{"type":"Feature","geometry":{"type":"Point","coordinates":[38.326224,-3.363403]},"properties":{"id":"612677568","n":"Ginile  water point","t":"udw","c":"Taita Taveta"}},{"type":"Feature","geometry":{"type":"Point","coordinates":[38.35588,-3.356502]},"properties":{"id":"612649583","n":"Mkuonyi  springs","t":"us","c":"Taita Taveta"}},{"type":"Feature","geometry":{"type":"Point","coordinates":[38.356605,-3.351056]},"properties":{"id":"612594494","n":"Ngandenyi 3 water springs","t":"us","c":"Taita Taveta"}},{"type":"Feature","geometry":{"type":"Point","coordinates":[38.338255,-3.34926]},"properties":{"id":"612649480","n":"Mwakojo water project","t":"us","c":"Taita Taveta"}},{"type":"Feature","geometry":{"type":"Point","coordinates":[38.325924,-3.330229]},"properties":{"id":"612650677","n":"Kwa kiwaza water project","t":"us","c":"Taita Taveta"}},{"type":"Feature","geometry":{"type":"Point","coordinates":[38.34383,-3.348994]},"properties":{"id":"612649459","n":"Kwa  fanuel farm","t":"udw","c":"Taita Taveta"}},{"type":"Feature","geometry":{"type":"Point","coordinates":[38.34369,-3.348848]},"properties":{"id":"612649442","n":"Mwajile springs","t":"us","c":"Taita Taveta"}},{"type":"Feature","geometry":{"type":"Point","coordinates":[38.354975,-3.352477]},"properties":{"id":"620345114","n":"Ngadenyi 1 Spring","t":"us","c":"Taita Taveta"}},{"type":"Feature","geometry":{"type":"Point","coordinates":[38.356336,-3.350361]},"properties":{"id":"620345145","n":"Mwasenzi Spring","t":"us","c":"Taita Taveta"}},{"type":"Feature","geometry":{"type":"Point","coordinates":[38.342445,-3.353831]},"properties":{"id":"612649497","n":"Kitumbi  high-school catchment","t":"ps","c":"Taita Taveta"}},{"type":"Feature","geometry":{"type":"Point","coordinates":[38.33866,-3.347012]},"properties":{"id":"612649473","n":"Mkulumbenyi intake","t":"us","c":"Taita Taveta"}},{"type":"Feature","geometry":{"type":"Point","coordinates":[38.331672,-3.327727]},"properties":{"id":"612594597","n":"Maghale water project","t":"us","c":"Taita Taveta"}},{"type":"Feature","geometry":{"type":"Point","coordinates":[38.382752,-3.347029]},"properties":{"id":"612650622","n":"Sasenyi mwanasi water intake","t":"us","c":"Taita Taveta"}},{"type":"Feature","geometry":{"type":"Point","coordinates":[38.354716,-3.349354]},"properties":{"id":"620345138","n":"Ngadenyi 2 Spring","t":"us","c":"Taita Taveta"}},{"type":"Feature","geometry":{"type":"Point","coordinates":[38.355915,-3.356611]},"properties":{"id":"612594470","n":"Mkuonyi water point","t":"us","c":"Taita Taveta"}},{"type":"Feature","geometry":{"type":"Point","coordinates":[38.338136,-3.367411]},"properties":{"id":"612645905","n":"Matasenyi Water Point","t":"ps","c":"Taita Taveta"}},{"type":"Feature","geometry":{"type":"Point","coordinates":[38.342984,-3.347135]},"properties":{"id":"612649466","n":"Mwajile intake","t":"us","c":"Taita Taveta"}},{"type":"Feature","geometry":{"type":"Point","coordinates":[38.356687,-3.34977]},"properties":{"id":"612594487","n":"Moses water springs","t":"us","c":"Taita Taveta"}},{"type":"Feature","geometry":{"type":"Point","coordinates":[38.357614,-3.356587]},"properties":{"id":"612649569","n":"Shushu mghambonyi  water project intake","t":"ps","c":"Taita Taveta"}},{"type":"Feature","geometry":{"type":"Point","coordinates":[38.336634,-3.363436]},"properties":{"id":"615961749","n":"Kiwani water point","t":"ps","c":"Taita Taveta"}},{"type":"Feature","geometry":{"type":"Point","coordinates":[38.346113,-3.349265]},"properties":{"id":"612649435","n":"Kisanga  farm ponds","t":"us","c":"Taita Taveta"}},{"type":"Feature","geometry":{"type":"Point","coordinates":[38.381798,-3.229545]},"properties":{"id":"620345286","n":"Muliro Borehole","t":"bh","c":"Taita Taveta"}},{"type":"Feature","geometry":{"type":"Point","coordinates":[38.346317,-3.349812]},"properties":{"id":"612649428","n":"Kwa samboja spring","t":"us","c":"Taita Taveta"}},{"type":"Feature","geometry":{"type":"Point","coordinates":[38.380173,-3.337325]},"properties":{"id":"612594528","n":"Dundughu stream","t":"us","c":"Taita Taveta"}},{"type":"Feature","geometry":{"type":"Point","coordinates":[38.382226,-3.226589]},"properties":{"id":"645098514","n":"Mlilo Community Borehole","t":"bh","c":"Taita Taveta"}},{"type":"Feature","geometry":{"type":"Point","coordinates":[38.373526,-3.349611]},"properties":{"id":"620345169","n":"Kwa Nyika Stream","t":"us","c":"Taita Taveta"}},{"type":"Feature","geometry":{"type":"Point","coordinates":[38.364509,-3.391892]},"properties":{"id":"612645792","n":"Makongoro Water Point","t":"us","c":"Taita Taveta"}},{"type":"Feature","geometry":{"type":"Point","coordinates":[38.344991,-3.408958]},"properties":{"id":"615961653","n":"Toro water project","t":"ps","c":"Taita Taveta"}},{"type":"Feature","geometry":{"type":"Point","coordinates":[38.334377,-3.395472]},"properties":{"id":"612677661","n":"Ndiwenyi water point","t":"us","c":"Taita Taveta"}},{"type":"Feature","geometry":{"type":"Point","coordinates":[38.359006,-3.386122]},"properties":{"id":"615961464","n":"Mghomgholinyi","t":"us","c":"Taita Taveta"}},{"type":"Feature","geometry":{"type":"Point","coordinates":[38.362678,-3.399159]},"properties":{"id":"615961275","n":"Kidakiwi 1","t":"ps","c":"Taita Taveta"}},{"type":"Feature","geometry":{"type":"Point","coordinates":[38.347129,-3.394487]},"properties":{"id":"612645912","n":"Shagha Community Water Project","t":"ps","c":"Taita Taveta"}},{"type":"Feature","geometry":{"type":"Point","coordinates":[38.362605,-3.411212]},"properties":{"id":"612665992","n":"Kwa stance","t":"us","c":"Taita Taveta"}},{"type":"Feature","geometry":{"type":"Point","coordinates":[38.355563,-3.414505]},"properties":{"id":"612666027","n":"Vuwari water point","t":"us","c":"Taita Taveta"}},{"type":"Feature","geometry":{"type":"Point","coordinates":[38.360197,-3.390752]},"properties":{"id":"615961433","n":"Tinde juu","t":"ps","c":"Taita Taveta"}},{"type":"Feature","geometry":{"type":"Point","coordinates":[38.334009,-3.406168]},"properties":{"id":"612677094","n":"Kwa jasper intake","t":"us","c":"Taita Taveta"}},{"type":"Feature","geometry":{"type":"Point","coordinates":[38.343341,-3.396871]},"properties":{"id":"615961804","n":"Shanga water point","t":"ps","c":"Taita Taveta"}},{"type":"Feature","geometry":{"type":"Point","coordinates":[38.337108,-3.403154]},"properties":{"id":"615961691","n":"Wesu water catchment","t":"ps","c":"Taita Taveta"}},{"type":"Feature","geometry":{"type":"Point","coordinates":[38.37424,-3.409463]},"properties":{"id":"612645716","n":"Mwangoyayo Water point","t":"us","c":"Taita Taveta"}},{"type":"Feature","geometry":{"type":"Point","coordinates":[38.362598,-3.399108]},"properties":{"id":"615961268","n":"Kidakiwi 1","t":"ps","c":"Taita Taveta"}},{"type":"Feature","geometry":{"type":"Point","coordinates":[38.361185,-3.411932]},"properties":{"id":"612666003","n":"Oreh water point","t":"us","c":"Taita Taveta"}},{"type":"Feature","geometry":{"type":"Point","coordinates":[38.357112,-3.410968]},"properties":{"id":"612666010","n":"Wasinyi","t":"us","c":"Taita Taveta"}},{"type":"Feature","geometry":{"type":"Point","coordinates":[38.364407,-3.39517]},"properties":{"id":"612645761","n":"Moda Ghwa James Waterpoint","t":"us","c":"Taita Taveta"}},{"type":"Feature","geometry":{"type":"Point","coordinates":[38.335039,-3.406818]},"properties":{"id":"612649318","n":"Choke A springs intake","t":"us","c":"Taita Taveta"}},{"type":"Feature","geometry":{"type":"Point","coordinates":[38.367607,-3.403035]},"properties":{"id":"612645785","n":"Masumbesunyi water point","t":"us","c":"Taita Taveta"}},{"type":"Feature","geometry":{"type":"Point","coordinates":[38.362183,-3.407788]},"properties":{"id":"612666034","n":"Kwa Mwalimu water point","t":"us","c":"Taita Taveta"}}]}