{"type":"FeatureCollection","features":[{"type":"Feature","geometry":{"type":"Point","coordinates":[35.399947,1.821753]},"properties":{"id":"193375033","n":"Nasolot Dispensary","t":"pdw","c":"West Pokot"}},{"type":"Feature","geometry":{"type":"Point","coordinates":[35.461808,1.585013]},"properties":{"id":"505424316","n":"Poghoi water point","t":"bh","c":"West Pokot","d":58.0}},{"type":"Feature","geometry":{"type":"Point","coordinates":[35.467032,1.555481]},"properties":{"id":"505424309","n":"RCEA Marich Secondary Water Point","t":"bh","c":"West Pokot","d":58.0}},{"type":"Feature","geometry":{"type":"Point","coordinates":[35.561604,1.531068]},"properties":{"id":"193374977","n":"Simbol/Samakituk","t":"bh","c":"West Pokot"}},{"type":"Feature","geometry":{"type":"Point","coordinates":[35.450968,1.531895]},"properties":{"id":"196188872","n":"Marich health centre","t":"bh","c":"West Pokot"}},{"type":"Feature","geometry":{"type":"Point","coordinates":[35.561627,1.531042]},"properties":{"id":"193374960","n":"SimBol Dispensary","t":"bh","c":"West Pokot"}},{"type":"Feature","geometry":{"type":"Point","coordinates":[35.45447,1.532013]},"properties":{"id":"196188865","n":"Marich forest","t":"bh","c":"West Pokot"}},{"type":"Feature","geometry":{"type":"Point","coordinates":[35.513886,1.445611]},"properties":{"id":"196223823","n":"Moino","t":"bh","c":"West Pokot"}},{"type":"Feature","geometry":{"type":"Point","coordinates":[35.450983,1.531966]},"properties":{"id":"196188896","n":"Marich health centre","t":"bh","c":"West Pokot"}},{"type":"Feature","geometry":{"type":"Point","coordinates":[35.506839,1.461949]},"properties":{"id":"196188841","n":"Runo primary school","t":"bh","c":"West Pokot"}},{"type":"Feature","geometry":{"type":"Point","coordinates":[35.524734,1.558565]},"properties":{"id":"196223847","n":"Dungdung","t":"bh","c":"West Pokot"}},{"type":"Feature","geometry":{"type":"Point","coordinates":[35.522271,1.473434]},"properties":{"id":"196223830","n":"Tiriokwo","t":"bh","c":"West Pokot"}}]}