{"type":"FeatureCollection","features":[{"type":"Feature","geometry":{"type":"Point","coordinates":[36.827445,3.068548]},"properties":{"id":"706683736","n":"Sharamo Bora well","t":"bh","c":"Marsabit"}},{"type":"Feature","geometry":{"type":"Point","coordinates":[36.828255,3.066113]},"properties":{"id":"706683798","n":"Galas waterpoint","t":"bh","c":"Marsabit"}},{"type":"Feature","geometry":{"type":"Point","coordinates":[36.827727,3.063097]},"properties":{"id":"706683774","n":"Galas waterpoint 3","t":"bh","c":"Marsabit"}},{"type":"Feature","geometry":{"type":"Point","coordinates":[38.91845,3.462027]},"properties":{"id":"708055494","n":"Butye","t":"ps","c":"Marsabit"}},{"type":"Feature","geometry":{"type":"Point","coordinates":[38.918465,3.46211]},"properties":{"id":"708055535","n":"","t":"bh","c":"Marsabit"}},{"type":"Feature","geometry":{"type":"Point","coordinates":[38.965882,3.443029]},"properties":{"id":"708055731","n":"Kate borehole","t":"bh","c":"Marsabit"}},{"type":"Feature","geometry":{"type":"Point","coordinates":[38.966,3.442979]},"properties":{"id":"708055762","n":"Kate borehole","t":"bh","c":"Marsabit"}},{"type":"Feature","geometry":{"type":"Point","coordinates":[38.918442,3.462075]},"properties":{"id":"708055566","n":"Bori","t":"bh","c":"Marsabit"}},{"type":"Feature","geometry":{"type":"Point","coordinates":[38.980867,3.517493]},"properties":{"id":"708055573","n":"Bori borehole","t":"bh","c":"Marsabit"}},{"type":"Feature","geometry":{"type":"Point","coordinates":[39.025085,3.495029]},"properties":{"id":"708091230","n":"Somare protected dug well","t":"pdw","c":"Marsabit"}},{"type":"Feature","geometry":{"type":"Point","coordinates":[38.91849,3.462072]},"properties":{"id":"708055504","n":"Butiye borehole","t":"bh","c":"Marsabit"}},{"type":"Feature","geometry":{"type":"Point","coordinates":[38.918442,3.462068]},"properties":{"id":"708055542","n":"Bori","t":"bh","c":"Marsabit"}},{"type":"Feature","geometry":{"type":"Point","coordinates":[38.975866,3.51744]},"properties":{"id":"708055597","n":"Bori borehole","t":"bh","c":"Marsabit"}},{"type":"Feature","geometry":{"type":"Point","coordinates":[38.965373,3.438882]},"properties":{"id":"708055779","n":"Kate borehole","t":"bh","c":"Marsabit"}},{"type":"Feature","geometry":{"type":"Point","coordinates":[39.241338,3.465554]},"properties":{"id":"706697335","n":"Nana 2","t":"udw","c":"Marsabit"}},{"type":"Feature","geometry":{"type":"Point","coordinates":[39.064309,3.51724]},"properties":{"id":"706674132","n":"Gurumesa protected water springs","t":"ps","c":"Marsabit"}},{"type":"Feature","geometry":{"type":"Point","coordinates":[39.064513,3.516776]},"properties":{"id":"706726754","n":"El-Mohamed Maalim","t":"pdw","c":"Marsabit"}},{"type":"Feature","geometry":{"type":"Point","coordinates":[39.069476,3.529766]},"properties":{"id":"706758850","n":"Lami well","t":"pdw","c":"Marsabit"}},{"type":"Feature","geometry":{"type":"Point","coordinates":[39.064254,3.517469]},"properties":{"id":"706726761","n":"El-Awadi","t":"pdw","c":"Marsabit"}},{"type":"Feature","geometry":{"type":"Point","coordinates":[39.122227,3.479499]},"properties":{"id":"706697270","n":"Arbaa gasaa water kiosk","t":"bh","c":"Marsabit"}},{"type":"Feature","geometry":{"type":"Point","coordinates":[39.064355,3.517202]},"properties":{"id":"706674149","n":"Gurumesa protected water springs","t":"ps","c":"Marsabit"}},{"type":"Feature","geometry":{"type":"Point","coordinates":[39.063655,3.481984]},"properties":{"id":"706726747","n":"El-Abagudo","t":"pdw","c":"Marsabit"}},{"type":"Feature","geometry":{"type":"Point","coordinates":[39.062524,3.518305]},"properties":{"id":"706674084","n":"Gurumesa well","t":"pdw","c":"Marsabit"}},{"type":"Feature","geometry":{"type":"Point","coordinates":[39.061957,3.483033]},"properties":{"id":"706758843","n":"Holale  well","t":"pdw","c":"Marsabit"}},{"type":"Feature","geometry":{"type":"Point","coordinates":[39.061938,3.483195]},"properties":{"id":"708091216","n":"Holale water point","t":"pdw","c":"Marsabit"}},{"type":"Feature","geometry":{"type":"Point","coordinates":[39.053277,3.512977]},"properties":{"id":"488852052","n":"Gudas","t":"bh","c":"Marsabit"}},{"type":"Feature","geometry":{"type":"Point","coordinates":[38.643576,3.562769]},"properties":{"id":"707340067","n":"Qarsa water point","t":"us","c":"Marsabit"}},{"type":"Feature","geometry":{"type":"Point","coordinates":[38.643602,3.56281]},"properties":{"id":"706878022","n":"Sololo primary school  borehole","t":"bh","c":"Marsabit"}},{"type":"Feature","geometry":{"type":"Point","coordinates":[38.737965,3.505668]},"properties":{"id":"706888627","n":"Dambala Fachana borehole","t":"bh","c":"Marsabit"}},{"type":"Feature","geometry":{"type":"Point","coordinates":[38.643594,3.562761]},"properties":{"id":"707340414","n":"Ell duri","t":"bh","c":"Marsabit"}},{"type":"Feature","geometry":{"type":"Point","coordinates":[38.637855,3.537593]},"properties":{"id":"707901295","n":"Ell doctor Guracha","t":"bh","c":"Marsabit"}},{"type":"Feature","geometry":{"type":"Point","coordinates":[38.687232,3.60853]},"properties":{"id":"707901257","n":"Ell duri","t":"bh","c":"Marsabit"}},{"type":"Feature","geometry":{"type":"Point","coordinates":[38.643619,3.562786]},"properties":{"id":"707340548","n":"Ell buke","t":"udw","c":"Marsabit"}},{"type":"Feature","geometry":{"type":"Point","coordinates":[38.588942,3.60101]},"properties":{"id":"20823067","n":"Golole 2 borehole","t":"bh","c":"Marsabit"}},{"type":"Feature","geometry":{"type":"Point","coordinates":[38.58979,3.590342]},"properties":{"id":"20823043","n":"Golole 1 Borehole","t":"bh","c":"Marsabit"}},{"type":"Feature","geometry":{"type":"Point","coordinates":[38.244163,3.485959]},"properties":{"id":"707482833","n":"MADO KUYAL","t":"us","c":"Marsabit"}},{"type":"Feature","geometry":{"type":"Point","coordinates":[38.517652,3.454454]},"properties":{"id":"707482967","n":"S","t":"pdw","c":"Marsabit"}},{"type":"Feature","geometry":{"type":"Point","coordinates":[38.545495,3.614503]},"properties":{"id":"20823036","n":"Uran Borehole","t":"bh","c":"Marsabit"}},{"type":"Feature","geometry":{"type":"Point","coordinates":[38.241792,3.495303]},"properties":{"id":"707482802","n":"MADO SOKARI","t":"us","c":"Marsabit"}},{"type":"Feature","geometry":{"type":"Point","coordinates":[37.187237,4.179179]},"properties":{"id":"706959589","n":"Saru protected well.","t":"pdw","c":"Marsabit"}},{"type":"Feature","geometry":{"type":"Point","coordinates":[37.532802,3.815426]},"properties":{"id":"706960037","n":"Dollop boji borehole","t":"bh","c":"Marsabit"}},{"type":"Feature","geometry":{"type":"Point","coordinates":[37.266924,4.003972]},"properties":{"id":"706959785","n":"Guyo shokote unprotected well.","t":"udw","c":"Marsabit"}},{"type":"Feature","geometry":{"type":"Point","coordinates":[37.26573,3.995803]},"properties":{"id":"706959242","n":"Isacko budha well.","t":"udw","c":"Marsabit"}},{"type":"Feature","geometry":{"type":"Point","coordinates":[37.265839,3.995033]},"properties":{"id":"706959235","n":"Abudho Adhe well","t":"udw","c":"Marsabit"}},{"type":"Feature","geometry":{"type":"Point","coordinates":[37.187163,4.179286]},"properties":{"id":"706959596","n":"Catholic mission protected well.","t":"pdw","c":"Marsabit"}},{"type":"Feature","geometry":{"type":"Point","coordinates":[37.2672,3.99442]},"properties":{"id":"707856261","n":"Dire well","t":"udw","c":"Marsabit"}},{"type":"Feature","geometry":{"type":"Point","coordinates":[37.271247,3.992231]},"properties":{"id":"706959819","n":"Takabalo bore hole.","t":"bh","c":"Marsabit"}},{"type":"Feature","geometry":{"type":"Point","coordinates":[37.26595,3.998916]},"properties":{"id":"706959280","n":"Roba halakhe well....","t":"udw","c":"Marsabit"}},{"type":"Feature","geometry":{"type":"Point","coordinates":[37.265497,3.996819]},"properties":{"id":"706959273","n":"Noles gudha","t":"udw","c":"Marsabit"}},{"type":"Feature","geometry":{"type":"Point","coordinates":[37.271477,3.997306]},"properties":{"id":"722546855","n":"Dukana borehole","t":"bh","c":"Marsabit"}},{"type":"Feature","geometry":{"type":"Point","coordinates":[37.267146,3.993773]},"properties":{"id":"706959228","n":"Roba shanda","t":"udw","c":"Marsabit"}},{"type":"Feature","geometry":{"type":"Point","coordinates":[37.272298,3.996449]},"properties":{"id":"706959352","n":"Ggg","t":"udw","c":"Marsabit"}},{"type":"Feature","geometry":{"type":"Point","coordinates":[37.53141,3.804736]},"properties":{"id":"706959462","n":"Fun qoft water point.","t":"bh","c":"Marsabit"}},{"type":"Feature","geometry":{"type":"Point","coordinates":[37.267676,3.995618]},"properties":{"id":"707856285","n":"Dukana community  borehole","t":"bh","c":"Marsabit"}},{"type":"Feature","geometry":{"type":"Point","coordinates":[37.271558,3.997297]},"properties":{"id":"706960044","n":"Dollop boji water point.","t":"bh","c":"Marsabit"}},{"type":"Feature","geometry":{"type":"Point","coordinates":[37.266629,4.000059]},"properties":{"id":"706959651","n":"Chief tuye unprotected well.","t":"udw","c":"Marsabit"}},{"type":"Feature","geometry":{"type":"Point","coordinates":[37.267049,3.994296]},"properties":{"id":"706959211","n":"Thire well.","t":"udw","c":"Marsabit"}},{"type":"Feature","geometry":{"type":"Point","coordinates":[37.271534,3.997264]},"properties":{"id":"707856041","n":"Dukana bore hole","t":"bh","c":"Marsabit"}},{"type":"Feature","geometry":{"type":"Point","coordinates":[37.352647,3.611916]},"properties":{"id":"706959905","n":"Mission borehole.","t":"bh","c":"Marsabit"}},{"type":"Feature","geometry":{"type":"Point","coordinates":[37.272298,3.996449]},"properties":{"id":"706959345","n":"Vvg","t":"udw","c":"Marsabit"}},{"type":"Feature","geometry":{"type":"Point","coordinates":[37.629992,2.926006]},"properties":{"id":"706895717","n":"Maikona shallow well 1","t":"udw","c":"Marsabit"}},{"type":"Feature","geometry":{"type":"Point","coordinates":[37.293443,3.269359]},"properties":{"id":"706895487","n":"Elboji Borehole","t":"bh","c":"Marsabit"}},{"type":"Feature","geometry":{"type":"Point","coordinates":[37.810453,3.573596]},"properties":{"id":"706895951","n":"Kubi argesa dug well","t":"pdw","c":"Marsabit"}},{"type":"Feature","geometry":{"type":"Point","coordinates":[37.426871,3.129764]},"properties":{"id":"706895652","n":"Kalacha Borehole","t":"pdw","c":"Marsabit"}},{"type":"Feature","geometry":{"type":"Point","coordinates":[37.427363,3.129385]},"properties":{"id":"706895645","n":"Boj Hos Qencho borehole","t":"udw","c":"Marsabit"}},{"type":"Feature","geometry":{"type":"Point","coordinates":[37.42738,3.129159]},"properties":{"id":"706895638","n":"Arilo Dug well","t":"udw","c":"Marsabit"}},{"type":"Feature","geometry":{"type":"Point","coordinates":[37.81051,3.558703]},"properties":{"id":"706895841","n":"Sibila dug well","t":"pdw","c":"Marsabit"}},{"type":"Feature","geometry":{"type":"Point","coordinates":[37.808474,3.565027]},"properties":{"id":"706895834","n":"Hallo dug well","t":"pdw","c":"Marsabit"}},{"type":"Feature","geometry":{"type":"Point","coordinates":[37.808116,3.564376]},"properties":{"id":"706895944","n":"Gofa athano Tari dug well","t":"pdw","c":"Marsabit"}},{"type":"Feature","geometry":{"type":"Point","coordinates":[37.363821,3.201597]},"properties":{"id":"706895494","n":"Rage primary Borehole","t":"bh","c":"Marsabit"}},{"type":"Feature","geometry":{"type":"Point","coordinates":[37.428282,3.131389]},"properties":{"id":"706895528","n":"Kutur dug borehole","t":"pdw","c":"Marsabit"}},{"type":"Feature","geometry":{"type":"Point","coordinates":[37.644106,2.913587]},"properties":{"id":"706895690","n":"Tullow borehole","t":"bh","c":"Marsabit"}},{"type":"Feature","geometry":{"type":"Point","coordinates":[37.80908,3.564972]},"properties":{"id":"706895827","n":"Mangutho dug well","t":"pdw","c":"Marsabit"}},{"type":"Feature","geometry":{"type":"Point","coordinates":[37.057539,3.309702]},"properties":{"id":"723384966","n":"Roba Galgallo's welll","t":"bh","c":"Marsabit"}},{"type":"Feature","geometry":{"type":"Point","coordinates":[37.063403,3.331103]},"properties":{"id":"706683451","n":"North horr Polytechnic borehole","t":"bh","c":"Marsabit"}},{"type":"Feature","geometry":{"type":"Point","coordinates":[36.747052,3.490782]},"properties":{"id":"706683561","n":"Abdub Tullu well","t":"udw","c":"Marsabit"}},{"type":"Feature","geometry":{"type":"Point","coordinates":[37.063343,3.315655]},"properties":{"id":"706683475","n":"Horri Gudha Water spring","t":"us","c":"Marsabit"}},{"type":"Feature","geometry":{"type":"Point","coordinates":[36.930235,3.184087]},"properties":{"id":"706683688","n":"Kochi waterpoint","t":"udw","c":"Marsabit"}},{"type":"Feature","geometry":{"type":"Point","coordinates":[37.058238,3.308867]},"properties":{"id":"723384973","n":"Horri gudha","t":"bh","c":"Marsabit"}},{"type":"Feature","geometry":{"type":"Point","coordinates":[36.827195,3.144618]},"properties":{"id":"706683729","n":"Bonaya Qura well","t":"bh","c":"Marsabit"}},{"type":"Feature","geometry":{"type":"Point","coordinates":[38.377426,3.302603]},"properties":{"id":"707640035","n":"GARABGUDO BOREHOLE","t":"bh","c":"Marsabit"}}]}