{"type":"FeatureCollection","features":[{"type":"Feature","geometry":{"type":"Point","coordinates":[39.044934,0.045235]},"properties":{"id":"352687973","n":"Karu water kiosk","t":"bh","c":"Garissa","d":202.0}},{"type":"Feature","geometry":{"type":"Point","coordinates":[37.557965,0.335074]},"properties":{"id":"703421324","n":"Kumbi juu water point","t":"us","c":"Isiolo"}},{"type":"Feature","geometry":{"type":"Point","coordinates":[37.579588,0.352415]},"properties":{"id":"703378725","n":"Al Naim water point 1","t":"bh","c":"Isiolo"}},{"type":"Feature","geometry":{"type":"Point","coordinates":[37.540374,0.275756]},"properties":{"id":"703371948","n":"Elsa water point","t":"bh","c":"Isiolo"}},{"type":"Feature","geometry":{"type":"Point","coordinates":[37.566657,0.400578]},"properties":{"id":"703642239","n":"Natunga borehole","t":"bh","c":"Isiolo"}},{"type":"Feature","geometry":{"type":"Point","coordinates":[37.581261,0.401682]},"properties":{"id":"703641788","n":"Esmit borehole","t":"bh","c":"Isiolo"}},{"type":"Feature","geometry":{"type":"Point","coordinates":[37.581663,0.391603]},"properties":{"id":"703641623","n":"Ejem water point","t":"bh","c":"Isiolo"}},{"type":"Feature","geometry":{"type":"Point","coordinates":[37.581806,0.393122]},"properties":{"id":"703642136","n":"Esmit spring","t":"us","c":"Isiolo"}},{"type":"Feature","geometry":{"type":"Point","coordinates":[37.540638,0.275735]},"properties":{"id":"703371931","n":"Elsa water point","t":"bh","c":"Isiolo"}},{"type":"Feature","geometry":{"type":"Point","coordinates":[37.534406,0.276663]},"properties":{"id":"703371917","n":"Elsa water point","t":"bh","c":"Isiolo"}},{"type":"Feature","geometry":{"type":"Point","coordinates":[38.480884,0.893128]},"properties":{"id":"703351731","n":"Biliqo water point","t":"udw","c":"Isiolo"}},{"type":"Feature","geometry":{"type":"Point","coordinates":[38.399368,0.879665]},"properties":{"id":"703569103","n":"Biliko marara water point","t":"pdw","c":"Isiolo"}},{"type":"Feature","geometry":{"type":"Point","coordinates":[38.482935,0.893733]},"properties":{"id":"703353441","n":"Biliqo water point","t":"udw","c":"Isiolo"}},{"type":"Feature","geometry":{"type":"Point","coordinates":[38.472463,0.867615]},"properties":{"id":"703353290","n":"Biliqo water point","t":"pdw","c":"Isiolo"}},{"type":"Feature","geometry":{"type":"Point","coordinates":[38.483172,0.893927]},"properties":{"id":"703351717","n":"Biliqo water point","t":"udw","c":"Isiolo"}},{"type":"Feature","geometry":{"type":"Point","coordinates":[38.562542,0.961278]},"properties":{"id":"703353434","n":"Bulesaa water point","t":"bh","c":"Isiolo"}},{"type":"Feature","geometry":{"type":"Point","coordinates":[38.399189,0.879483]},"properties":{"id":"703569093","n":"Biliko marara water point","t":"pdw","c":"Isiolo"}},{"type":"Feature","geometry":{"type":"Point","coordinates":[38.001388,1.167222]},"properties":{"id":"626077509","n":"KwambeluÂ","t":"bh","c":"Isiolo"}},{"type":"Feature","geometry":{"type":"Point","coordinates":[38.655143,1.073222]},"properties":{"id":"680216223","n":"Al Aqsa water kiosk.","t":"bh","c":"Isiolo"}},{"type":"Feature","geometry":{"type":"Point","coordinates":[38.609928,1.73084]},"properties":{"id":"20514880","n":"Yamicha","t":"bh","c":"Isiolo"}},{"type":"Feature","geometry":{"type":"Point","coordinates":[39.1113,1.494]},"properties":{"id":"20514914","n":"dadacha lafe","t":"bh","c":"Isiolo"}},{"type":"Feature","geometry":{"type":"Point","coordinates":[39.267595,1.500396]},"properties":{"id":"415045296","n":"Lolkuta North Borehole","t":"bh","c":"Isiolo"}},{"type":"Feature","geometry":{"type":"Point","coordinates":[39.1745,1.4445]},"properties":{"id":"20514907","n":"Alango","t":"bh","c":"Isiolo"}},{"type":"Feature","geometry":{"type":"Point","coordinates":[38.66736,1.081533]},"properties":{"id":"680218146","n":"Dololo survey hand dug water point.","t":"udw","c":"Isiolo"}},{"type":"Feature","geometry":{"type":"Point","coordinates":[38.808783,1.232549]},"properties":{"id":"680216254","n":"Kona Nne water kiosk","t":"bh","c":"Isiolo"}},{"type":"Feature","geometry":{"type":"Point","coordinates":[38.514026,1.72008]},"properties":{"id":"20514897","n":"Duma","t":"bh","c":"Isiolo"}},{"type":"Feature","geometry":{"type":"Point","coordinates":[39.112309,1.768597]},"properties":{"id":"415045399","n":"Bukuma","t":"bh","c":"Isiolo"}},{"type":"Feature","geometry":{"type":"Point","coordinates":[38.67242,1.062058]},"properties":{"id":"20514952","n":"Merti","t":"bh","c":"Isiolo"}},{"type":"Feature","geometry":{"type":"Point","coordinates":[38.670549,1.055448]},"properties":{"id":"680216089","n":"Kambi juu water point","t":"bh","c":"Isiolo"}},{"type":"Feature","geometry":{"type":"Point","coordinates":[38.670416,1.056704]},"properties":{"id":"705523857","n":"Merti water points","t":"bh","c":"Isiolo"}},{"type":"Feature","geometry":{"type":"Point","coordinates":[37.163733,0.699182]},"properties":{"id":"703887915","n":"Longopito 2 hand pump","t":"bh","c":"Isiolo"}},{"type":"Feature","geometry":{"type":"Point","coordinates":[37.174392,0.65063]},"properties":{"id":"703888033","n":"Lolgiriai Hand pump","t":"bh","c":"Isiolo"}},{"type":"Feature","geometry":{"type":"Point","coordinates":[37.240293,0.566917]},"properties":{"id":"703887946","n":"Lengwenyi hand pump","t":"bh","c":"Isiolo"}},{"type":"Feature","geometry":{"type":"Point","coordinates":[37.051078,0.725923]},"properties":{"id":"703888150","n":"Lturot hand pump","t":"bh","c":"Isiolo"}},{"type":"Feature","geometry":{"type":"Point","coordinates":[36.933253,0.598077]},"properties":{"id":"703393841","n":"Labarishereki hand pump","t":"bh","c":"Isiolo"}},{"type":"Feature","geometry":{"type":"Point","coordinates":[37.154165,0.611872]},"properties":{"id":"703394196","n":"Lengurma Hand pump","t":"bh","c":"Isiolo"}},{"type":"Feature","geometry":{"type":"Point","coordinates":[36.989942,0.61589]},"properties":{"id":"293623430","n":"Oldonyiro water project from borehole tank","t":"bh","c":"Isiolo"}},{"type":"Feature","geometry":{"type":"Point","coordinates":[36.925032,0.575129]},"properties":{"id":"703361082","n":"Namelok Hand pump","t":"bh","c":"Isiolo"}},{"type":"Feature","geometry":{"type":"Point","coordinates":[37.155887,0.695393]},"properties":{"id":"703557001","n":"Longopito hand pump","t":"bh","c":"Isiolo"}},{"type":"Feature","geometry":{"type":"Point","coordinates":[37.16883,0.705532]},"properties":{"id":"703557056","n":"Longopito 3 hand pump","t":"bh","c":"Isiolo"}},{"type":"Feature","geometry":{"type":"Point","coordinates":[37.341328,0.562567]},"properties":{"id":"703394055","n":"Nooloroi shallow well","t":"udw","c":"Isiolo"}},{"type":"Feature","geometry":{"type":"Point","coordinates":[37.598598,0.347612]},"properties":{"id":"703535225","n":"Kiwanjani catholic mission borehole","t":"bh","c":"Isiolo"}},{"type":"Feature","geometry":{"type":"Point","coordinates":[37.58973,0.34765]},"properties":{"id":"20514945","n":"Ministry of Water","t":"bh","c":"Isiolo"}},{"type":"Feature","geometry":{"type":"Point","coordinates":[37.583045,0.393664]},"properties":{"id":"703641647","n":"Nomads-Esmit spring","t":"ps","c":"Isiolo"}},{"type":"Feature","geometry":{"type":"Point","coordinates":[37.599001,0.347688]},"properties":{"id":"703535232","n":"Kiwanjani catholic mission borehole","t":"bh","c":"Isiolo"}},{"type":"Feature","geometry":{"type":"Point","coordinates":[37.582527,0.351811]},"properties":{"id":"703535373","n":"Desert trail borehole water point","t":"bh","c":"Isiolo"}},{"type":"Feature","geometry":{"type":"Point","coordinates":[38.516554,0.538156]},"properties":{"id":"20514938","n":"waliyana","t":"bh","c":"Isiolo"}},{"type":"Feature","geometry":{"type":"Point","coordinates":[38.423037,0.806404]},"properties":{"id":"703348597","n":"Kuro bisiqa spring water point.","t":"us","c":"Isiolo"}},{"type":"Feature","geometry":{"type":"Point","coordinates":[38.592938,0.939527]},"properties":{"id":"724823323","n":"Gafarsa Swasap county kiosk  1","t":"pdw","c":"Isiolo"}},{"type":"Feature","geometry":{"type":"Point","coordinates":[38.338688,0.573508]},"properties":{"id":"704174771","n":"Boji borehole 2","t":"pdw","c":"Isiolo"}},{"type":"Feature","geometry":{"type":"Point","coordinates":[38.414943,0.797608]},"properties":{"id":"703348614","n":"Kuro Qaqalo spring Water point.","t":"us","c":"Isiolo"}},{"type":"Feature","geometry":{"type":"Point","coordinates":[38.517143,0.531084]},"properties":{"id":"704174733","n":"","t":"us","c":"Isiolo"}},{"type":"Feature","geometry":{"type":"Point","coordinates":[38.585848,0.943695]},"properties":{"id":"724823316","n":"Water trough Gafarsa","t":"pdw","c":"Isiolo"}},{"type":"Feature","geometry":{"type":"Point","coordinates":[38.594872,0.942243]},"properties":{"id":"20514921","n":"Garfasa","t":"bh","c":"Isiolo"}},{"type":"Feature","geometry":{"type":"Point","coordinates":[38.516707,0.530636]},"properties":{"id":"704174654","n":"Yuha abd sons shallow well","t":"us","c":"Isiolo"}},{"type":"Feature","geometry":{"type":"Point","coordinates":[38.5161,0.53862]},"properties":{"id":"724823134","n":"Waliyana water tank 100 cu.m","t":"bh","c":"Isiolo"}},{"type":"Feature","geometry":{"type":"Point","coordinates":[38.500132,0.536949]},"properties":{"id":"704174836","n":"Tinga abagaro","t":"pdw","c":"Isiolo"}},{"type":"Feature","geometry":{"type":"Point","coordinates":[38.426561,0.810496]},"properties":{"id":"703348580","n":"Kuro Barata spring Water point.","t":"us","c":"Isiolo"}},{"type":"Feature","geometry":{"type":"Point","coordinates":[38.51872,0.534126]},"properties":{"id":"704174719","n":"Matagari","t":"bh","c":"Isiolo"}},{"type":"Feature","geometry":{"type":"Point","coordinates":[38.452242,0.80543]},"properties":{"id":"703348638","n":"Maratho Dadacha water point.","t":"udw","c":"Isiolo"}},{"type":"Feature","geometry":{"type":"Point","coordinates":[38.589732,0.937557]},"properties":{"id":"724823282","n":"Gafarsa 100cu.m storage tank on 18m tower","t":"pdw","c":"Isiolo"}},{"type":"Feature","geometry":{"type":"Point","coordinates":[38.517188,0.533047]},"properties":{"id":"724823251","n":"Elborte Borehole","t":"bh","c":"Isiolo"}},{"type":"Feature","geometry":{"type":"Point","coordinates":[38.573263,0.950893]},"properties":{"id":"703353472","n":"Bulesa water point","t":"bh","c":"Isiolo"}},{"type":"Feature","geometry":{"type":"Point","coordinates":[38.452197,0.805449]},"properties":{"id":"703888923","n":"Boji Ires Dharmi water point.","t":"us","c":"Isiolo"}},{"type":"Feature","geometry":{"type":"Point","coordinates":[38.516655,0.534644]},"properties":{"id":"704174692","n":"Garbatulla catholic mission borehole","t":"bh","c":"Isiolo"}},{"type":"Feature","geometry":{"type":"Point","coordinates":[38.52115,0.533375]},"properties":{"id":"704174647","n":"","t":"bh","c":"Isiolo"}},{"type":"Feature","geometry":{"type":"Point","coordinates":[38.5001,0.536998]},"properties":{"id":"724823244","n":"New Matagri Bh","t":"bh","c":"Isiolo"}},{"type":"Feature","geometry":{"type":"Point","coordinates":[38.515668,0.528448]},"properties":{"id":"704174726","n":"Gindole","t":"bh","c":"Isiolo"}},{"type":"Feature","geometry":{"type":"Point","coordinates":[38.517324,0.531386]},"properties":{"id":"704174661","n":"Bilqicha","t":"pdw","c":"Isiolo"}},{"type":"Feature","geometry":{"type":"Point","coordinates":[38.452455,0.804983]},"properties":{"id":"703888909","n":"Maratho Haa Gedi water point.","t":"udw","c":"Isiolo"}},{"type":"Feature","geometry":{"type":"Point","coordinates":[38.426561,0.810509]},"properties":{"id":"703348573","n":"Kuro mume spring water point","t":"us","c":"Isiolo"}},{"type":"Feature","geometry":{"type":"Point","coordinates":[38.355294,0.407899]},"properties":{"id":"703969363","n":"Harr dimtu duse","t":"us","c":"Isiolo"}},{"type":"Feature","geometry":{"type":"Point","coordinates":[38.415674,0.797487]},"properties":{"id":"703348607","n":"Kuro Takari spring water point.","t":"us","c":"Isiolo"}},{"type":"Feature","geometry":{"type":"Point","coordinates":[38.205652,0.320992]},"properties":{"id":"703910390","n":"Ell Jonjo borehole water point","t":"pdw","c":"Isiolo"}},{"type":"Feature","geometry":{"type":"Point","coordinates":[38.200645,0.327041]},"properties":{"id":"703910242","n":"Ell Banticha borehole water point","t":"pdw","c":"Isiolo"}},{"type":"Feature","geometry":{"type":"Point","coordinates":[38.35958,0.705717]},"properties":{"id":"703549147","n":"Kurobarata","t":"us","c":"Isiolo"}},{"type":"Feature","geometry":{"type":"Point","coordinates":[38.205898,0.320493]},"properties":{"id":"703910376","n":"General hospital water point","t":"pdw","c":"Isiolo"}},{"type":"Feature","geometry":{"type":"Point","coordinates":[38.208187,0.318408]},"properties":{"id":"703910194","n":"Jamia mosque well Water point","t":"pdw","c":"Isiolo"}},{"type":"Feature","geometry":{"type":"Point","coordinates":[38.271799,0.729531]},"properties":{"id":"703549240","n":"Mosque hand pump","t":"pdw","c":"Isiolo"}},{"type":"Feature","geometry":{"type":"Point","coordinates":[38.200489,0.318723]},"properties":{"id":"703967732","n":"Ell kamaliza borehole water point","t":"pdw","c":"Isiolo"}},{"type":"Feature","geometry":{"type":"Point","coordinates":[38.200525,0.312987]},"properties":{"id":"703910589","n":"Ell Rashid borehole new water point","t":"pdw","c":"Isiolo"}},{"type":"Feature","geometry":{"type":"Point","coordinates":[38.201562,0.312133]},"properties":{"id":"703353180","n":"Galmadido Primary school hand pump water point","t":"pdw","c":"Isiolo"}},{"type":"Feature","geometry":{"type":"Point","coordinates":[38.200648,0.327053]},"properties":{"id":"703352952","n":"Ell Banticha water point","t":"pdw","c":"Isiolo"}},{"type":"Feature","geometry":{"type":"Point","coordinates":[38.274339,0.730482]},"properties":{"id":"703549154","n":"Ell bosso","t":"us","c":"Isiolo"}},{"type":"Feature","geometry":{"type":"Point","coordinates":[38.216323,0.373092]},"properties":{"id":"703967763","n":"Moliti water point","t":"us","c":"Isiolo"}},{"type":"Feature","geometry":{"type":"Point","coordinates":[38.21255,0.321491]},"properties":{"id":"703353056","n":"Jillo dima borehole water point","t":"pdw","c":"Isiolo"}},{"type":"Feature","geometry":{"type":"Point","coordinates":[38.199555,0.317647]},"properties":{"id":"703967749","n":"Hudaa 2 water borehole","t":"pdw","c":"Isiolo"}},{"type":"Feature","geometry":{"type":"Point","coordinates":[38.199687,0.32128]},"properties":{"id":"703910486","n":"Ell Abdullahi borehole new water point","t":"pdw","c":"Isiolo"}},{"type":"Feature","geometry":{"type":"Point","coordinates":[38.236792,0.264635]},"properties":{"id":"703967718","n":"Rapsu spring water point","t":"pdw","c":"Isiolo"}},{"type":"Feature","geometry":{"type":"Point","coordinates":[38.33155,0.565588]},"properties":{"id":"704174788","n":"Boji borehole 3","t":"pdw","c":"Isiolo"}},{"type":"Feature","geometry":{"type":"Point","coordinates":[38.200201,0.321038]},"properties":{"id":"703910493","n":"Ell Hadija Bagaja  borehole new water point","t":"pdw","c":"Isiolo"}},{"type":"Feature","geometry":{"type":"Point","coordinates":[38.198856,0.322835]},"properties":{"id":"703910417","n":"Ell Bonaya borehole","t":"pdw","c":"Isiolo"}},{"type":"Feature","geometry":{"type":"Point","coordinates":[38.200012,0.321882]},"properties":{"id":"703910479","n":"Ell Zeinab hand pump water point","t":"pdw","c":"Isiolo"}},{"type":"Feature","geometry":{"type":"Point","coordinates":[38.205665,0.321014]},"properties":{"id":"703910400","n":"Ell Jonjo borehole water point","t":"bh","c":"Isiolo"}},{"type":"Feature","geometry":{"type":"Point","coordinates":[38.194852,0.305051]},"properties":{"id":"703910510","n":"Galan Wabuu Spring water point","t":"us","c":"Isiolo"}},{"type":"Feature","geometry":{"type":"Point","coordinates":[38.200315,0.31257]},"properties":{"id":"703353197","n":"Ibrahim Deras hand pump water point","t":"pdw","c":"Isiolo"}},{"type":"Feature","geometry":{"type":"Point","coordinates":[38.215343,0.373282]},"properties":{"id":"703967804","n":"Duba dabaso unprotected dug well","t":"udw","c":"Isiolo"}},{"type":"Feature","geometry":{"type":"Point","coordinates":[38.242294,0.258724]},"properties":{"id":"703967419","n":"Ell Rapsu water point","t":"pdw","c":"Isiolo"}},{"type":"Feature","geometry":{"type":"Point","coordinates":[38.344464,0.391955]},"properties":{"id":"703969356","n":"Harr Duse water point","t":"us","c":"Isiolo"}},{"type":"Feature","geometry":{"type":"Point","coordinates":[38.215918,0.331245]},"properties":{"id":"703910235","n":"Algani girl secondary school","t":"pdw","c":"Isiolo"}},{"type":"Feature","geometry":{"type":"Point","coordinates":[38.272833,0.731588]},"properties":{"id":"703549219","n":"Kinoye water point","t":"udw","c":"Isiolo"}},{"type":"Feature","geometry":{"type":"Point","coordinates":[38.273194,0.731048]},"properties":{"id":"703549192","n":"Ell isilana","t":"udw","c":"Isiolo"}},{"type":"Feature","geometry":{"type":"Point","coordinates":[38.200659,0.321488]},"properties":{"id":"703910503","n":"Ell Abdi Molu borehole new water point","t":"pdw","c":"Isiolo"}},{"type":"Feature","geometry":{"type":"Point","coordinates":[38.272585,0.731124]},"properties":{"id":"703549202","n":"Wario bonaya dug well","t":"udw","c":"Isiolo"}},{"type":"Feature","geometry":{"type":"Point","coordinates":[38.193559,0.273196]},"properties":{"id":"703910527","n":"Bisan Adhi Spring Water point","t":"us","c":"Isiolo"}},{"type":"Feature","geometry":{"type":"Point","coordinates":[38.215847,0.331328]},"properties":{"id":"703352990","n":"Algani girl secondary school water point","t":"pdw","c":"Isiolo"}},{"type":"Feature","geometry":{"type":"Point","coordinates":[38.201179,0.309979]},"properties":{"id":"703910558","n":"Masjidul Mujahidhin new water point","t":"pdw","c":"Isiolo"}},{"type":"Feature","geometry":{"type":"Point","coordinates":[38.205639,0.321003]},"properties":{"id":"703910383","n":"Ell Jonjo borehole water point","t":"bh","c":"Isiolo"}},{"type":"Feature","geometry":{"type":"Point","coordinates":[38.270247,0.729762]},"properties":{"id":"703549288","n":"Bravo water point","t":"pdw","c":"Isiolo"}},{"type":"Feature","geometry":{"type":"Point","coordinates":[38.265735,0.728827]},"properties":{"id":"703549295","n":"Mokku dug well water point","t":"udw","c":"Isiolo"}},{"type":"Feature","geometry":{"type":"Point","coordinates":[38.235538,0.358243]},"properties":{"id":"703969332","n":"Moliti Shallow well","t":"pdw","c":"Isiolo"}},{"type":"Feature","geometry":{"type":"Point","coordinates":[38.273132,0.731564]},"properties":{"id":"703549226","n":"Didas dug well water point","t":"udw","c":"Isiolo"}},{"type":"Feature","geometry":{"type":"Point","coordinates":[38.274917,0.730553]},"properties":{"id":"703549161","n":"Bisso hand pump water point","t":"pdw","c":"Isiolo"}},{"type":"Feature","geometry":{"type":"Point","coordinates":[38.205035,0.314862]},"properties":{"id":"703353214","n":"Taqwa mosque hand pump water point","t":"pdw","c":"Isiolo"}},{"type":"Feature","geometry":{"type":"Point","coordinates":[38.20043,0.321267]},"properties":{"id":"703967756","n":"El zeinab borehole water point","t":"pdw","c":"Isiolo"}},{"type":"Feature","geometry":{"type":"Point","coordinates":[38.200641,0.327041]},"properties":{"id":"703352921","n":"Ell Banticha  water point","t":"bh","c":"Isiolo"}},{"type":"Feature","geometry":{"type":"Point","coordinates":[38.20025,0.31259]},"properties":{"id":"703910572","n":"Ell Ibrahim Deras borehole water point","t":"pdw","c":"Isiolo"}},{"type":"Feature","geometry":{"type":"Point","coordinates":[38.200426,0.323758]},"properties":{"id":"703352976","n":"Ell Hassan Ali water point","t":"pdw","c":"Isiolo"}},{"type":"Feature","geometry":{"type":"Point","coordinates":[38.202562,0.317493]},"properties":{"id":"703353269","n":"Dharga hand pump water point","t":"pdw","c":"Isiolo"}},{"type":"Feature","geometry":{"type":"Point","coordinates":[38.200701,0.311752]},"properties":{"id":"703910565","n":"Ell Safia borehole new water point","t":"pdw","c":"Isiolo"}},{"type":"Feature","geometry":{"type":"Point","coordinates":[38.193562,0.273308]},"properties":{"id":"703910280","n":"Bisan Adhi water point","t":"us","c":"Isiolo"}},{"type":"Feature","geometry":{"type":"Point","coordinates":[38.212538,0.321547]},"properties":{"id":"703353049","n":"Jillo dima borehole water system","t":"pdw","c":"Isiolo"}},{"type":"Feature","geometry":{"type":"Point","coordinates":[38.274043,0.730574]},"properties":{"id":"703549178","n":"Bravo water point","t":"udw","c":"Isiolo"}},{"type":"Feature","geometry":{"type":"Point","coordinates":[38.216282,0.373268]},"properties":{"id":"703967770","n":"Moliti water point","t":"udw","c":"Isiolo"}},{"type":"Feature","geometry":{"type":"Point","coordinates":[38.274392,0.730456]},"properties":{"id":"703549185","n":"Ell bisso water point","t":"udw","c":"Isiolo"}},{"type":"Feature","geometry":{"type":"Point","coordinates":[38.242278,0.258693]},"properties":{"id":"703967433","n":"Rapsu  borehole water point","t":"pdw","c":"Isiolo"}},{"type":"Feature","geometry":{"type":"Point","coordinates":[38.240655,0.260968]},"properties":{"id":"703967701","n":"Rapsu borehole water point","t":"pdw","c":"Isiolo"}},{"type":"Feature","geometry":{"type":"Point","coordinates":[38.27184,0.730706]},"properties":{"id":"703549233","n":"Ijole iddo dug well","t":"udw","c":"Isiolo"}},{"type":"Feature","geometry":{"type":"Point","coordinates":[38.284099,0.368291]},"properties":{"id":"703969349","n":"Harr Bibi water point","t":"us","c":"Isiolo"}},{"type":"Feature","geometry":{"type":"Point","coordinates":[38.270544,0.729812]},"properties":{"id":"703549271","n":"Bravo water point","t":"pdw","c":"Isiolo"}},{"type":"Feature","geometry":{"type":"Point","coordinates":[38.215474,0.37332]},"properties":{"id":"703967787","n":"Duba dabaso","t":"us","c":"Isiolo"}},{"type":"Feature","geometry":{"type":"Point","coordinates":[38.203166,0.311679]},"properties":{"id":"703353207","n":"Charbdich Shallow well  hand pump water point","t":"pdw","c":"Isiolo"}},{"type":"Feature","geometry":{"type":"Point","coordinates":[38.200745,0.327045]},"properties":{"id":"703352969","n":"Ell Banticha","t":"pdw","c":"Isiolo"}},{"type":"Feature","geometry":{"type":"Point","coordinates":[39.169279,0.722396]},"properties":{"id":"710267742","n":"Didimtu well","t":"pdw","c":"Isiolo"}},{"type":"Feature","geometry":{"type":"Point","coordinates":[39.174101,0.729638]},"properties":{"id":"680218304","n":"Madogashe water point","t":"udw","c":"Isiolo"}},{"type":"Feature","geometry":{"type":"Point","coordinates":[38.691946,1.02393]},"properties":{"id":"703371412","n":"Mogore bore hole","t":"udw","c":"Isiolo"}},{"type":"Feature","geometry":{"type":"Point","coordinates":[38.693045,1.022723]},"properties":{"id":"703371429","n":"Mogore water bore hole","t":"pdw","c":"Isiolo"}},{"type":"Feature","geometry":{"type":"Point","coordinates":[39.170851,0.727873]},"properties":{"id":"680218294","n":"Madogashe water points.","t":"udw","c":"Isiolo"}},{"type":"Feature","geometry":{"type":"Point","coordinates":[39.15231,0.731469]},"properties":{"id":"703371010","n":"Dambala kosaye one","t":"udw","c":"Isiolo"}},{"type":"Feature","geometry":{"type":"Point","coordinates":[39.105068,1.135267]},"properties":{"id":"724823361","n":"Water tank construction 100cubic metred","t":"pdw","c":"Isiolo"}},{"type":"Feature","geometry":{"type":"Point","coordinates":[39.119404,1.169471]},"properties":{"id":"703371199","n":"Sericho water bore hole","t":"bh","c":"Isiolo"}},{"type":"Feature","geometry":{"type":"Point","coordinates":[38.731493,0.83979]},"properties":{"id":"703799612","n":"Senator water point 1.","t":"bh","c":"Isiolo"}},{"type":"Feature","geometry":{"type":"Point","coordinates":[38.722185,0.985187]},"properties":{"id":"703371395","n":"Mogore water tank","t":"bh","c":"Isiolo"}},{"type":"Feature","geometry":{"type":"Point","coordinates":[39.169792,0.727547]},"properties":{"id":"703368395","n":"Sanka water point system","t":"udw","c":"Isiolo"}},{"type":"Feature","geometry":{"type":"Point","coordinates":[39.162257,0.726383]},"properties":{"id":"703371027","n":"Modogashe community water pro tank","t":"bh","c":"Isiolo"}},{"type":"Feature","geometry":{"type":"Point","coordinates":[38.731842,0.840146]},"properties":{"id":"703799629","n":"Senator water point 2.","t":"bh","c":"Isiolo"}},{"type":"Feature","geometry":{"type":"Point","coordinates":[37.048508,0.547689]},"properties":{"id":"703361147","n":"Tura Borehole Narasha","t":"bh","c":"Laikipia"}},{"type":"Feature","geometry":{"type":"Point","coordinates":[36.870117,0.263671]},"properties":{"id":"289897995","n":"","t":"ps","c":"Laikipia"}},{"type":"Feature","geometry":{"type":"Point","coordinates":[36.7954,0.2417]},"properties":{"id":"212761669","n":"Utambu","t":"bh","c":"Laikipia"}},{"type":"Feature","geometry":{"type":"Point","coordinates":[37.570642,2.499597]},"properties":{"id":"707190499","n":"Esim afgalboho","t":"udw","c":"Marsabit"}},{"type":"Feature","geometry":{"type":"Point","coordinates":[37.576795,2.50353]},"properties":{"id":"707190372","n":"KARI borehole","t":"udw","c":"Marsabit"}},{"type":"Feature","geometry":{"type":"Point","coordinates":[37.579543,2.494934]},"properties":{"id":"707190554","n":"Selengei borehole","t":"udw","c":"Marsabit"}},{"type":"Feature","geometry":{"type":"Point","coordinates":[37.569243,2.501949]},"properties":{"id":"707190602","n":"Hambule","t":"udw","c":"Marsabit"}},{"type":"Feature","geometry":{"type":"Point","coordinates":[37.57063,2.499608]},"properties":{"id":"707190475","n":"Arbele borehole","t":"udw","c":"Marsabit"}},{"type":"Feature","geometry":{"type":"Point","coordinates":[37.5706,2.499758]},"properties":{"id":"707190482","n":"Arbele 2","t":"udw","c":"Marsabit"}},{"type":"Feature","geometry":{"type":"Point","coordinates":[37.570681,2.499225]},"properties":{"id":"707190516","n":"Thuroo","t":"udw","c":"Marsabit"}},{"type":"Feature","geometry":{"type":"Point","coordinates":[37.471059,2.646127]},"properties":{"id":"706726369","n":"Kurkum worr tii deer","t":"bh","c":"Marsabit"}},{"type":"Feature","geometry":{"type":"Point","coordinates":[37.570437,2.499872]},"properties":{"id":"707190310","n":"Sahado","t":"udw","c":"Marsabit"}},{"type":"Feature","geometry":{"type":"Point","coordinates":[37.571542,2.498515]},"properties":{"id":"707190578","n":"Selengei borehole","t":"udw","c":"Marsabit"}},{"type":"Feature","geometry":{"type":"Point","coordinates":[37.577595,2.50627]},"properties":{"id":"707190743","n":"School borehole","t":"udw","c":"Marsabit"}},{"type":"Feature","geometry":{"type":"Point","coordinates":[37.579816,2.490346]},"properties":{"id":"707190341","n":"Dadab tii malab","t":"bh","c":"Marsabit"}},{"type":"Feature","geometry":{"type":"Point","coordinates":[37.569695,2.500921]},"properties":{"id":"707190585","n":"Obeile","t":"udw","c":"Marsabit"}},{"type":"Feature","geometry":{"type":"Point","coordinates":[37.569121,2.501875]},"properties":{"id":"707190619","n":"Kisima borehole","t":"udw","c":"Marsabit"}},{"type":"Feature","geometry":{"type":"Point","coordinates":[37.575888,2.503618]},"properties":{"id":"707190389","n":"Afjukh borehole","t":"udw","c":"Marsabit"}},{"type":"Feature","geometry":{"type":"Point","coordinates":[37.569332,2.501648]},"properties":{"id":"707190286","n":"","t":"udw","c":"Marsabit"}},{"type":"Feature","geometry":{"type":"Point","coordinates":[37.569206,2.501821]},"properties":{"id":"707190633","n":"Burcha","t":"udw","c":"Marsabit"}},{"type":"Feature","geometry":{"type":"Point","coordinates":[37.569225,2.50182]},"properties":{"id":"707190293","n":"Bayo","t":"udw","c":"Marsabit"}},{"type":"Feature","geometry":{"type":"Point","coordinates":[37.569431,2.501216]},"properties":{"id":"706726565","n":"Galoro well 1","t":"udw","c":"Marsabit"}},{"type":"Feature","geometry":{"type":"Point","coordinates":[37.570862,2.499093]},"properties":{"id":"707190523","n":"Sawen","t":"udw","c":"Marsabit"}},{"type":"Feature","geometry":{"type":"Point","coordinates":[37.570603,2.499684]},"properties":{"id":"707190468","n":"Bayo borehole","t":"udw","c":"Marsabit"}},{"type":"Feature","geometry":{"type":"Point","coordinates":[37.569358,2.501268]},"properties":{"id":"707190592","n":"Lafte","t":"udw","c":"Marsabit"}},{"type":"Feature","geometry":{"type":"Point","coordinates":[37.569105,2.502127]},"properties":{"id":"707190626","n":"Unknown","t":"udw","c":"Marsabit"}},{"type":"Feature","geometry":{"type":"Point","coordinates":[37.576113,2.503905]},"properties":{"id":"707190365","n":"The' deep well'","t":"udw","c":"Marsabit"}},{"type":"Feature","geometry":{"type":"Point","coordinates":[37.506238,2.012315]},"properties":{"id":"707831932","n":"Woor TiHawet","t":"udw","c":"Marsabit"}},{"type":"Feature","geometry":{"type":"Point","coordinates":[37.50246,2.011758]},"properties":{"id":"707831956","n":"Kijito","t":"bh","c":"Marsabit"}},{"type":"Feature","geometry":{"type":"Point","coordinates":[37.504383,2.012267]},"properties":{"id":"707831949","n":"Woor Chimthone","t":"udw","c":"Marsabit"}},{"type":"Feature","geometry":{"type":"Point","coordinates":[37.499309,2.008303]},"properties":{"id":"706679278","n":"Woor Galboran","t":"udw","c":"Marsabit"}},{"type":"Feature","geometry":{"type":"Point","coordinates":[37.505537,2.012446]},"properties":{"id":"707831925","n":"Woor Eysimirdana","t":"udw","c":"Marsabit"}},{"type":"Feature","geometry":{"type":"Point","coordinates":[37.489259,2.396695]},"properties":{"id":"706726534","n":"Ririma water","t":"udw","c":"Marsabit"}},{"type":"Feature","geometry":{"type":"Point","coordinates":[37.499127,2.008445]},"properties":{"id":"706679261","n":"Woor Lmongoy","t":"udw","c":"Marsabit"}},{"type":"Feature","geometry":{"type":"Point","coordinates":[37.504874,2.012109]},"properties":{"id":"707831918","n":"Woor Lomurut","t":"udw","c":"Marsabit"}},{"type":"Feature","geometry":{"type":"Point","coordinates":[37.707643,1.551769]},"properties":{"id":"706815962","n":"Loipachi 2","t":"bh","c":"Marsabit"}},{"type":"Feature","geometry":{"type":"Point","coordinates":[37.727624,1.42017]},"properties":{"id":"707925286","n":"FGCK Merille Water Point","t":"bh","c":"Marsabit"}},{"type":"Feature","geometry":{"type":"Point","coordinates":[37.669413,1.604378]},"properties":{"id":"706816121","n":"Lontolio loipachi","t":"bh","c":"Marsabit"}},{"type":"Feature","geometry":{"type":"Point","coordinates":[37.644586,1.625413]},"properties":{"id":"706816145","n":"Weltei water point","t":"pdw","c":"Marsabit"}},{"type":"Feature","geometry":{"type":"Point","coordinates":[37.669446,1.605347]},"properties":{"id":"707926218","n":"Ltepes water point","t":"udw","c":"Marsabit"}},{"type":"Feature","geometry":{"type":"Point","coordinates":[37.807143,1.58767]},"properties":{"id":"706815876","n":"Ledayache borehole","t":"udw","c":"Marsabit"}},{"type":"Feature","geometry":{"type":"Point","coordinates":[37.707108,1.551794]},"properties":{"id":"706815955","n":"Loipache","t":"bh","c":"Marsabit"}},{"type":"Feature","geometry":{"type":"Point","coordinates":[37.807862,1.587328]},"properties":{"id":"706815890","n":"Tula Orbora","t":"udw","c":"Marsabit"}},{"type":"Feature","geometry":{"type":"Point","coordinates":[37.811548,1.588793]},"properties":{"id":"706815900","n":"Kisima Galkena","t":"udw","c":"Marsabit"}},{"type":"Feature","geometry":{"type":"Point","coordinates":[37.802096,1.586807]},"properties":{"id":"706815852","n":"Unprotected dug well","t":"udw","c":"Marsabit"}},{"type":"Feature","geometry":{"type":"Point","coordinates":[37.66925,1.60512]},"properties":{"id":"707925664","n":"Simiti water point","t":"udw","c":"Marsabit"}},{"type":"Feature","geometry":{"type":"Point","coordinates":[37.66924,1.604337]},"properties":{"id":"707926256","n":"Lontolio loipushi water point","t":"bh","c":"Marsabit"}},{"type":"Feature","geometry":{"type":"Point","coordinates":[37.717692,1.548977]},"properties":{"id":"707925475","n":"Lenkarau water point","t":"us","c":"Marsabit"}},{"type":"Feature","geometry":{"type":"Point","coordinates":[37.669424,1.605307]},"properties":{"id":"706816138","n":"Kisima Salkapo","t":"udw","c":"Marsabit"}},{"type":"Feature","geometry":{"type":"Point","coordinates":[37.669967,1.605578]},"properties":{"id":"707926201","n":"Kisima water point","t":"udw","c":"Marsabit"}},{"type":"Feature","geometry":{"type":"Point","coordinates":[37.669121,1.604996]},"properties":{"id":"707925657","n":"Lontolio dug well water point","t":"udw","c":"Marsabit"}},{"type":"Feature","geometry":{"type":"Point","coordinates":[37.804325,1.587012]},"properties":{"id":"706815869","n":"Lekati Ngichili borehole","t":"udw","c":"Marsabit"}},{"type":"Feature","geometry":{"type":"Point","coordinates":[37.687421,1.431884]},"properties":{"id":"707925327","n":"Kamotonyi water point","t":"us","c":"Marsabit"}},{"type":"Feature","geometry":{"type":"Point","coordinates":[37.66877,1.604656]},"properties":{"id":"707926270","n":"Lare water point","t":"udw","c":"Marsabit"}},{"type":"Feature","geometry":{"type":"Point","coordinates":[37.706758,1.551824]},"properties":{"id":"707925516","n":"Lorepa water point","t":"bh","c":"Marsabit"}},{"type":"Feature","geometry":{"type":"Point","coordinates":[37.801904,1.587545]},"properties":{"id":"706815845","n":"Kisima Salim","t":"udw","c":"Marsabit"}},{"type":"Feature","geometry":{"type":"Point","coordinates":[37.669756,1.605143]},"properties":{"id":"707925688","n":"Lare lesimiti water point","t":"udw","c":"Marsabit"}},{"type":"Feature","geometry":{"type":"Point","coordinates":[37.669814,1.605897]},"properties":{"id":"707926287","n":"Loipushi water point","t":"bh","c":"Marsabit"}},{"type":"Feature","geometry":{"type":"Point","coordinates":[37.719707,1.417375]},"properties":{"id":"707925310","n":"Loikurukur water point","t":"bh","c":"Marsabit"}},{"type":"Feature","geometry":{"type":"Point","coordinates":[37.717626,1.548768]},"properties":{"id":"707925468","n":"Lkiriai water point","t":"pdw","c":"Marsabit"}},{"type":"Feature","geometry":{"type":"Point","coordinates":[37.7191,1.548379]},"properties":{"id":"707925482","n":"Lare kubwa water point","t":"udw","c":"Marsabit"}},{"type":"Feature","geometry":{"type":"Point","coordinates":[37.915324,2.002369]},"properties":{"id":"706742125","n":"Manyatta juu borehole","t":"bh","c":"Marsabit"}},{"type":"Feature","geometry":{"type":"Point","coordinates":[37.913119,1.997907]},"properties":{"id":"706742307","n":"Soriadhi one(1)","t":"bh","c":"Marsabit"}},{"type":"Feature","geometry":{"type":"Point","coordinates":[37.91553,2.002532]},"properties":{"id":"706737484","n":"Manyatta juu borehole","t":"bh","c":"Marsabit"}},{"type":"Feature","geometry":{"type":"Point","coordinates":[37.912196,1.981607]},"properties":{"id":"706737477","n":"Lengisoro borehole","t":"bh","c":"Marsabit"}},{"type":"Feature","geometry":{"type":"Point","coordinates":[37.913464,1.994685]},"properties":{"id":"706742321","n":"Soriadhi two (2) borehole","t":"bh","c":"Marsabit"}},{"type":"Feature","geometry":{"type":"Point","coordinates":[37.913541,1.99724]},"properties":{"id":"706742314","n":"Soriadhi borehole","t":"bh","c":"Marsabit"}},{"type":"Feature","geometry":{"type":"Point","coordinates":[36.722946,2.761132]},"properties":{"id":"707041368","n":"Naagan water point","t":"ps","c":"Marsabit"}},{"type":"Feature","geometry":{"type":"Point","coordinates":[36.759082,2.516253]},"properties":{"id":"568301483","n":"Kangora spring","t":"us","c":"Marsabit"}},{"type":"Feature","geometry":{"type":"Point","coordinates":[37.973608,2.32426]},"properties":{"id":"706709155","n":"50 dip","t":"us","c":"Marsabit"}},{"type":"Feature","geometry":{"type":"Point","coordinates":[37.965597,2.330329]},"properties":{"id":"707008312","n":"Karantina well","t":"pdw","c":"Marsabit"}},{"type":"Feature","geometry":{"type":"Point","coordinates":[37.98661,2.327863]},"properties":{"id":"837345097","n":"Shukri ICT Martin home","t":"bh","c":"Marsabit"}},{"type":"Feature","geometry":{"type":"Point","coordinates":[38.028451,2.29235]},"properties":{"id":"706795439","n":"Korre-Sagante well","t":"udw","c":"Marsabit"}},{"type":"Feature","geometry":{"type":"Point","coordinates":[38.028225,2.292623]},"properties":{"id":"706795446","n":"Digaltich-Sagante well","t":"pdw","c":"Marsabit"}},{"type":"Feature","geometry":{"type":"Point","coordinates":[38.014255,2.333642]},"properties":{"id":"706709124","n":"Dabaricha borehole","t":"bh","c":"Marsabit"}},{"type":"Feature","geometry":{"type":"Point","coordinates":[37.987781,2.336305]},"properties":{"id":"706893375","n":"Wayama borehole","t":"bh","c":"Marsabit"}},{"type":"Feature","geometry":{"type":"Point","coordinates":[37.976292,2.321399]},"properties":{"id":"706709162","n":"Eeel looni","t":"us","c":"Marsabit"}},{"type":"Feature","geometry":{"type":"Point","coordinates":[37.942966,2.545032]},"properties":{"id":"706709210","n":"Segel 2","t":"bh","c":"Marsabit"}},{"type":"Feature","geometry":{"type":"Point","coordinates":[37.983618,2.322894]},"properties":{"id":"706675755","n":"Kula mawe","t":"bh","c":"Marsabit"}},{"type":"Feature","geometry":{"type":"Point","coordinates":[37.983781,2.323008]},"properties":{"id":"706980433","n":"Kulamawe borehole","t":"bh","c":"Marsabit"}},{"type":"Feature","geometry":{"type":"Point","coordinates":[38.026966,2.367723]},"properties":{"id":"706798755","n":"Charabtho borehole","t":"pdw","c":"Marsabit"}},{"type":"Feature","geometry":{"type":"Point","coordinates":[38.06938,2.267001]},"properties":{"id":"706795460","n":"Bute well-Gombo wells","t":"udw","c":"Marsabit"}},{"type":"Feature","geometry":{"type":"Point","coordinates":[38.05607,2.287073]},"properties":{"id":"706795295","n":"Mzee Kosi borehole","t":"bh","c":"Marsabit"}},{"type":"Feature","geometry":{"type":"Point","coordinates":[38.068884,2.266977]},"properties":{"id":"706795477","n":"Halakhe well-Gombo wells","t":"udw","c":"Marsabit"}},{"type":"Feature","geometry":{"type":"Point","coordinates":[37.4694,0.2706]},"properties":{"id":"212761652","n":"Luvambo","t":"ps","c":"Meru"}},{"type":"Feature","geometry":{"type":"Point","coordinates":[37.567633,0.327915]},"properties":{"id":"703421290","n":"Eric water point","t":"pdw","c":"Meru"}},{"type":"Feature","geometry":{"type":"Point","coordinates":[37.56768,0.327831]},"properties":{"id":"703421300","n":"Zacharia water point","t":"pdw","c":"Meru"}},{"type":"Feature","geometry":{"type":"Point","coordinates":[37.567886,0.327791]},"properties":{"id":"703421317","n":"Kamude water point","t":"pdw","c":"Meru"}},{"type":"Feature","geometry":{"type":"Point","coordinates":[37.252392,0.084893]},"properties":{"id":"348046834","n":"T","t":"ps","c":"Meru"}},{"type":"Feature","geometry":{"type":"Point","coordinates":[38.121829,0.305616]},"properties":{"id":"703910266","n":"Chafesa Spring water point","t":"us","c":"Meru"}},{"type":"Feature","geometry":{"type":"Point","coordinates":[38.191355,0.319027]},"properties":{"id":"703353252","n":"Kinna kanchoradhi  spring water point","t":"us","c":"Meru"}},{"type":"Feature","geometry":{"type":"Point","coordinates":[38.1948,0.30509]},"properties":{"id":"703910321","n":"Galan Wabuu water point","t":"us","c":"Meru"}},{"type":"Feature","geometry":{"type":"Point","coordinates":[38.191727,0.298594]},"properties":{"id":"703910297","n":"Gubadida irrigation scheme water point","t":"us","c":"Meru"}},{"type":"Feature","geometry":{"type":"Point","coordinates":[38.194785,0.30506]},"properties":{"id":"703910345","n":"Galan Wabuu water point","t":"us","c":"Meru"}},{"type":"Feature","geometry":{"type":"Point","coordinates":[37.696655,0.427461]},"properties":{"id":"706483022","n":"Aroo borehole water point","t":"bh","c":"Meru"}},{"type":"Feature","geometry":{"type":"Point","coordinates":[37.649348,0.496034]},"properties":{"id":"277835693","n":"Ngaremara Kijito water supply system","t":"bh","c":"Meru"}},{"type":"Feature","geometry":{"type":"Point","coordinates":[37.63658,0.423947]},"properties":{"id":"706480380","n":"Chumvi Centre water point","t":"pdw","c":"Meru"}},{"type":"Feature","geometry":{"type":"Point","coordinates":[37.595168,0.411226]},"properties":{"id":"277835686","n":"Epiding kiwanja water supply system","t":"bh","c":"Meru"}},{"type":"Feature","geometry":{"type":"Point","coordinates":[37.683549,0.398096]},"properties":{"id":"724823172","n":"Artesisn well Gambela","t":"pdw","c":"Meru"}},{"type":"Feature","geometry":{"type":"Point","coordinates":[37.651514,0.450903]},"properties":{"id":"706480555","n":"Akareterete chini water system","t":"bh","c":"Meru"}},{"type":"Feature","geometry":{"type":"Point","coordinates":[37.605736,0.455266]},"properties":{"id":"703339515","n":"EVANGELICAL WATER POINT LOWANGILA","t":"bh","c":"Meru"}},{"type":"Feature","geometry":{"type":"Point","coordinates":[37.643031,0.420445]},"properties":{"id":"706480397","n":"Chumvi eporoto water point","t":"pdw","c":"Meru"}},{"type":"Feature","geometry":{"type":"Point","coordinates":[37.632763,0.422756]},"properties":{"id":"706480373","n":"Chumvi water point","t":"pdw","c":"Meru"}},{"type":"Feature","geometry":{"type":"Point","coordinates":[37.664754,0.409595]},"properties":{"id":"20514828","n":"Attir","t":"bh","c":"Meru"}},{"type":"Feature","geometry":{"type":"Point","coordinates":[37.695293,0.448901]},"properties":{"id":"706483077","n":"Ariamawoi juu water point","t":"bh","c":"Meru"}},{"type":"Feature","geometry":{"type":"Point","coordinates":[37.605769,0.455273]},"properties":{"id":"703339522","n":"Evangelical water point at Lowangila","t":"bh","c":"Meru"}},{"type":"Feature","geometry":{"type":"Point","coordinates":[37.605922,0.461165]},"properties":{"id":"703339539","n":"Ekale Natade water","t":"bh","c":"Meru"}},{"type":"Feature","geometry":{"type":"Point","coordinates":[37.683313,0.463167]},"properties":{"id":"706483084","n":"Aroo center borehole","t":"bh","c":"Meru"}},{"type":"Feature","geometry":{"type":"Point","coordinates":[37.29437,1.03958]},"properties":{"id":"51370389","n":"Lendadapoi Well","t":"bh","c":"Samburu"}},{"type":"Feature","geometry":{"type":"Point","coordinates":[37.346228,1.361627]},"properties":{"id":"568800456","n":"Leangata shallow wells","t":"udw","c":"Samburu"}},{"type":"Feature","geometry":{"type":"Point","coordinates":[37.723516,1.406593]},"properties":{"id":"707925293","n":"Daraja wells","t":"pdw","c":"Samburu"}},{"type":"Feature","geometry":{"type":"Point","coordinates":[37.739581,1.409691]},"properties":{"id":"707925341","n":"Hadado water point","t":"bh","c":"Samburu"}},{"type":"Feature","geometry":{"type":"Point","coordinates":[37.746258,1.414478]},"properties":{"id":"707925365","n":"Merille Gulsan water point","t":"bh","c":"Samburu"}},{"type":"Feature","geometry":{"type":"Point","coordinates":[37.723756,1.406406]},"properties":{"id":"707925444","n":"Daraja water point","t":"pdw","c":"Samburu"}},{"type":"Feature","geometry":{"type":"Point","coordinates":[37.720139,1.409972]},"properties":{"id":"707925303","n":"Lare Loljeiso","t":"us","c":"Samburu"}},{"type":"Feature","geometry":{"type":"Point","coordinates":[37.712861,1.410137]},"properties":{"id":"707925547","n":"Lorora sokotei stream water point","t":"udw","c":"Samburu"}},{"type":"Feature","geometry":{"type":"Point","coordinates":[37.56205,0.76843]},"properties":{"id":"29453041","n":"Lerata B","t":"bh","c":"Samburu"}},{"type":"Feature","geometry":{"type":"Point","coordinates":[36.700139,2.330472]},"properties":{"id":"626077482","n":"Kajiado","t":"bh","c":"Samburu"}},{"type":"Feature","geometry":{"type":"Point","coordinates":[36.82541,0.83907]},"properties":{"id":"29454097","n":"Lowabane","t":"bh","c":"Samburu"}},{"type":"Feature","geometry":{"type":"Point","coordinates":[36.7503,1.00168]},"properties":{"id":"29449909","n":"Lkidiloto","t":"bh","c":"Samburu"}},{"type":"Feature","geometry":{"type":"Point","coordinates":[36.896,0.7709]},"properties":{"id":"29454080","n":"Nkoteiya","t":"bh","c":"Samburu"}},{"type":"Feature","geometry":{"type":"Point","coordinates":[36.675125,1.0674]},"properties":{"id":"572749925","n":"Lolemo 2 shallow well","t":"udw","c":"Samburu"}},{"type":"Feature","geometry":{"type":"Point","coordinates":[36.662403,1.084365]},"properties":{"id":"572655190","n":"Leajore shallow well","t":"udw","c":"Samburu"}},{"type":"Feature","geometry":{"type":"Point","coordinates":[36.703479,1.069766]},"properties":{"id":"574683249","n":"ELSHADDAI WELL","t":"pdw","c":"Samburu"}},{"type":"Feature","geometry":{"type":"Point","coordinates":[36.704316,1.04285]},"properties":{"id":"574112134","n":"Lewarges borehole","t":"bh","c":"Samburu"}},{"type":"Feature","geometry":{"type":"Point","coordinates":[36.646374,1.124773]},"properties":{"id":"572026680","n":"Nkusoro borehole","t":"bh","c":"Samburu"}},{"type":"Feature","geometry":{"type":"Point","coordinates":[36.63183,1.144884]},"properties":{"id":"571702156","n":"Lgoss borehole","t":"bh","c":"Samburu"}},{"type":"Feature","geometry":{"type":"Point","coordinates":[36.705041,1.082162]},"properties":{"id":"568291737","n":"Lesuaa","t":"bh","c":"Samburu"}},{"type":"Feature","geometry":{"type":"Point","coordinates":[36.659821,1.110068]},"properties":{"id":"572197085","n":"Loloswan spring","t":"us","c":"Samburu"}},{"type":"Feature","geometry":{"type":"Point","coordinates":[36.708068,1.055498]},"properties":{"id":"574644046","n":"Yare hand pump","t":"bh","c":"Samburu"}},{"type":"Feature","geometry":{"type":"Point","coordinates":[36.675122,1.067386]},"properties":{"id":"573024373","n":"Lolemo 2 shallow well","t":"udw","c":"Samburu"}},{"type":"Feature","geometry":{"type":"Point","coordinates":[36.628268,1.120427]},"properties":{"id":"571958531","n":"Loonywonyi borehole","t":"bh","c":"Samburu"}},{"type":"Feature","geometry":{"type":"Point","coordinates":[36.633868,1.160652]},"properties":{"id":"571477058","n":"Lmetarai spring","t":"us","c":"Samburu"}},{"type":"Feature","geometry":{"type":"Point","coordinates":[36.628289,1.172494]},"properties":{"id":"570810469","n":"Lakira shallow well","t":"udw","c":"Samburu"}},{"type":"Feature","geometry":{"type":"Point","coordinates":[36.627924,1.172401]},"properties":{"id":"571164853","n":"Lakira spring","t":"us","c":"Samburu"}},{"type":"Feature","geometry":{"type":"Point","coordinates":[36.700081,1.071979]},"properties":{"id":"574420949","n":"Star light shallow well","t":"pdw","c":"Samburu"}},{"type":"Feature","geometry":{"type":"Point","coordinates":[36.702426,1.095323]},"properties":{"id":"104989944","n":"Loibor ngare","t":"bh","c":"Samburu"}},{"type":"Feature","geometry":{"type":"Point","coordinates":[36.70146,1.069349]},"properties":{"id":"574501107","n":"Lelesas shallow well","t":"pdw","c":"Samburu"}},{"type":"Feature","geometry":{"type":"Point","coordinates":[36.709323,1.054804]},"properties":{"id":"574649807","n":"Lesurmat shallow well","t":"pdw","c":"Samburu"}},{"type":"Feature","geometry":{"type":"Point","coordinates":[36.659759,1.111731]},"properties":{"id":"572197092","n":"Loloswan shallow well","t":"udw","c":"Samburu"}},{"type":"Feature","geometry":{"type":"Point","coordinates":[36.650261,1.084479]},"properties":{"id":"569395742","n":"Noontoto shallow well","t":"udw","c":"Samburu"}},{"type":"Feature","geometry":{"type":"Point","coordinates":[36.601177,1.119376]},"properties":{"id":"569398790","n":"Lemako borehole","t":"bh","c":"Samburu"}},{"type":"Feature","geometry":{"type":"Point","coordinates":[36.60743,1.125589]},"properties":{"id":"569401841","n":"Nonkukula shallow well","t":"udw","c":"Samburu"}},{"type":"Feature","geometry":{"type":"Point","coordinates":[36.604181,1.239386]},"properties":{"id":"569420026","n":"Ntashata borehole","t":"bh","c":"Samburu"}},{"type":"Feature","geometry":{"type":"Point","coordinates":[36.69903,1.028062]},"properties":{"id":"574112086","n":"Rambaso shallow wells","t":"udw","c":"Samburu"}},{"type":"Feature","geometry":{"type":"Point","coordinates":[36.572821,1.170585]},"properties":{"id":"570714422","n":"Lmugut shallow well","t":"pdw","c":"Samburu"}},{"type":"Feature","geometry":{"type":"Point","coordinates":[36.597988,1.137929]},"properties":{"id":"569398800","n":"Seketet primary borehole","t":"bh","c":"Samburu"}},{"type":"Feature","geometry":{"type":"Point","coordinates":[36.603795,1.239974]},"properties":{"id":"569419004","n":"Ntashata borehole","t":"bh","c":"Samburu"}},{"type":"Feature","geometry":{"type":"Point","coordinates":[36.647132,1.089639]},"properties":{"id":"572655183","n":"Leleajore shallow well","t":"udw","c":"Samburu"}},{"type":"Feature","geometry":{"type":"Point","coordinates":[36.582443,1.189431]},"properties":{"id":"570789000","n":"Lpangash shallow well","t":"udw","c":"Samburu"}},{"type":"Feature","geometry":{"type":"Point","coordinates":[36.56574,1.230592]},"properties":{"id":"569839471","n":"Nkusoro shallow well","t":"udw","c":"Samburu"}},{"type":"Feature","geometry":{"type":"Point","coordinates":[36.662239,1.060975]},"properties":{"id":"569058724","n":"Lkurum borehole","t":"bh","c":"Samburu"}},{"type":"Feature","geometry":{"type":"Point","coordinates":[36.657568,1.05364]},"properties":{"id":"569014595","n":"Sirata oirobi borehole","t":"bh","c":"Samburu"}},{"type":"Feature","geometry":{"type":"Point","coordinates":[36.584401,1.20827]},"properties":{"id":"570810414","n":"Noonkuyayo spring","t":"us","c":"Samburu"}},{"type":"Feature","geometry":{"type":"Point","coordinates":[36.597555,1.218848]},"properties":{"id":"569440831","n":"Porro Centre Borehole","t":"bh","c":"Samburu"}},{"type":"Feature","geometry":{"type":"Point","coordinates":[36.597878,1.191743]},"properties":{"id":"569416984","n":"Letitoyia shallow well","t":"pdw","c":"Samburu"}},{"type":"Feature","geometry":{"type":"Point","coordinates":[36.580489,1.150488]},"properties":{"id":"569416441","n":"Seketeti community borehole","t":"bh","c":"Samburu"}},{"type":"Feature","geometry":{"type":"Point","coordinates":[36.675299,2.275949]},"properties":{"id":"678258846","n":"Parkati community water well","t":"bh","c":"Turkana"}},{"type":"Feature","geometry":{"type":"Point","coordinates":[39.36779,1.267144]},"properties":{"id":"415045375","n":"Wara Community Water Point","t":"bh","c":"Wajir"}}]}