{"type":"FeatureCollection","features":[{"type":"Feature","geometry":{"type":"Point","coordinates":[40.30782,0.05743]},"properties":{"id":"804534967","n":"J","t":"bh","c":"Garissa"}},{"type":"Feature","geometry":{"type":"Point","coordinates":[40.307856,0.057377]},"properties":{"id":"804535085","n":"L","t":"bh","c":"Garissa"}},{"type":"Feature","geometry":{"type":"Point","coordinates":[39.775155,2.493484]},"properties":{"id":"545240208","n":"Majabow Water point","t":"bh","c":"Wajir"}},{"type":"Feature","geometry":{"type":"Point","coordinates":[40.074228,1.742487]},"properties":{"id":"545204493","n":"Biyamathow","t":"bh","c":"Wajir"}},{"type":"Feature","geometry":{"type":"Point","coordinates":[40.07425,1.742449]},"properties":{"id":"545205528","n":"","t":"udw","c":"Wajir"}},{"type":"Feature","geometry":{"type":"Point","coordinates":[40.068854,1.747793]},"properties":{"id":"4272575","n":"","t":"bh","c":"Wajir"}},{"type":"Feature","geometry":{"type":"Point","coordinates":[40.60037,0.611004]},"properties":{"id":"469012806","n":"Siriba water point","t":"bh","c":"Wajir"}},{"type":"Feature","geometry":{"type":"Point","coordinates":[39.657153,0.997441]},"properties":{"id":"352687928","n":"Karu  water kiosk","t":"bh","c":"Wajir"}},{"type":"Feature","geometry":{"type":"Point","coordinates":[39.548827,1.059573]},"properties":{"id":"415045382","n":"Lagdima Water Kiosk","t":"bh","c":"Wajir"}},{"type":"Feature","geometry":{"type":"Point","coordinates":[39.688857,1.407141]},"properties":{"id":"415045344","n":"Omar Digale","t":"bh","c":"Wajir"}}]}